<?xml version="1.0" encoding="UTF-8"?>
<kml xmlns="http://www.opengis.net/kml/2.2" xmlns:gx="http://www.google.com/kml/ext/2.2">
    <Document id="1">
        <Document id="2">
            <name>EOSS-364</name>
            <description><![CDATA[
    <h1>EOSS-364</h1>
    <table style="width: 100%;" cellpadding=0 cellspacing=0 border=0>
    <tr><td style="border: solid 1px black;border-bottom: 0; padding: 10px;"><strong>Launch Local Date/Time</strong></td><td style=" padding: 10px;border: solid 1px black;border-bottom: 0; border-left: 0;">2024-11-16 07:37:20</td></tr>
    <tr><td style="border: solid 1px black;border-bottom: 0; padding: 10px;"><strong>Flight Duration</strong></td><td style=" padding: 10px;border: solid 1px black;border-bottom: 0; border-left: 0; ">1hrs 26mins 40secs</td></tr>
    <tr><td style="border: solid 1px black;border-bottom: 0; padding: 10px;"><strong>Down Range Distance</strong></td><td style=" padding: 10px;border: solid 1px black;border-bottom: 0; border-left: 0; ">83.9mi (135.1km)</td></tr>
    <tr><td style="border: solid 1px black; padding: 10px;"><strong>Approx. Burst Altitude</strong></td><td style=" padding: 10px;border: solid 1px black; border-left: 0; ">84,498ft (25,755.0m)</td></tr>
    </table>
    ]]></description>
            <Folder id="3">
                <Style id="8">
                    <LineStyle id="9">
                        <color>ff0000ff</color>
                        <colorMode>normal</colorMode>
                        <width>3</width>
                    </LineStyle>
                </Style>
                <Style id="12">
                    <LineStyle id="13">
                        <color>ffff0000</color>
                        <colorMode>normal</colorMode>
                        <width>3</width>
                    </LineStyle>
                </Style>
                <name>Paths</name>
                <Placemark id="7">
                    <name>EOSS-364 Ascent</name>
                    <styleUrl>#8</styleUrl>
                    <LineString id="6">
                        <extrude>0</extrude>
                        <altitudeMode>absolute</altitudeMode>
                        <coordinates>-104.0421666667,39.6083333333,1592.88 -104.042,39.6083333333,1596.24 -104.042,39.6085,1622.15 -104.04,39.6095,1744.37 -104.0383333333,39.6098333333,1845.26 -104.035,39.6105,1985.47 -104.0333333333,39.6108333333,2087.58 -104.0301666667,39.6111666667,2231.75 -104.029,39.6113333333,2335.07 -104.0268333333,39.6113333333,2475.89 -104.0258333333,39.6113333333,2581.66 -104.0243333333,39.6108333333,2730.09 -104.0236666667,39.6108333333,2841.35 -104.0225,39.6105,2988.56 -104.0218333333,39.6105,3095.55 -104.0198333333,39.6103333333,3243.68 -104.0186666667,39.6106666667,3347.31 -104.0156666667,39.611,3505.5 -104.014,39.6115,3613.4 -104.0095,39.6128333333,3760.01 -104.0071666667,39.6138333333,3859.99 -104.0016666667,39.6156666667,4001.72 -103.999,39.6168333333,4107.18 -103.9933333333,39.6195,4257.45 -103.9908333333,39.6208333333,4355.9 -103.9858333333,39.6235,4510.13 -103.9833333333,39.6251666667,4619.24 -103.978,39.6283333333,4753.36 -103.9753333333,39.6301666667,4859.12 -103.9701666667,39.6338333333,5007.25 -103.9675,39.6355,5114.85 -103.962,39.6391666667,5271.52 -103.9593333333,39.6413333333,5379.72 -103.9538333333,39.6455,5535.47 -103.951,39.6476666667,5636.97 -103.9451666667,39.6523333333,5785.1 -103.9425,39.6548333333,5888.43 -103.9368333333,39.6598333333,6048.15 -103.934,39.6626666667,6156.66 -103.9281666667,39.6678333333,6309.06 -103.925,39.671,6416.95 -103.9153333333,39.6796666667,6680.0 -103.9085,39.6858333333,6830.87 -103.9055,39.689,6943.04 -103.8988333333,39.6948333333,7094.83 -103.8958333333,39.6976666667,7189.01 -103.8891666667,39.7038333333,7346.59 -103.886,39.7066666667,7458.15 -103.8793333333,39.7128333333,7611.47 -103.8763333333,39.7158333333,7728.81 -103.87,39.7218333333,7894.62 -103.8665,39.725,7989.72 -103.8598333333,39.7313333333,8144.87 -103.8563333333,39.7346666667,8243.01 -103.8495,39.7413333333,8401.51 -103.846,39.7446666667,8511.84 -103.8388333333,39.7511666667,8666.99 -103.8353333333,39.7546666667,8774.89 -103.828,39.7613333333,8932.47 -103.8245,39.7648333333,9041.89 -103.8165,39.7713333333,9197.04 -103.8125,39.7746666667,9305.54 -103.8043333333,39.7811666667,9470.75 -103.7998333333,39.7845,9582.91 -103.7901666667,39.7915,9752.38 -103.7856666667,39.795,9855.1 -103.7756666667,39.8015,9996.83 -103.771,39.8051666667,10091.62 -103.7613333333,39.8116666667,10245.55 -103.756,39.8148333333,10345.22 -103.7468333333,39.8216666667,10501.27 -103.7421666667,39.825,10599.12 -103.7331666667,39.832,10770.72 -103.7288333333,39.8356666667,10879.53 -103.7196666667,39.843,11043.21 -103.715,39.8468333333,11156.9 -103.7051666667,39.8548333333,11300.16 -103.7005,39.859,11408.36 -103.69,39.8671666667,11553.75 -103.685,39.8711666667,11665.61 -103.6745,39.879,11827.15 -103.6695,39.883,11922.56 -103.6578333333,39.8906666667,12095.99 -103.6521666667,39.8943333333,12200.23 -103.6405,39.9011666667,12378.54 -103.635,39.9046666667,12493.14 -103.624,39.9113333333,12659.56 -103.6186666667,39.9146666667,12774.47 -103.6026666667,39.9246666667,13095.12 -103.5931666667,39.931,13261.24 -103.5886666667,39.9343333333,13388.95 -103.5791666667,39.9413333333,13559.94 -103.5746666667,39.9448333333,13688.26 -103.5651666667,39.9518333333,13857.43 -103.5608333333,39.9548333333,13966.85 -103.5461666667,39.9641666667,14260.07 -103.5356666667,39.9701666667,14426.18 -103.5305,39.9728333333,14542.92 -103.5205,39.9778333333,14752.93 -103.5155,39.9798333333,14880.34 -103.5051666667,39.984,15051.33 -103.5,39.9855,15177.82 -103.4901666667,39.988,15334.49 -103.486,39.9893333333,15454.58 -103.4795,39.9915,15629.84 -103.4773333333,39.9926666667,15738.65 -103.474,39.9941666667,15916.66 -103.4733333333,39.995,16038.27 -103.4716666667,39.9966666667,16244.62 -103.471,39.9973333333,16369.89 -103.4688333333,39.999,16697.25 -103.468,39.9993333333,16879.21 -103.4676666667,39.9995,17028.57 -103.4655,40.0001666667,17394.94 -103.4635,40.0005,17573.55 -103.4621666667,40.0006666667,17721.38 -103.4598333333,40.0003333333,17904.56 -103.4593333333,40.0005,18013.68 -103.4596666667,39.9998333333,18208.14 -103.4606666667,39.9993333333,18326.71 -103.4615,39.9998333333,18535.19 -103.4613333333,39.9993333333,18661.38 -103.4625,39.9995,18905.52 -103.4618333333,39.9998333333,19020.13 -103.4615,40.0003333333,19121.63 -103.4605,40.0,19313.04 -103.4601666667,39.9998333333,19454.16 -103.4591666667,39.9998333333,19805.6 -103.4578333333,39.9995,19986.04 -103.457,39.9995,20098.21 -103.454,39.9983333333,20321.93 -103.453,39.9973333333,20460.61 -103.4528333333,39.9971666667,20559.98 -103.4513333333,39.9966666667,20661.17 -103.451,39.9966666667,20749.87 -103.4501666667,39.9961666667,20927.57 -103.45,39.996,21019.92 -103.451,39.9956666667,21255.53 -103.4516666667,39.996,21375.93 -103.452,39.9963333333,21464.32 -103.4513333333,39.9976666667,21692.31 -103.4495,39.9985,21927.01 -103.448,39.9983333333,22165.97 -103.4478333333,39.9986666667,22406.15 -103.447,39.9991666667,22626.22 -103.446,39.9991666667,22741.74 -103.4453333333,39.9993333333,22831.96 -103.443,39.9988333333,23057.51 -103.4426666667,39.998,23156.27 -103.4428333333,39.9975,23235.82 -103.4426666667,39.9961666667,23421.75 -103.4423333333,39.9953333333,23522.94 -103.4423333333,39.995,23611.33 -103.4421666667,39.9941666667,23816.16 -103.442,39.9931666667,23935.64 -103.442,39.9925,24025.56 -103.4421666667,39.9898333333,24243.79 -103.4421666667,39.9886666667,24364.8 -103.4418333333,39.9883333333,24453.49 -103.4411666667,39.9878333333,24660.15 -103.4403333333,39.9881666667,24777.5 -103.4398333333,39.9883333333,24866.8 -103.4376666667,39.9886666667,25108.51 -103.4365,39.9878333333,25236.83 -103.436,39.9875,25324.61 -103.4358333333,39.986,25535.23 -103.4366666667,39.9848333333,25664.16 -103.437,39.9846666667,25754.99</coordinates>
                    </LineString>
                </Placemark>
                <Placemark id="11">
                    <name>EOSS-364 Descent</name>
                    <styleUrl>#12</styleUrl>
                    <LineString id="10">
                        <extrude>0</extrude>
                        <altitudeMode>absolute</altitudeMode>
                        <coordinates>-103.437,39.9846666667,25754.99 -103.4363333333,39.9843333333,24920.14 -103.4376666667,39.9825,24103.58 -103.4378333333,39.9818333333,23541.84 -103.4376666667,39.982,23309.88 -103.4368333333,39.981,22757.28 -103.4366666667,39.9813333333,22523.2 -103.4361666667,39.981,22002.6 -103.4353333333,39.9811666667,21776.13 -103.4353333333,39.9815,21078.14 -103.4341666667,39.981,20446.29 -103.4328333333,39.9806666667,19798.59 -103.4316666667,39.9805,19206.67 -103.4306666667,39.9806666667,18805.55 -103.4306666667,39.9805,18631.81 -103.4316666667,39.9806666667,18088.97 -103.4291666667,39.9801666667,17573.85 -103.4268333333,39.9808333333,17071.24 -103.4256666667,39.9815,16738.7 -103.4248333333,39.982,16575.94 -103.4221666667,39.9838333333,16098.93 -103.4163333333,39.986,15651.78 -103.4045,39.9893333333,15220.8 -103.3898333333,39.9955,14816.63 -103.3745,40.0031666667,14430.45 -103.3641666667,40.0095,14163.75 -103.3593333333,40.0128333333,14061.95 -103.3446666667,40.023,13703.81 -103.3295,40.034,13367.61 -103.3196666667,40.0406666667,13124.08 -103.3141666667,40.0445,13036.6 -103.2975,40.0548333333,12711.38 -103.2796666667,40.0651666667,12388.6 -103.2668333333,40.0723333333,12163.65 -103.261,40.0766666667,12086.84 -103.2431666667,40.0888333333,11788.44 -103.226,40.1018333333,11501.63 -103.215,40.111,11301.37 -103.21,40.1151666667,11227.92 -103.1991666667,40.1231666667,11020.65 -103.1943333333,40.1271666667,10944.45 -103.1793333333,40.138,10680.19 -103.1638333333,40.1485,10429.34 -103.153,40.1551666667,10242.8 -103.1481666667,40.1586666667,10180.93 -103.1378333333,40.166,10000.18 -103.1325,40.1698333333,9944.71 -103.1228333333,40.177,9763.96 -103.118,40.1806666667,9703.0 -103.1048333333,40.191,9460.99 -103.0966666667,40.1981666667,9285.12 -103.093,40.202,9223.25 -103.0855,40.2093333333,9048.9 -103.081,40.213,8995.87 -103.0731666667,40.2201666667,8823.05 -103.07,40.2235,8768.18 -103.0626666667,40.2303333333,8591.4 -103.0593333333,40.234,8531.66 -103.0491666667,40.2443333333,8301.84 -103.0425,40.2513333333,8133.59 -103.0395,40.2551666667,8080.25 -103.033,40.262,7913.83 -103.0293333333,40.2655,7857.44 -103.0225,40.272,7687.67 -103.019,40.2756666667,7634.63 -103.0086666667,40.285,7417.92 -102.998,40.2945,7208.22 -102.9873333333,40.304,7004.91 -102.9801666667,40.3101666667,6850.99 -102.9763333333,40.3131666667,6802.83 -102.9686666667,40.3191666667,6651.04 -102.9646666667,40.3221666667,6603.19 -102.953,40.3306666667,6408.42 -102.942,40.3386666667,6214.57 -102.9311666667,40.3463333333,6024.37 -102.9241666667,40.3508333333,5876.24 -102.9208333333,40.353,5830.21 -102.9141666667,40.3575,5683.3 -102.9111666667,40.3598333333,5639.41 -102.9043333333,40.3636666667,5486.1 -102.9015,40.3653333333,5442.2 -102.892,40.3703333333,5245.0 -102.8826666667,40.375,5051.15 -102.8773333333,40.3775,4905.76 -102.8743333333,40.3788333333,4863.39 -102.8666666667,40.382,4685.39 -102.8615,40.384,4551.88 -102.8593333333,40.3851666667,4515.61 -102.853,40.3868333333,4339.44 -102.8485,40.3886666667,4179.72 -102.8463333333,40.3896666667,4059.63 -102.8453333333,40.3905,4021.23 -102.8431666667,40.3915,3878.28 -102.842,40.3923333333,3840.18 -102.839,40.395,3667.05 -102.8376666667,40.3968333333,3535.38 -102.837,40.3976666667,3500.93 -102.8351666667,40.399,3366.82 -102.8343333333,40.3998333333,3329.94 -102.8336666667,40.4003333333,3201.92 -102.8335,40.4008333333,3163.82 -102.8325,40.4018333333,3034.59 -102.8318333333,40.4025,3002.58 -102.83,40.4035,2877.62 -102.829,40.404,2847.44 -102.8273333333,40.405,2694.13 -102.8273333333,40.406,2570.68 -102.8276666667,40.4065,2543.56 -102.828,40.4071666667,2389.94 -102.828,40.4073333333,2264.05 -102.8285,40.4075,2233.88 -102.83,40.4073333333,2072.64 -102.831,40.4065,1948.59 -102.8316666667,40.4061666667,1914.75 -102.8331666667,40.404,1747.42 -102.8338333333,40.4018333333,1620.01 -102.8346666667,40.401,1588.01 -102.8365,40.3986666667,1431.95</coordinates>
                    </LineString>
                </Placemark>
            </Folder>
            <Folder id="4">
                <Style id="43">
                    <IconStyle id="44">
                        <color>ff0000ff</color>
                        <colorMode>normal</colorMode>
                        <scale>1</scale>
                        <heading>0</heading>
                        <Icon id="45">
                            <href>https://maps.google.com/mapfiles/kml/shapes/placemark_circle.png</href>
                        </Icon>
                    </IconStyle>
                </Style>
                <Style id="48">
                    <IconStyle id="49">
                        <color>ff0000ff</color>
                        <colorMode>normal</colorMode>
                        <scale>1</scale>
                        <heading>0</heading>
                        <Icon id="50">
                            <href>https://maps.google.com/mapfiles/kml/shapes/placemark_circle.png</href>
                        </Icon>
                    </IconStyle>
                </Style>
                <Style id="53">
                    <IconStyle id="54">
                        <color>ff0000ff</color>
                        <colorMode>normal</colorMode>
                        <scale>1</scale>
                        <heading>0</heading>
                        <Icon id="55">
                            <href>https://maps.google.com/mapfiles/kml/shapes/placemark_circle.png</href>
                        </Icon>
                    </IconStyle>
                </Style>
                <Style id="58">
                    <IconStyle id="59">
                        <color>ff0000ff</color>
                        <colorMode>normal</colorMode>
                        <scale>1</scale>
                        <heading>0</heading>
                        <Icon id="60">
                            <href>https://maps.google.com/mapfiles/kml/shapes/placemark_circle.png</href>
                        </Icon>
                    </IconStyle>
                </Style>
                <Style id="63">
                    <IconStyle id="64">
                        <color>ff0000ff</color>
                        <colorMode>normal</colorMode>
                        <scale>1</scale>
                        <heading>0</heading>
                        <Icon id="65">
                            <href>https://maps.google.com/mapfiles/kml/shapes/placemark_circle.png</href>
                        </Icon>
                    </IconStyle>
                </Style>
                <Style id="68">
                    <IconStyle id="69">
                        <color>ff0000ff</color>
                        <colorMode>normal</colorMode>
                        <scale>1</scale>
                        <heading>0</heading>
                        <Icon id="70">
                            <href>https://maps.google.com/mapfiles/kml/shapes/placemark_circle.png</href>
                        </Icon>
                    </IconStyle>
                </Style>
                <Style id="73">
                    <IconStyle id="74">
                        <color>ff0000ff</color>
                        <colorMode>normal</colorMode>
                        <scale>1</scale>
                        <heading>0</heading>
                        <Icon id="75">
                            <href>https://maps.google.com/mapfiles/kml/shapes/placemark_circle.png</href>
                        </Icon>
                    </IconStyle>
                </Style>
                <Style id="78">
                    <IconStyle id="79">
                        <color>ff0000ff</color>
                        <colorMode>normal</colorMode>
                        <scale>1</scale>
                        <heading>0</heading>
                        <Icon id="80">
                            <href>https://maps.google.com/mapfiles/kml/shapes/placemark_circle.png</href>
                        </Icon>
                    </IconStyle>
                </Style>
                <Style id="83">
                    <IconStyle id="84">
                        <color>ffff0000</color>
                        <colorMode>normal</colorMode>
                        <scale>1</scale>
                        <heading>0</heading>
                        <Icon id="85">
                            <href>https://maps.google.com/mapfiles/kml/shapes/placemark_circle.png</href>
                        </Icon>
                    </IconStyle>
                </Style>
                <Style id="88">
                    <IconStyle id="89">
                        <color>ffff0000</color>
                        <colorMode>normal</colorMode>
                        <scale>1</scale>
                        <heading>0</heading>
                        <Icon id="90">
                            <href>https://maps.google.com/mapfiles/kml/shapes/placemark_circle.png</href>
                        </Icon>
                    </IconStyle>
                </Style>
                <Style id="93">
                    <IconStyle id="94">
                        <color>ffff0000</color>
                        <colorMode>normal</colorMode>
                        <scale>1</scale>
                        <heading>0</heading>
                        <Icon id="95">
                            <href>https://maps.google.com/mapfiles/kml/shapes/placemark_circle.png</href>
                        </Icon>
                    </IconStyle>
                </Style>
                <Style id="98">
                    <IconStyle id="99">
                        <color>ffff0000</color>
                        <colorMode>normal</colorMode>
                        <scale>1</scale>
                        <heading>0</heading>
                        <Icon id="100">
                            <href>https://maps.google.com/mapfiles/kml/shapes/placemark_circle.png</href>
                        </Icon>
                    </IconStyle>
                </Style>
                <Style id="103">
                    <IconStyle id="104">
                        <color>ffff0000</color>
                        <colorMode>normal</colorMode>
                        <scale>1</scale>
                        <heading>0</heading>
                        <Icon id="105">
                            <href>https://maps.google.com/mapfiles/kml/shapes/placemark_circle.png</href>
                        </Icon>
                    </IconStyle>
                </Style>
                <Style id="108">
                    <IconStyle id="109">
                        <color>ffff0000</color>
                        <colorMode>normal</colorMode>
                        <scale>1</scale>
                        <heading>0</heading>
                        <Icon id="110">
                            <href>https://maps.google.com/mapfiles/kml/shapes/placemark_circle.png</href>
                        </Icon>
                    </IconStyle>
                </Style>
                <Style id="113">
                    <IconStyle id="114">
                        <color>ffff0000</color>
                        <colorMode>normal</colorMode>
                        <scale>1</scale>
                        <heading>0</heading>
                        <Icon id="115">
                            <href>https://maps.google.com/mapfiles/kml/shapes/placemark_circle.png</href>
                        </Icon>
                    </IconStyle>
                </Style>
                <Style id="118">
                    <IconStyle id="119">
                        <color>ffff0000</color>
                        <colorMode>normal</colorMode>
                        <scale>1</scale>
                        <heading>0</heading>
                        <Icon id="120">
                            <href>https://maps.google.com/mapfiles/kml/shapes/placemark_circle.png</href>
                        </Icon>
                    </IconStyle>
                </Style>
                <name>Waypoints</name>
                <Placemark id="42">
                    <name>10k</name>
                    <description><![CDATA[
        <h1>Waypoint</h1>
        <table style="width: 100%;" cellpadding=0 cellspacing=0 border=0>
        <tr><td style="padding: 10px; border: solid 1px black;border-bottom: 0;"><strong>Local Time</strong></td><td style="border: solid 1px black;border-left: 0; border-bottom: 0; padding: 10px;">07:41:00</td></tr>
        <tr><td style="padding: 10px; border: solid 1px black;border-bottom: 0;"><strong>Altitude</strong></td><td style="border: solid 1px black;border-left: 0; border-bottom: 0; padding: 10px;">10,156ft (3,095.6m)</td></tr>
        <tr><td style="padding: 10px; border: solid 1px black;"><strong>Coordinates</strong></td><td style="border: solid 1px black; border-left: 0; padding: 10px;">39.6105, -104.02183333</td></tr>
        </table>
        ]]></description>
                    <styleUrl>#43</styleUrl>
                    <Point id="41">
                        <coordinates>-104.0218333333,39.6105,3095.55</coordinates>
                        <altitudeMode>absolute</altitudeMode>
                    </Point>
                </Placemark>
                <Placemark id="47">
                    <name>20k</name>
                    <description><![CDATA[
        <h1>Waypoint</h1>
        <table style="width: 100%;" cellpadding=0 cellspacing=0 border=0>
        <tr><td style="padding: 10px; border: solid 1px black;border-bottom: 0;"><strong>Local Time</strong></td><td style="border: solid 1px black;border-left: 0; border-bottom: 0; padding: 10px;">07:46:50</td></tr>
        <tr><td style="padding: 10px; border: solid 1px black;border-bottom: 0;"><strong>Altitude</strong></td><td style="border: solid 1px black;border-left: 0; border-bottom: 0; padding: 10px;">19,843ft (6,048.1m)</td></tr>
        <tr><td style="padding: 10px; border: solid 1px black;"><strong>Coordinates</strong></td><td style="border: solid 1px black; border-left: 0; padding: 10px;">39.65983333, -103.93683333</td></tr>
        </table>
        ]]></description>
                    <styleUrl>#48</styleUrl>
                    <Point id="46">
                        <coordinates>-103.9368333333,39.6598333333,6048.15</coordinates>
                        <altitudeMode>absolute</altitudeMode>
                    </Point>
                </Placemark>
                <Placemark id="52">
                    <name>30k</name>
                    <description><![CDATA[
        <h1>Waypoint</h1>
        <table style="width: 100%;" cellpadding=0 cellspacing=0 border=0>
        <tr><td style="padding: 10px; border: solid 1px black;border-bottom: 0;"><strong>Local Time</strong></td><td style="border: solid 1px black;border-left: 0; border-bottom: 0; padding: 10px;">07:52:50</td></tr>
        <tr><td style="padding: 10px; border: solid 1px black;border-bottom: 0;"><strong>Altitude</strong></td><td style="border: solid 1px black;border-left: 0; border-bottom: 0; padding: 10px;">30,174ft (9,197.0m)</td></tr>
        <tr><td style="padding: 10px; border: solid 1px black;"><strong>Coordinates</strong></td><td style="border: solid 1px black; border-left: 0; padding: 10px;">39.77133333, -103.8165</td></tr>
        </table>
        ]]></description>
                    <styleUrl>#53</styleUrl>
                    <Point id="51">
                        <coordinates>-103.8165,39.7713333333,9197.04</coordinates>
                        <altitudeMode>absolute</altitudeMode>
                    </Point>
                </Placemark>
                <Placemark id="57">
                    <name>40k</name>
                    <description><![CDATA[
        <h1>Waypoint</h1>
        <table style="width: 100%;" cellpadding=0 cellspacing=0 border=0>
        <tr><td style="padding: 10px; border: solid 1px black;border-bottom: 0;"><strong>Local Time</strong></td><td style="border: solid 1px black;border-left: 0; border-bottom: 0; padding: 10px;">07:58:30</td></tr>
        <tr><td style="padding: 10px; border: solid 1px black;border-bottom: 0;"><strong>Altitude</strong></td><td style="border: solid 1px black;border-left: 0; border-bottom: 0; padding: 10px;">40,027ft (12,200.2m)</td></tr>
        <tr><td style="padding: 10px; border: solid 1px black;"><strong>Coordinates</strong></td><td style="border: solid 1px black; border-left: 0; padding: 10px;">39.89433333, -103.65216667</td></tr>
        </table>
        ]]></description>
                    <styleUrl>#58</styleUrl>
                    <Point id="56">
                        <coordinates>-103.6521666667,39.8943333333,12200.23</coordinates>
                        <altitudeMode>absolute</altitudeMode>
                    </Point>
                </Placemark>
                <Placemark id="62">
                    <name>50k</name>
                    <description><![CDATA[
        <h1>Waypoint</h1>
        <table style="width: 100%;" cellpadding=0 cellspacing=0 border=0>
        <tr><td style="padding: 10px; border: solid 1px black;border-bottom: 0;"><strong>Local Time</strong></td><td style="border: solid 1px black;border-left: 0; border-bottom: 0; padding: 10px;">08:03:30</td></tr>
        <tr><td style="padding: 10px; border: solid 1px black;border-bottom: 0;"><strong>Altitude</strong></td><td style="border: solid 1px black;border-left: 0; border-bottom: 0; padding: 10px;">49,796ft (15,177.8m)</td></tr>
        <tr><td style="padding: 10px; border: solid 1px black;"><strong>Coordinates</strong></td><td style="border: solid 1px black; border-left: 0; padding: 10px;">39.9855, -103.5</td></tr>
        </table>
        ]]></description>
                    <styleUrl>#63</styleUrl>
                    <Point id="61">
                        <coordinates>-103.5,39.9855,15177.82</coordinates>
                        <altitudeMode>absolute</altitudeMode>
                    </Point>
                </Placemark>
                <Placemark id="67">
                    <name>60k</name>
                    <description><![CDATA[
        <h1>Waypoint</h1>
        <table style="width: 100%;" cellpadding=0 cellspacing=0 border=0>
        <tr><td style="padding: 10px; border: solid 1px black;border-bottom: 0;"><strong>Local Time</strong></td><td style="border: solid 1px black;border-left: 0; border-bottom: 0; padding: 10px;">08:08:30</td></tr>
        <tr><td style="padding: 10px; border: solid 1px black;border-bottom: 0;"><strong>Altitude</strong></td><td style="border: solid 1px black;border-left: 0; border-bottom: 0; padding: 10px;">60,127ft (18,326.7m)</td></tr>
        <tr><td style="padding: 10px; border: solid 1px black;"><strong>Coordinates</strong></td><td style="border: solid 1px black; border-left: 0; padding: 10px;">39.99933333, -103.46066667</td></tr>
        </table>
        ]]></description>
                    <styleUrl>#68</styleUrl>
                    <Point id="66">
                        <coordinates>-103.4606666667,39.9993333333,18326.71</coordinates>
                        <altitudeMode>absolute</altitudeMode>
                    </Point>
                </Placemark>
                <Placemark id="72">
                    <name>70k</name>
                    <description><![CDATA[
        <h1>Waypoint</h1>
        <table style="width: 100%;" cellpadding=0 cellspacing=0 border=0>
        <tr><td style="padding: 10px; border: solid 1px black;border-bottom: 0;"><strong>Local Time</strong></td><td style="border: solid 1px black;border-left: 0; border-bottom: 0; padding: 10px;">08:14:20</td></tr>
        <tr><td style="padding: 10px; border: solid 1px black;border-bottom: 0;"><strong>Altitude</strong></td><td style="border: solid 1px black;border-left: 0; border-bottom: 0; padding: 10px;">70,131ft (21,375.9m)</td></tr>
        <tr><td style="padding: 10px; border: solid 1px black;"><strong>Coordinates</strong></td><td style="border: solid 1px black; border-left: 0; padding: 10px;">39.996, -103.45166667</td></tr>
        </table>
        ]]></description>
                    <styleUrl>#73</styleUrl>
                    <Point id="71">
                        <coordinates>-103.4516666667,39.996,21375.93</coordinates>
                        <altitudeMode>absolute</altitudeMode>
                    </Point>
                </Placemark>
                <Placemark id="77">
                    <name>80k</name>
                    <description><![CDATA[
        <h1>Waypoint</h1>
        <table style="width: 100%;" cellpadding=0 cellspacing=0 border=0>
        <tr><td style="padding: 10px; border: solid 1px black;border-bottom: 0;"><strong>Local Time</strong></td><td style="border: solid 1px black;border-left: 0; border-bottom: 0; padding: 10px;">08:21:20</td></tr>
        <tr><td style="padding: 10px; border: solid 1px black;border-bottom: 0;"><strong>Altitude</strong></td><td style="border: solid 1px black;border-left: 0; border-bottom: 0; padding: 10px;">79,937ft (24,364.8m)</td></tr>
        <tr><td style="padding: 10px; border: solid 1px black;"><strong>Coordinates</strong></td><td style="border: solid 1px black; border-left: 0; padding: 10px;">39.98866667, -103.44216667</td></tr>
        </table>
        ]]></description>
                    <styleUrl>#78</styleUrl>
                    <Point id="76">
                        <coordinates>-103.4421666667,39.9886666667,24364.8</coordinates>
                        <altitudeMode>absolute</altitudeMode>
                    </Point>
                </Placemark>
                <Placemark id="82">
                    <name>10k</name>
                    <description><![CDATA[
        <h1>Waypoint</h1>
        <table style="width: 100%;" cellpadding=0 cellspacing=0 border=0>
        <tr><td style="padding: 10px; border: solid 1px black;border-bottom: 0;"><strong>Local Time</strong></td><td style="border: solid 1px black;border-left: 0; border-bottom: 0; padding: 10px;">08:58:50</td></tr>
        <tr><td style="padding: 10px; border: solid 1px black;border-bottom: 0;"><strong>Altitude</strong></td><td style="border: solid 1px black;border-left: 0; border-bottom: 0; padding: 10px;">9,956ft (3,034.6m)</td></tr>
        <tr><td style="padding: 10px; border: solid 1px black;"><strong>Coordinates</strong></td><td style="border: solid 1px black; border-left: 0; padding: 10px;">40.40183333, -102.8325</td></tr>
        </table>
        ]]></description>
                    <styleUrl>#83</styleUrl>
                    <Point id="81">
                        <coordinates>-102.8325,40.4018333333,3034.59</coordinates>
                        <altitudeMode>absolute</altitudeMode>
                    </Point>
                </Placemark>
                <Placemark id="87">
                    <name>20k</name>
                    <description><![CDATA[
        <h1>Waypoint</h1>
        <table style="width: 100%;" cellpadding=0 cellspacing=0 border=0>
        <tr><td style="padding: 10px; border: solid 1px black;border-bottom: 0;"><strong>Local Time</strong></td><td style="border: solid 1px black;border-left: 0; border-bottom: 0; padding: 10px;">08:50:30</td></tr>
        <tr><td style="padding: 10px; border: solid 1px black;border-bottom: 0;"><strong>Altitude</strong></td><td style="border: solid 1px black;border-left: 0; border-bottom: 0; padding: 10px;">19,765ft (6,024.4m)</td></tr>
        <tr><td style="padding: 10px; border: solid 1px black;"><strong>Coordinates</strong></td><td style="border: solid 1px black; border-left: 0; padding: 10px;">40.34633333, -102.93116667</td></tr>
        </table>
        ]]></description>
                    <styleUrl>#88</styleUrl>
                    <Point id="86">
                        <coordinates>-102.9311666667,40.3463333333,6024.37</coordinates>
                        <altitudeMode>absolute</altitudeMode>
                    </Point>
                </Placemark>
                <Placemark id="92">
                    <name>30k</name>
                    <description><![CDATA[
        <h1>Waypoint</h1>
        <table style="width: 100%;" cellpadding=0 cellspacing=0 border=0>
        <tr><td style="padding: 10px; border: solid 1px black;border-bottom: 0;"><strong>Local Time</strong></td><td style="border: solid 1px black;border-left: 0; border-bottom: 0; padding: 10px;">08:43:00</td></tr>
        <tr><td style="padding: 10px; border: solid 1px black;border-bottom: 0;"><strong>Altitude</strong></td><td style="border: solid 1px black;border-left: 0; border-bottom: 0; padding: 10px;">30,260ft (9,223.2m)</td></tr>
        <tr><td style="padding: 10px; border: solid 1px black;"><strong>Coordinates</strong></td><td style="border: solid 1px black; border-left: 0; padding: 10px;">40.202, -103.093</td></tr>
        </table>
        ]]></description>
                    <styleUrl>#93</styleUrl>
                    <Point id="91">
                        <coordinates>-103.093,40.202,9223.25</coordinates>
                        <altitudeMode>absolute</altitudeMode>
                    </Point>
                </Placemark>
                <Placemark id="97">
                    <name>40k</name>
                    <description><![CDATA[
        <h1>Waypoint</h1>
        <table style="width: 100%;" cellpadding=0 cellspacing=0 border=0>
        <tr><td style="padding: 10px; border: solid 1px black;border-bottom: 0;"><strong>Local Time</strong></td><td style="border: solid 1px black;border-left: 0; border-bottom: 0; padding: 10px;">08:37:20</td></tr>
        <tr><td style="padding: 10px; border: solid 1px black;border-bottom: 0;"><strong>Altitude</strong></td><td style="border: solid 1px black;border-left: 0; border-bottom: 0; padding: 10px;">39,907ft (12,163.6m)</td></tr>
        <tr><td style="padding: 10px; border: solid 1px black;"><strong>Coordinates</strong></td><td style="border: solid 1px black; border-left: 0; padding: 10px;">40.07233333, -103.26683333</td></tr>
        </table>
        ]]></description>
                    <styleUrl>#98</styleUrl>
                    <Point id="96">
                        <coordinates>-103.2668333333,40.0723333333,12163.65</coordinates>
                        <altitudeMode>absolute</altitudeMode>
                    </Point>
                </Placemark>
                <Placemark id="102">
                    <name>50k</name>
                    <description><![CDATA[
        <h1>Waypoint</h1>
        <table style="width: 100%;" cellpadding=0 cellspacing=0 border=0>
        <tr><td style="padding: 10px; border: solid 1px black;border-bottom: 0;"><strong>Local Time</strong></td><td style="border: solid 1px black;border-left: 0; border-bottom: 0; padding: 10px;">08:33:00</td></tr>
        <tr><td style="padding: 10px; border: solid 1px black;border-bottom: 0;"><strong>Altitude</strong></td><td style="border: solid 1px black;border-left: 0; border-bottom: 0; padding: 10px;">49,937ft (15,220.8m)</td></tr>
        <tr><td style="padding: 10px; border: solid 1px black;"><strong>Coordinates</strong></td><td style="border: solid 1px black; border-left: 0; padding: 10px;">39.98933333, -103.4045</td></tr>
        </table>
        ]]></description>
                    <styleUrl>#103</styleUrl>
                    <Point id="101">
                        <coordinates>-103.4045,39.9893333333,15220.8</coordinates>
                        <altitudeMode>absolute</altitudeMode>
                    </Point>
                </Placemark>
                <Placemark id="107">
                    <name>59k</name>
                    <description><![CDATA[
        <h1>Waypoint</h1>
        <table style="width: 100%;" cellpadding=0 cellspacing=0 border=0>
        <tr><td style="padding: 10px; border: solid 1px black;border-bottom: 0;"><strong>Local Time</strong></td><td style="border: solid 1px black;border-left: 0; border-bottom: 0; padding: 10px;">08:30:00</td></tr>
        <tr><td style="padding: 10px; border: solid 1px black;border-bottom: 0;"><strong>Altitude</strong></td><td style="border: solid 1px black;border-left: 0; border-bottom: 0; padding: 10px;">59,347ft (18,089.0m)</td></tr>
        <tr><td style="padding: 10px; border: solid 1px black;"><strong>Coordinates</strong></td><td style="border: solid 1px black; border-left: 0; padding: 10px;">39.98066667, -103.43166667</td></tr>
        </table>
        ]]></description>
                    <styleUrl>#108</styleUrl>
                    <Point id="106">
                        <coordinates>-103.4316666667,39.9806666667,18088.97</coordinates>
                        <altitudeMode>absolute</altitudeMode>
                    </Point>
                </Placemark>
                <Placemark id="112">
                    <name>69k</name>
                    <description><![CDATA[
        <h1>Waypoint</h1>
        <table style="width: 100%;" cellpadding=0 cellspacing=0 border=0>
        <tr><td style="padding: 10px; border: solid 1px black;border-bottom: 0;"><strong>Local Time</strong></td><td style="border: solid 1px black;border-left: 0; border-bottom: 0; padding: 10px;">08:27:30</td></tr>
        <tr><td style="padding: 10px; border: solid 1px black;border-bottom: 0;"><strong>Altitude</strong></td><td style="border: solid 1px black;border-left: 0; border-bottom: 0; padding: 10px;">69,154ft (21,078.1m)</td></tr>
        <tr><td style="padding: 10px; border: solid 1px black;"><strong>Coordinates</strong></td><td style="border: solid 1px black; border-left: 0; padding: 10px;">39.9815, -103.43533333</td></tr>
        </table>
        ]]></description>
                    <styleUrl>#113</styleUrl>
                    <Point id="111">
                        <coordinates>-103.4353333333,39.9815,21078.14</coordinates>
                        <altitudeMode>absolute</altitudeMode>
                    </Point>
                </Placemark>
                <Placemark id="117">
                    <name>79k</name>
                    <description><![CDATA[
        <h1>Waypoint</h1>
        <table style="width: 100%;" cellpadding=0 cellspacing=0 border=0>
        <tr><td style="padding: 10px; border: solid 1px black;border-bottom: 0;"><strong>Local Time</strong></td><td style="border: solid 1px black;border-left: 0; border-bottom: 0; padding: 10px;">08:25:30</td></tr>
        <tr><td style="padding: 10px; border: solid 1px black;border-bottom: 0;"><strong>Altitude</strong></td><td style="border: solid 1px black;border-left: 0; border-bottom: 0; padding: 10px;">79,080ft (24,103.6m)</td></tr>
        <tr><td style="padding: 10px; border: solid 1px black;"><strong>Coordinates</strong></td><td style="border: solid 1px black; border-left: 0; padding: 10px;">39.9825, -103.43766667</td></tr>
        </table>
        ]]></description>
                    <styleUrl>#118</styleUrl>
                    <Point id="116">
                        <coordinates>-103.4376666667,39.9825,24103.58</coordinates>
                        <altitudeMode>absolute</altitudeMode>
                    </Point>
                </Placemark>
            </Folder>
            <Folder id="5">
                <Style id="16">
                    <IconStyle id="17">
                        <color>ff008cff</color>
                        <colorMode>normal</colorMode>
                        <scale>1</scale>
                        <heading>0</heading>
                        <Icon id="18">
                            <href>https://maps.google.com/mapfiles/kml/shapes/placemark_circle.png</href>
                        </Icon>
                    </IconStyle>
                </Style>
                <Style id="21">
                    <IconStyle id="22">
                        <color>ff008cff</color>
                        <colorMode>normal</colorMode>
                        <scale>1</scale>
                        <heading>0</heading>
                        <Icon id="23">
                            <href>https://maps.google.com/mapfiles/kml/shapes/placemark_circle.png</href>
                        </Icon>
                    </IconStyle>
                </Style>
                <Style id="26">
                    <IconStyle id="27">
                        <color>ff00ffff</color>
                        <colorMode>normal</colorMode>
                        <scale>1</scale>
                        <heading>0</heading>
                        <Icon id="28">
                            <href>https://maps.google.com/mapfiles/kml/shapes/placemark_circle.png</href>
                        </Icon>
                    </IconStyle>
                </Style>
                <Style id="31">
                    <IconStyle id="32">
                        <color>ff006400</color>
                        <colorMode>normal</colorMode>
                        <scale>1</scale>
                        <heading>0</heading>
                        <Icon id="33">
                            <href>https://maps.google.com/mapfiles/kml/shapes/placemark_circle.png</href>
                        </Icon>
                    </IconStyle>
                    <LabelStyle id="34">
                        <color>ff006400</color>
                        <colorMode>normal</colorMode>
                        <scale>1</scale>
                    </LabelStyle>
                </Style>
                <Style id="37">
                    <IconStyle id="38">
                        <color>ff006400</color>
                        <colorMode>normal</colorMode>
                        <scale>1</scale>
                        <heading>0</heading>
                        <Icon id="39">
                            <href>https://maps.google.com/mapfiles/kml/shapes/placemark_circle.png</href>
                        </Icon>
                    </IconStyle>
                    <LabelStyle id="40">
                        <color>ff006400</color>
                        <colorMode>normal</colorMode>
                        <scale>1</scale>
                    </LabelStyle>
                </Style>
                <name>Points of Interest</name>
                <Placemark id="15">
                    <name>Launch</name>
                    <description><![CDATA[
    <h1>Launch</h1>
    <table style="width: 100%;" cellpadding=0 cellspacing=0 border=0>
    <tr><td style="padding: 10px; border: solid 1px black;border-bottom: 0;"><strong>Local Time</strong></td><td style="border: solid 1px black;border-bottom: 0; border-left: 0; padding: 10px;">07:37:20</td></tr>
    <tr><td style="padding: 10px; border: solid 1px black;border-bottom: 0;"><strong>Altitude</strong></td><td style="border: solid 1px black;border-left: 0; border-bottom: 0; padding: 10px;">5,226ft (1,592.9m)</td></tr>
    <tr><td style="padding: 10px; border: solid 1px black;"><strong>Coordinates</strong></td><td style="border: solid 1px black; border-left: 0; padding: 10px;">39.60833333, -104.04216667</td></tr>
    </table>
    ]]></description>
                    <styleUrl>#16</styleUrl>
                    <Point id="14">
                        <coordinates>-104.0421666667,39.6083333333,1592.88</coordinates>
                        <altitudeMode>absolute</altitudeMode>
                    </Point>
                </Placemark>
                <Placemark id="20">
                    <name>Landing</name>
                    <description><![CDATA[
    <h1>Landing</h1>
    <table style="width: 100%;" cellpadding=0 cellspacing=0 border=0>
    <tr><td style="padding: 10px; border: solid 1px black;border-bottom: 0;"><strong>Local Time</strong></td><td style="border: solid 1px black;border-left: 0; border-bottom: 0; padding: 10px;">09:04:00</td></tr>
    <tr><td style="padding: 10px; border: solid 1px black;border-bottom: 0;"><strong>Altitude</strong></td><td style="border: solid 1px black;border-bottom: 0; border-left: 0; padding: 10px;">4,698ft (1,432.0m)</td></tr>
    <tr><td style="padding: 10px; border: solid 1px black;"><strong>Coordinates</strong></td><td style="border: solid 1px black; border-left: 0; padding: 10px;">40.39866667, -102.8365</td></tr>
    </table>
    ]]></description>
                    <styleUrl>#21</styleUrl>
                    <Point id="19">
                        <coordinates>-102.8365,40.3986666667,1431.95</coordinates>
                        <altitudeMode>absolute</altitudeMode>
                    </Point>
                </Placemark>
                <Placemark id="25">
                    <name>Burst 84,498ft</name>
                    <description><![CDATA[
    <h1>Burst: 84,498ft</h1>
    <table style="width: 100%;" cellpadding=0 cellspacing=0 border=0>
    <tr><td style="padding: 10px; border: solid 1px black;border-bottom: 0;"><strong>Local Time</strong></td><td style="border: solid 1px black;border-left: 0; border-bottom: 0; padding: 10px;">08:24:30</td></tr>
    <tr><td style="padding: 10px; border: solid 1px black;border-bottom: 0;"><strong>Altitude</strong></td><td style="border: solid 1px black;border-left: 0; border-bottom: 0; padding: 10px;">84,498ft (25,755.0m)</td></tr>
    <tr><td style="padding: 10px; border: solid 1px black;"><strong>Coordinates</strong></td><td style="border: solid 1px black; border-left: 0; padding: 10px;">39.98466667, -103.437</td></tr>
    </table>
    ]]></description>
                    <styleUrl>#26</styleUrl>
                    <Point id="24">
                        <coordinates>-103.437,39.9846666667,25754.99</coordinates>
                        <altitudeMode>absolute</altitudeMode>
                    </Point>
                </Placemark>
                <Placemark id="30">
                    <name>16k, Laminar-to-Turbulent</name>
                    <description><![CDATA[
        <h1>Airflow Transitioning from Laminar-to-Turbulent</h1>
        <table style="width: 100%;" cellpadding=0 cellspacing=0 border=0>
        <tr><td style="padding: 10px; border: solid 1px black;border-bottom: 0;"><strong>Local Time</strong></td><td style="border: solid 1px black;border-left: 0; border-bottom: 0; padding: 10px;">07:44:50</td></tr>
        <tr><td style="padding: 10px; border: solid 1px black;border-bottom: 0;"><strong>Altitude</strong></td><td style="border: solid 1px black;border-left: 0; border-bottom: 0; padding: 10px;">16,428ft (5,007.2m)</td></tr>
        <tr><td style="padding: 10px; border: solid 1px black;"><strong>Coordinates</strong></td><td style="border: solid 1px black; border-left: 0; padding: 10px;">39.63383333, -103.97016667</td></tr>
        </table>
        ]]></description>
                    <styleUrl>#31</styleUrl>
                    <Point id="29">
                        <coordinates>-103.9701666667,39.6338333333,5007.25</coordinates>
                        <altitudeMode>absolute</altitudeMode>
                    </Point>
                </Placemark>
                <Placemark id="36">
                    <name>66k, Turbulent-to-Laminar</name>
                    <description><![CDATA[
        <h1>Airflow Transitioning from Turbulent-to-Laminar</h1>
        <table style="width: 100%;" cellpadding=0 cellspacing=0 border=0>
        <tr><td style="padding: 10px; border: solid 1px black;border-bottom: 0;"><strong>Local Time</strong></td><td style="border: solid 1px black;border-left: 0; border-bottom: 0; padding: 10px;">08:11:30</td></tr>
        <tr><td style="padding: 10px; border: solid 1px black;border-bottom: 0;"><strong>Altitude</strong></td><td style="border: solid 1px black;border-left: 0; border-bottom: 0; padding: 10px;">65,939ft (20,098.2m)</td></tr>
        <tr><td style="padding: 10px; border: solid 1px black;"><strong>Coordinates</strong></td><td style="border: solid 1px black; border-left: 0; padding: 10px;">39.9995, -103.457</td></tr>
        </table>
        ]]></description>
                    <styleUrl>#37</styleUrl>
                    <Point id="35">
                        <coordinates>-103.457,39.9995,20098.21</coordinates>
                        <altitudeMode>absolute</altitudeMode>
                    </Point>
                </Placemark>
            </Folder>
        </Document>
    </Document>
</kml>
