<?xml version="1.0" encoding="UTF-8"?>
<kml xmlns="http://www.opengis.net/kml/2.2" xmlns:gx="http://www.google.com/kml/ext/2.2">
    <Document id="1">
        <Document id="2">
            <name>EOSS-325</name>
            <description><![CDATA[
    <h1>EOSS-325</h1>
    <table style="width: 100%;" cellpadding=0 cellspacing=0 border=0>
    <tr><td style="border: solid 1px black;border-bottom: 0; padding: 10px;"><strong>Launch Local Date/Time</strong></td><td style=" padding: 10px;border: solid 1px black;border-bottom: 0; border-left: 0;">2022-04-24 07:03:15</td></tr>
    <tr><td style="border: solid 1px black;border-bottom: 0; padding: 10px;"><strong>Flight Duration</strong></td><td style=" padding: 10px;border: solid 1px black;border-bottom: 0; border-left: 0; ">2hrs 8mins 0secs</td></tr>
    <tr><td style="border: solid 1px black;border-bottom: 0; padding: 10px;"><strong>Down Range Distance</strong></td><td style=" padding: 10px;border: solid 1px black;border-bottom: 0; border-left: 0; ">35.5mi (57.2km)</td></tr>
    <tr><td style="border: solid 1px black; padding: 10px;"><strong>Approx. Burst Altitude</strong></td><td style=" padding: 10px;border: solid 1px black; border-left: 0; ">93,170ft (28,398.2m)</td></tr>
    </table>
    ]]></description>
            <Folder id="3">
                <Style id="8">
                    <LineStyle id="9">
                        <color>ff0000ff</color>
                        <colorMode>normal</colorMode>
                        <width>3</width>
                    </LineStyle>
                </Style>
                <Style id="12">
                    <LineStyle id="13">
                        <color>ffff0000</color>
                        <colorMode>normal</colorMode>
                        <width>3</width>
                    </LineStyle>
                </Style>
                <name>Paths</name>
                <Placemark id="7">
                    <name>EOSS-325 Ascent</name>
                    <styleUrl>#8</styleUrl>
                    <LineString id="6">
                        <extrude>0</extrude>
                        <altitudeMode>absolute</altitudeMode>
                        <coordinates>-104.0419666667,39.6083833333,1592.88 -104.0420166667,39.6083166667,1612.09 -104.0417,39.6074833333,1653.24 -104.0419166667,39.6061166667,1779.42 -104.0416,39.6047833333,1813.26 -104.0412,39.6020333333,1926.34 -104.0408833333,39.6000666667,1974.19 -104.0396333333,39.59685,2090.93 -104.0390666667,39.5946166667,2151.28 -104.0381166667,39.5915666667,2279.29 -104.0375666667,39.58965,2330.2 -104.0368166667,39.58695,2473.15 -104.0361666667,39.5852166667,2527.4 -104.0353166667,39.5825666667,2665.17 -104.0344666667,39.5808333333,2716.38 -104.0330333333,39.57825,2867.56 -104.0323,39.5766833333,2915.41 -104.0312333333,39.5746833333,3048.61 -104.0305666667,39.5733666667,3101.34 -104.0296833333,39.57145,3230.27 -104.0288666667,39.57045,3284.52 -104.0277,39.56945,3408.27 -104.0270166667,39.56865,3452.47 -104.0259666667,39.5676666667,3585.36 -104.0250666667,39.5669666667,3630.47 -104.0239333333,39.5661666667,3778.3 -104.0217666667,39.5643333333,3951.73 -104.0210166667,39.5636833333,3999.59 -104.0196,39.5626833333,4143.15 -104.0186,39.5619166667,4201.67 -104.0161166667,39.5606333333,4399.48 -104.0132166667,39.56015,4579.62 -104.0118166667,39.5599333333,4715.87 -104.0107166667,39.5599666667,4762.5 -104.0094166667,39.5601,4892.34 -104.00865,39.5601833333,4932.58 -104.00695,39.5601666667,5074.31 -104.0057166667,39.5603,5117.59 -104.0042,39.5601833333,5251.4 -104.0030166667,39.5600333333,5291.63 -104.0016166667,39.5597833333,5424.22 -104.0009333333,39.5598833333,5467.81 -104.0003,39.5601166667,5616.85 -104.00005,39.56025,5665.62 -103.9998333333,39.56025,5804.31 -103.9998166667,39.5602,5864.66 -103.9998666667,39.5599166667,6005.17 -103.9993833333,39.5597666667,6052.72 -103.9984,39.5597333333,6188.96 -103.9956,39.5605,6380.99 -103.9943166667,39.5609333333,6434.94 -103.9929,39.5614833333,6575.45 -103.9917333333,39.5621,6629.7 -103.98985,39.5629833333,6786.98 -103.98835,39.5637,6853.73 -103.9857666667,39.5646166667,6994.86 -103.98405,39.5651833333,7050.94 -103.9813666667,39.566,7186.88 -103.9768666667,39.5674833333,7387.44 -103.9750333333,39.5682833333,7435.9 -103.9723,39.5695333333,7570.62 -103.9702,39.5701333333,7620.0 -103.9666666667,39.57165,7757.77 -103.9645333333,39.5724,7808.06 -103.9612666667,39.5732666667,7934.25 -103.95895,39.5741333333,7980.88 -103.95495,39.5750333333,8105.55 -103.9522833333,39.5759833333,8147.91 -103.9481666667,39.5772,8274.1 -103.94505,39.5780666667,8314.94 -103.9408666667,39.5796,8437.78 -103.9335166667,39.5822333333,8624.01 -103.9305833333,39.5833333333,8666.99 -103.9265333333,39.585,8802.01 -103.9237,39.586,8848.04 -103.9191833333,39.5874833333,8977.58 -103.91615,39.5884333333,9034.27 -103.91165,39.5899833333,9170.82 -103.9045166667,39.5933166667,9367.42 -103.90175,39.5948333333,9425.33 -103.89735,39.5971,9571.63 -103.89425,39.5986,9641.13 -103.8894833333,39.6010666667,9784.99 -103.8861333333,39.6026166667,9850.22 -103.8808666667,39.6043166667,9995.0 -103.87755,39.6055166667,10048.34 -103.8723666667,39.6072,10186.72 -103.8694833333,39.6082166667,10247.38 -103.8643333333,39.6101333333,10380.88 -103.8616833333,39.61105,10427.21 -103.8574833333,39.6123666667,10577.47 -103.85445,39.6131833333,10635.39 -103.8507666667,39.6149666667,10760.66 -103.8484166667,39.61595,10825.28 -103.845,39.6177166667,10953.29 -103.8421833333,39.6191166667,10995.36 -103.8374166667,39.62115,11106.91 -103.8340333333,39.6225166667,11141.35 -103.829,39.6248166667,11266.63 -103.8254333333,39.6266333333,11317.53 -103.8202166667,39.6284666667,11455.91 -103.8167666667,39.6299666667,11505.59 -103.8108166667,39.6312,11660.73 -103.8076,39.6316666667,11710.42 -103.8030666667,39.6330666667,11854.89 -103.79985,39.6341,11912.5 -103.79515,39.6356666667,12069.47 -103.7916666667,39.6364166667,12114.58 -103.7865166667,39.6378833333,12223.39 -103.7831666667,39.6387833333,12253.57 -103.7779333333,39.6399666667,12361.16 -103.7744666667,39.6404833333,12412.68 -103.7697333333,39.6418166667,12567.82 -103.7671166667,39.6429666667,12619.63 -103.7631333333,39.6447833333,12733.63 -103.7602333333,39.6460666667,12765.63 -103.75535,39.64725,12882.37 -103.7521333333,39.6479333333,12928.7 -103.7473166667,39.6486166667,13062.2 -103.7440666667,39.6491833333,13123.77 -103.7397666667,39.6500166667,13237.77 -103.7366833333,39.65065,13267.64 -103.73165,39.6516833333,13365.48 -103.7286833333,39.6521666667,13396.57 -103.7239666667,39.6532333333,13489.84 -103.7209666667,39.65375,13523.67 -103.7162,39.6546333333,13621.21 -103.7131833333,39.6554333333,13650.77 -103.7088333333,39.6565166667,13753.49 -103.70585,39.6573166667,13809.88 -103.7020166667,39.6581333333,13920.52 -103.6990666667,39.6587833333,13948.87 -103.6943166667,39.6594666667,14103.1 -103.6908666667,39.6598833333,14135.71 -103.6858833333,39.6605833333,14239.34 -103.6823166667,39.66105,14267.69 -103.6770666667,39.6617,14373.76 -103.67395,39.6619,14439.9 -103.66935,39.6624333333,14552.98 -103.6664333333,39.6627166667,14580.72 -103.6618833333,39.6629666667,14685.57 -103.6593166667,39.66285,14738.91 -103.65565,39.66265,14908.07 -103.6536166667,39.6629833333,14980.01 -103.6499833333,39.6634333333,15079.37 -103.6476166667,39.66385,15106.8 -103.64435,39.66465,15208.91 -103.64205,39.6652833333,15238.78 -103.63815,39.6661666667,15338.15 -103.6355833333,39.6668333333,15364.97 -103.6313166667,39.6676,15491.46 -103.6284333333,39.6680666667,15524.07 -103.62455,39.66815,15690.49 -103.6219166667,39.66835,15770.05 -103.6190333333,39.6689666667,15924.28 -103.6168,39.6694833333,15965.12 -103.6131833333,39.6702333333,16069.97 -103.6107166667,39.6705666667,16107.16 -103.6072666667,39.6709833333,16224.5 -103.605,39.6714166667,16261.08 -103.6019833333,39.6719833333,16376.29 -103.59975,39.6723166667,16420.19 -103.5976666667,39.6727333333,16586.91 -103.59615,39.6732,16631.11 -103.5938333333,39.6735333333,16740.84 -103.5923833333,39.6737333333,16773.14 -103.59045,39.674,16879.21 -103.5892833333,39.6742,16918.23 -103.5881833333,39.6743333333,17060.57 -103.5877333333,39.6742333333,17140.12 -103.5867,39.6746166667,17269.97 -103.5859,39.6748166667,17330.32 -103.5851166667,39.6758,17478.15 -103.5843666667,39.6763333333,17519.29 -103.5833333333,39.6769,17627.8 -103.58265,39.6774833333,17660.11 -103.582,39.6782666667,17810.38 -103.58165,39.67905,17894.2 -103.58085,39.6804,18013.98 -103.5806666667,39.6811166667,18070.37 -103.5802666667,39.682,18174.0 -103.5801666667,39.6824666667,18219.42 -103.5802666667,39.6830833333,18337.68 -103.5804833333,39.6833166667,18379.44 -103.5809666667,39.6837333333,18485.21 -103.5812,39.6840833333,18528.18 -103.5817,39.685,18632.42 -103.5819,39.6854666667,18671.44 -103.5821333333,39.6859166667,18809.21 -103.5829833333,39.6857833333,18914.36 -103.5839666667,39.685,19028.97 -103.5848833333,39.68435,19068.29 -103.5865,39.6833,19171.62 -103.5877166667,39.6828,19204.53 -103.5894666667,39.6823333333,19305.42 -103.5908666667,39.6822,19340.47 -103.59255,39.6822166667,19453.86 -103.59355,39.6822666667,19500.49 -103.5947333333,39.68265,19626.68 -103.5951166667,39.6830833333,19687.34 -103.5959666667,39.68375,19808.95 -103.59655,39.6840333333,19842.48 -103.5979666667,39.6842,19964.4 -103.5987333333,39.6841,19998.54 -103.6000166667,39.6835,20106.44 -103.6009166667,39.6829666667,20135.39 -103.6024,39.6822166667,20244.82 -103.6035666667,39.6817666667,20268.59 -103.6051166667,39.68135,20382.59 -103.6058666667,39.6813166667,20430.44 -103.6073333333,39.6816666667,20538.64 -103.6079333333,39.6819166667,20567.6 -103.6089166667,39.6825166667,20665.44 -103.60935,39.6827333333,20698.66 -103.6105166667,39.6829166667,20801.08 -103.6112666667,39.68305,20827.59 -103.61205,39.6833333333,20932.44 -103.6126166667,39.6835,20964.75 -103.6130166667,39.6838333333,21074.18 -103.6131833333,39.6842333333,21109.53 -103.6128333333,39.6846166667,21215.6 -103.6129166667,39.6847666667,21252.79 -103.6133166667,39.6847333333,21362.52 -103.6137166667,39.6846666667,21395.74 -103.6143833333,39.6843166667,21501.81 -103.6148166667,39.6840333333,21534.73 -103.6152833333,39.6839833333,21640.8 -103.6154,39.6842666667,21668.84 -103.6155833333,39.6847,21778.57 -103.6155666667,39.6848166667,21814.84 -103.6151833333,39.6850166667,21924.57 -103.6149,39.6852166667,21957.79 -103.6146333333,39.6850666667,22062.64 -103.6147,39.6849166667,22097.7 -103.61545,39.6847333333,22201.94 -103.6158833333,39.6847666667,22236.68 -103.6168666667,39.6848833333,22346.72 -103.61765,39.68505,22381.77 -103.6186833333,39.6853833333,22486.92 -103.6191666667,39.6855,22521.67 -103.6197333333,39.6853666667,22630.18 -103.6199166667,39.6851833333,22665.84 -103.6196666667,39.6849166667,22771.3 -103.6195666667,39.6847,22804.83 -103.6196333333,39.68405,22914.86 -103.6197,39.6835666667,22949.0 -103.6204,39.68265,23064.52 -103.6213,39.6821333333,23103.84 -103.6228166667,39.6816333333,23210.52 -103.6238166667,39.6812,23245.88 -103.6257,39.68065,23354.69 -103.6267333333,39.6805166667,23390.96 -103.6285166667,39.6805333333,23501.91 -103.6295833333,39.68065,23533.0 -103.6309,39.6809666667,23640.59 -103.6315833333,39.68095,23675.95 -103.63235,39.6807166667,23779.89 -103.6329,39.6805333333,23814.02 -103.6340333333,39.6801666667,23921.92 -103.6348666667,39.6799,23957.89 -103.6364166667,39.6797666667,24062.74 -103.63735,39.6797333333,24096.88 -103.63865,39.67965,24199.9 -103.6394,39.6795833333,24231.9 -103.6408666667,39.6791,24337.67 -103.6418333333,39.6788833333,24368.15 -103.6435833333,39.6785833333,24473.31 -103.6444833333,39.6786833333,24504.09 -103.6458833333,39.6789666667,24601.93 -103.6468333333,39.6789666667,24633.94 -103.6483833333,39.6790833333,24734.22 -103.6492166667,39.6791666667,24768.05 -103.6505333333,39.67935,24869.85 -103.6515166667,39.6794833333,24905.21 -103.6530666667,39.6795666667,25006.1 -103.6542166667,39.6794666667,25039.02 -103.6558333333,39.6792666667,25142.04 -103.6569666667,39.67945,25177.09 -103.6584833333,39.6798833333,25284.38 -103.65945,39.6801333333,25318.21 -103.6608833333,39.6802333333,25425.81 -103.6617333333,39.6803166667,25459.33 -103.66305,39.6804,25563.58 -103.66385,39.6804333333,25595.28 -103.6654333333,39.6804666667,25698.91 -103.6664666667,39.68045,25731.22 -103.6679666667,39.6807833333,25833.63 -103.6688833333,39.6810833333,25865.33 -103.67005,39.6818166667,25962.56 -103.6708,39.6824833333,25991.21 -103.67165,39.6835166667,26089.66 -103.6722,39.6841666667,26119.23 -103.67275,39.68495,26217.68 -103.6730833333,39.6854333333,26249.38 -103.6735833333,39.6859166667,26347.52 -103.67415,39.6860333333,26379.22 -103.67515,39.6862166667,26480.72 -103.6759666667,39.6864166667,26513.33 -103.6771333333,39.687,26613.31 -103.6780666667,39.6874166667,26645.31 -103.67895,39.6879666667,26746.2 -103.67925,39.6882166667,26779.42 -103.6797,39.6884666667,26876.35 -103.6801833333,39.6887,26907.44 -103.68085,39.6889,27009.55 -103.6813666667,39.6889666667,27038.5 -103.68235,39.68925,27141.53 -103.6827,39.6893666667,27170.48 -103.6832166667,39.6895166667,27268.32 -103.6837,39.6895666667,27297.28 -103.6842333333,39.68975,27395.73 -103.6843666667,39.6899,27424.38 -103.6849833333,39.6898,27521.92 -103.6853666667,39.6897333333,27548.43 -103.6856666667,39.6898333333,27644.75 -103.6856833333,39.6897166667,27672.49 -103.68535,39.6892666667,27765.15 -103.6852,39.6888333333,27794.41 -103.6857833333,39.68835,27889.5 -103.6862666667,39.6881166667,27919.38 -103.6871166667,39.6877333333,28017.52 -103.6877166667,39.6874833333,28046.48 -103.68855,39.6871333333,28143.1 -103.6894333333,39.6870166667,28172.66 -103.69075,39.6868666667,28270.2 -103.6913833333,39.6866833333,28301.59 -103.69195,39.6863833333,28398.22</coordinates>
                    </LineString>
                </Placemark>
                <Placemark id="11">
                    <name>EOSS-325 Descent</name>
                    <styleUrl>#12</styleUrl>
                    <LineString id="10">
                        <extrude>0</extrude>
                        <altitudeMode>absolute</altitudeMode>
                        <coordinates>-103.69195,39.6863833333,28398.22 -103.6926666667,39.6861666667,28061.41 -103.6936833333,39.6856166667,27393.9 -103.6938666667,39.6857,26997.36 -103.6953833333,39.68615,26381.96 -103.6958,39.6866,26021.39 -103.6962333333,39.6873,25453.24 -103.6968333333,39.6875833333,25120.09 -103.69815,39.6875333333,24578.16 -103.69925,39.687,24277.93 -103.7010333333,39.6870166667,23787.81 -103.7015166667,39.6870166667,23490.02 -103.7032166667,39.6863666667,23007.52 -103.7033,39.6857333333,22726.8 -103.70415,39.6858666667,22310.45 -103.7045666667,39.6859,22048.62 -103.70475,39.6859333333,21621.29 -103.7053333333,39.6858833333,21373.8 -103.7056666667,39.68615,20965.67 -103.7060333333,39.6864333333,20724.57 -103.7072166667,39.6865,20337.78 -103.70855,39.6861166667,20105.52 -103.7098,39.6858333333,19733.97 -103.7104166667,39.6861166667,19511.47 -103.7115833333,39.6862,19165.21 -103.7123166667,39.68565,18959.47 -103.7126166667,39.6855833333,18628.46 -103.7126833333,39.6857666667,18432.17 -103.7129166667,39.6856833333,18129.5 -103.7124,39.6866,17935.35 -103.7121,39.6874833333,17639.69 -103.7117666667,39.6879166667,17469.31 -103.7116666667,39.6879666667,17196.82 -103.7116333333,39.6881166667,17032.22 -103.7100833333,39.6881166667,16756.99 -103.7089833333,39.6883333333,16577.16 -103.7060833333,39.6886166667,16305.58 -103.70375,39.6888666667,16133.06 -103.7003166667,39.6894666667,15863.62 -103.6978166667,39.6895166667,15700.86 -103.69375,39.6903166667,15438.12 -103.6912833333,39.6908833333,15272.0 -103.68785,39.69135,15024.2 -103.68555,39.6909833333,14868.75 -103.6811166667,39.69075,14631.62 -103.6782,39.6909333333,14478.91 -103.67295,39.6920833333,14249.1 -103.6696666667,39.6929166667,14110.72 -103.665,39.69425,13888.82 -103.6621666667,39.6953333333,13751.66 -103.6573833333,39.69695,13533.12 -103.6539833333,39.69795,13400.53 -103.6497666667,39.69935,13184.73 -103.6465833333,39.69985,13048.49 -103.6411666667,39.7011,12872.01 -103.63765,39.7017,12744.6 -103.6324,39.70385,12577.88 -103.6292666667,39.7048666667,12447.42 -103.6243666667,39.7054333333,12283.74 -103.62055,39.7061166667,12157.56 -103.61595,39.7071666667,11999.37 -103.6124,39.7084166667,11881.41 -103.6082166667,39.7094833333,11720.78 -103.6050333333,39.7101333333,11596.42 -103.5994333333,39.7112666667,11443.72 -103.5957166667,39.7118666667,11332.46 -103.59095,39.7137833333,11185.25 -103.5875666667,39.7153833333,11069.42 -103.5827333333,39.7179333333,10932.57 -103.5791833333,39.71945,10820.4 -103.5742,39.7214333333,10679.58 -103.5716666667,39.7226333333,10570.46 -103.5675,39.7239833333,10434.52 -103.5651333333,39.7251333333,10326.32 -103.5605333333,39.7268,10194.34 -103.5575833333,39.7283666667,10084.31 -103.5526333333,39.7303666667,9953.55 -103.5489833333,39.73135,9844.13 -103.5436833333,39.7329166667,9714.28 -103.5401833333,39.7343166667,9604.25 -103.53615,39.73725,9475.62 -103.5334,39.7391833333,9371.08 -103.5287333333,39.7419,9244.89 -103.5260666667,39.7436,9137.29 -103.5223333333,39.7455666667,9010.5 -103.5195833333,39.7472666667,8912.05 -103.5128666667,39.7498166667,8693.2 -103.50565,39.7526833333,8484.11 -103.50185,39.75355,8374.68 -103.4995666667,39.7545166667,8281.11 -103.4957166667,39.7559,8174.13 -103.4938333333,39.7563,8072.93 -103.4908666667,39.7571166667,7962.9 -103.4886,39.7579666667,7872.07 -103.4848833333,39.7588,7761.43 -103.4829666667,39.7592833333,7666.94 -103.4800166667,39.7606333333,7560.56 -103.4780166667,39.7615,7466.99 -103.47445,39.7620333333,7359.09 -103.4726833333,39.7622,7260.03 -103.4705,39.7629,7154.88 -103.4688833333,39.7636666667,7058.86 -103.4669166667,39.7645833333,6949.14 -103.4652666667,39.7655666667,6856.78 -103.46245,39.7665333333,6754.06 -103.4611833333,39.76665,6664.76 -103.45995,39.7666333333,6558.69 -103.4592666667,39.7665833333,6467.86 -103.4592333333,39.76695,6363.92 -103.4594166667,39.76735,6271.87 -103.4593166667,39.7677166667,6164.58 -103.4586333333,39.7678333333,6075.88 -103.4583833333,39.7685166667,5885.69 -103.4572333333,39.7691333333,5702.81 -103.4566,39.76855,5604.05 -103.4560333333,39.7681333333,5511.7 -103.4551666667,39.7674,5414.16 -103.45445,39.7671166667,5324.55 -103.4532833333,39.76675,5237.99 -103.45225,39.76695,5154.78 -103.4499333333,39.7670333333,5057.85 -103.4485,39.7670333333,4974.64 -103.4463,39.7669833333,4889.3 -103.44535,39.7666,4805.48 -103.4438166667,39.7667333333,4712.51 -103.4424666667,39.7668666667,4630.52 -103.4406,39.7662166667,4543.65 -103.4393833333,39.7656833333,4462.58 -103.4370666667,39.7651666667,4371.14 -103.4355666667,39.7644166667,4289.45 -103.4335833333,39.7628166667,4203.19 -103.43195,39.7617833333,4120.59 -103.43015,39.7601666667,4030.68 -103.4289166667,39.75955,3948.38 -103.4264166667,39.7581666667,3858.16 -103.4252333333,39.7573,3777.39 -103.4230166667,39.7565666667,3688.69 -103.4212666667,39.7559666667,3610.36 -103.4188333333,39.7544833333,3525.93 -103.4178166667,39.7537333333,3447.29 -103.4158166667,39.75285,3366.21 -103.4143833333,39.7516,3288.49 -103.4110833333,39.74855,3117.49 -103.4081,39.7455833333,2958.39 -103.4068,39.7435666667,2870.3 -103.40595,39.7425333333,2796.24 -103.4040833333,39.74015,2722.17 -103.4032833333,39.7380833333,2660.29 -103.4027333333,39.7348,2593.85 -103.4020833333,39.7329333333,2523.44 -103.4003166667,39.72985,2435.05 -103.3996666667,39.7278333333,2357.32 -103.3982833333,39.7256333333,2280.82 -103.3972166667,39.72415,2214.37 -103.3963833333,39.7219,2143.96 -103.3960166667,39.72075,2075.38 -103.3951666667,39.7190166667,1984.55 -103.3941166667,39.7182333333,1904.39 -103.39235,39.7167166667,1838.25 -103.3916,39.7154166667,1779.12 -103.3909666667,39.7139666667,1732.48 -103.3904333333,39.7129333333,1683.11 -103.3892666667,39.7115,1641.65 -103.3883166667,39.7103333333,1597.15 -103.3863333333,39.7074833333,1482.24 -103.3860333333,39.7067,1432.86 -103.3855666667,39.7059,1518.21</coordinates>
                    </LineString>
                </Placemark>
            </Folder>
            <Folder id="4">
                <Style id="37">
                    <IconStyle id="38">
                        <color>ff0000ff</color>
                        <colorMode>normal</colorMode>
                        <scale>1</scale>
                        <heading>0</heading>
                        <Icon id="39">
                            <href>https://maps.google.com/mapfiles/kml/shapes/placemark_circle.png</href>
                        </Icon>
                    </IconStyle>
                </Style>
                <Style id="42">
                    <IconStyle id="43">
                        <color>ff0000ff</color>
                        <colorMode>normal</colorMode>
                        <scale>1</scale>
                        <heading>0</heading>
                        <Icon id="44">
                            <href>https://maps.google.com/mapfiles/kml/shapes/placemark_circle.png</href>
                        </Icon>
                    </IconStyle>
                </Style>
                <Style id="47">
                    <IconStyle id="48">
                        <color>ff0000ff</color>
                        <colorMode>normal</colorMode>
                        <scale>1</scale>
                        <heading>0</heading>
                        <Icon id="49">
                            <href>https://maps.google.com/mapfiles/kml/shapes/placemark_circle.png</href>
                        </Icon>
                    </IconStyle>
                </Style>
                <Style id="52">
                    <IconStyle id="53">
                        <color>ff0000ff</color>
                        <colorMode>normal</colorMode>
                        <scale>1</scale>
                        <heading>0</heading>
                        <Icon id="54">
                            <href>https://maps.google.com/mapfiles/kml/shapes/placemark_circle.png</href>
                        </Icon>
                    </IconStyle>
                </Style>
                <Style id="57">
                    <IconStyle id="58">
                        <color>ff0000ff</color>
                        <colorMode>normal</colorMode>
                        <scale>1</scale>
                        <heading>0</heading>
                        <Icon id="59">
                            <href>https://maps.google.com/mapfiles/kml/shapes/placemark_circle.png</href>
                        </Icon>
                    </IconStyle>
                </Style>
                <Style id="62">
                    <IconStyle id="63">
                        <color>ff0000ff</color>
                        <colorMode>normal</colorMode>
                        <scale>1</scale>
                        <heading>0</heading>
                        <Icon id="64">
                            <href>https://maps.google.com/mapfiles/kml/shapes/placemark_circle.png</href>
                        </Icon>
                    </IconStyle>
                </Style>
                <Style id="67">
                    <IconStyle id="68">
                        <color>ff0000ff</color>
                        <colorMode>normal</colorMode>
                        <scale>1</scale>
                        <heading>0</heading>
                        <Icon id="69">
                            <href>https://maps.google.com/mapfiles/kml/shapes/placemark_circle.png</href>
                        </Icon>
                    </IconStyle>
                </Style>
                <Style id="72">
                    <IconStyle id="73">
                        <color>ff0000ff</color>
                        <colorMode>normal</colorMode>
                        <scale>1</scale>
                        <heading>0</heading>
                        <Icon id="74">
                            <href>https://maps.google.com/mapfiles/kml/shapes/placemark_circle.png</href>
                        </Icon>
                    </IconStyle>
                </Style>
                <Style id="77">
                    <IconStyle id="78">
                        <color>ff0000ff</color>
                        <colorMode>normal</colorMode>
                        <scale>1</scale>
                        <heading>0</heading>
                        <Icon id="79">
                            <href>https://maps.google.com/mapfiles/kml/shapes/placemark_circle.png</href>
                        </Icon>
                    </IconStyle>
                </Style>
                <Style id="82">
                    <IconStyle id="83">
                        <color>ffff0000</color>
                        <colorMode>normal</colorMode>
                        <scale>1</scale>
                        <heading>0</heading>
                        <Icon id="84">
                            <href>https://maps.google.com/mapfiles/kml/shapes/placemark_circle.png</href>
                        </Icon>
                    </IconStyle>
                </Style>
                <Style id="87">
                    <IconStyle id="88">
                        <color>ffff0000</color>
                        <colorMode>normal</colorMode>
                        <scale>1</scale>
                        <heading>0</heading>
                        <Icon id="89">
                            <href>https://maps.google.com/mapfiles/kml/shapes/placemark_circle.png</href>
                        </Icon>
                    </IconStyle>
                </Style>
                <Style id="92">
                    <IconStyle id="93">
                        <color>ffff0000</color>
                        <colorMode>normal</colorMode>
                        <scale>1</scale>
                        <heading>0</heading>
                        <Icon id="94">
                            <href>https://maps.google.com/mapfiles/kml/shapes/placemark_circle.png</href>
                        </Icon>
                    </IconStyle>
                </Style>
                <Style id="97">
                    <IconStyle id="98">
                        <color>ffff0000</color>
                        <colorMode>normal</colorMode>
                        <scale>1</scale>
                        <heading>0</heading>
                        <Icon id="99">
                            <href>https://maps.google.com/mapfiles/kml/shapes/placemark_circle.png</href>
                        </Icon>
                    </IconStyle>
                </Style>
                <Style id="102">
                    <IconStyle id="103">
                        <color>ffff0000</color>
                        <colorMode>normal</colorMode>
                        <scale>1</scale>
                        <heading>0</heading>
                        <Icon id="104">
                            <href>https://maps.google.com/mapfiles/kml/shapes/placemark_circle.png</href>
                        </Icon>
                    </IconStyle>
                </Style>
                <Style id="107">
                    <IconStyle id="108">
                        <color>ffff0000</color>
                        <colorMode>normal</colorMode>
                        <scale>1</scale>
                        <heading>0</heading>
                        <Icon id="109">
                            <href>https://maps.google.com/mapfiles/kml/shapes/placemark_circle.png</href>
                        </Icon>
                    </IconStyle>
                </Style>
                <Style id="112">
                    <IconStyle id="113">
                        <color>ffff0000</color>
                        <colorMode>normal</colorMode>
                        <scale>1</scale>
                        <heading>0</heading>
                        <Icon id="114">
                            <href>https://maps.google.com/mapfiles/kml/shapes/placemark_circle.png</href>
                        </Icon>
                    </IconStyle>
                </Style>
                <Style id="117">
                    <IconStyle id="118">
                        <color>ffff0000</color>
                        <colorMode>normal</colorMode>
                        <scale>1</scale>
                        <heading>0</heading>
                        <Icon id="119">
                            <href>https://maps.google.com/mapfiles/kml/shapes/placemark_circle.png</href>
                        </Icon>
                    </IconStyle>
                </Style>
                <Style id="122">
                    <IconStyle id="123">
                        <color>ffff0000</color>
                        <colorMode>normal</colorMode>
                        <scale>1</scale>
                        <heading>0</heading>
                        <Icon id="124">
                            <href>https://maps.google.com/mapfiles/kml/shapes/placemark_circle.png</href>
                        </Icon>
                    </IconStyle>
                </Style>
                <name>Waypoints</name>
                <Placemark id="36">
                    <name>10k</name>
                    <description><![CDATA[
        <h1>Waypoint</h1>
        <table style="width: 100%;" cellpadding=0 cellspacing=0 border=0>
        <tr><td style="padding: 10px; border: solid 1px black;border-bottom: 0;"><strong>Local Time</strong></td><td style="border: solid 1px black;border-left: 0; border-bottom: 0; padding: 10px;">07:07:45</td></tr>
        <tr><td style="padding: 10px; border: solid 1px black;border-bottom: 0;"><strong>Altitude</strong></td><td style="border: solid 1px black;border-left: 0; border-bottom: 0; padding: 10px;">10,002ft (3,048.6m)</td></tr>
        <tr><td style="padding: 10px; border: solid 1px black;"><strong>Coordinates</strong></td><td style="border: solid 1px black; border-left: 0; padding: 10px;">39.57468333, -104.03123333</td></tr>
        </table>
        ]]></description>
                    <styleUrl>#37</styleUrl>
                    <Point id="35">
                        <coordinates>-104.0312333333,39.5746833333,3048.61</coordinates>
                        <altitudeMode>absolute</altitudeMode>
                    </Point>
                </Placemark>
                <Placemark id="41">
                    <name>20k</name>
                    <description><![CDATA[
        <h1>Waypoint</h1>
        <table style="width: 100%;" cellpadding=0 cellspacing=0 border=0>
        <tr><td style="padding: 10px; border: solid 1px black;border-bottom: 0;"><strong>Local Time</strong></td><td style="border: solid 1px black;border-left: 0; border-bottom: 0; padding: 10px;">07:15:57</td></tr>
        <tr><td style="padding: 10px; border: solid 1px black;border-bottom: 0;"><strong>Altitude</strong></td><td style="border: solid 1px black;border-left: 0; border-bottom: 0; padding: 10px;">19,858ft (6,052.7m)</td></tr>
        <tr><td style="padding: 10px; border: solid 1px black;"><strong>Coordinates</strong></td><td style="border: solid 1px black; border-left: 0; padding: 10px;">39.55976667, -103.99938333</td></tr>
        </table>
        ]]></description>
                    <styleUrl>#42</styleUrl>
                    <Point id="40">
                        <coordinates>-103.9993833333,39.5597666667,6052.72</coordinates>
                        <altitudeMode>absolute</altitudeMode>
                    </Point>
                </Placemark>
                <Placemark id="46">
                    <name>30k</name>
                    <description><![CDATA[
        <h1>Waypoint</h1>
        <table style="width: 100%;" cellpadding=0 cellspacing=0 border=0>
        <tr><td style="padding: 10px; border: solid 1px black;border-bottom: 0;"><strong>Local Time</strong></td><td style="border: solid 1px black;border-left: 0; border-bottom: 0; padding: 10px;">07:24:15</td></tr>
        <tr><td style="padding: 10px; border: solid 1px black;border-bottom: 0;"><strong>Altitude</strong></td><td style="border: solid 1px black;border-left: 0; border-bottom: 0; padding: 10px;">30,088ft (9,170.8m)</td></tr>
        <tr><td style="padding: 10px; border: solid 1px black;"><strong>Coordinates</strong></td><td style="border: solid 1px black; border-left: 0; padding: 10px;">39.58998333, -103.91165</td></tr>
        </table>
        ]]></description>
                    <styleUrl>#47</styleUrl>
                    <Point id="45">
                        <coordinates>-103.91165,39.5899833333,9170.82</coordinates>
                        <altitudeMode>absolute</altitudeMode>
                    </Point>
                </Placemark>
                <Placemark id="51">
                    <name>40k</name>
                    <description><![CDATA[
        <h1>Waypoint</h1>
        <table style="width: 100%;" cellpadding=0 cellspacing=0 border=0>
        <tr><td style="padding: 10px; border: solid 1px black;border-bottom: 0;"><strong>Local Time</strong></td><td style="border: solid 1px black;border-left: 0; border-bottom: 0; padding: 10px;">07:32:15</td></tr>
        <tr><td style="padding: 10px; border: solid 1px black;border-bottom: 0;"><strong>Altitude</strong></td><td style="border: solid 1px black;border-left: 0; border-bottom: 0; padding: 10px;">40,103ft (12,223.4m)</td></tr>
        <tr><td style="padding: 10px; border: solid 1px black;"><strong>Coordinates</strong></td><td style="border: solid 1px black; border-left: 0; padding: 10px;">39.63788333, -103.78651667</td></tr>
        </table>
        ]]></description>
                    <styleUrl>#52</styleUrl>
                    <Point id="50">
                        <coordinates>-103.7865166667,39.6378833333,12223.39</coordinates>
                        <altitudeMode>absolute</altitudeMode>
                    </Point>
                </Placemark>
                <Placemark id="56">
                    <name>50k</name>
                    <description><![CDATA[
        <h1>Waypoint</h1>
        <table style="width: 100%;" cellpadding=0 cellspacing=0 border=0>
        <tr><td style="padding: 10px; border: solid 1px black;border-bottom: 0;"><strong>Local Time</strong></td><td style="border: solid 1px black;border-left: 0; border-bottom: 0; padding: 10px;">07:41:57</td></tr>
        <tr><td style="padding: 10px; border: solid 1px black;border-bottom: 0;"><strong>Altitude</strong></td><td style="border: solid 1px black;border-left: 0; border-bottom: 0; padding: 10px;">49,996ft (15,238.8m)</td></tr>
        <tr><td style="padding: 10px; border: solid 1px black;"><strong>Coordinates</strong></td><td style="border: solid 1px black; border-left: 0; padding: 10px;">39.66528333, -103.64205</td></tr>
        </table>
        ]]></description>
                    <styleUrl>#57</styleUrl>
                    <Point id="55">
                        <coordinates>-103.64205,39.6652833333,15238.78</coordinates>
                        <altitudeMode>absolute</altitudeMode>
                    </Point>
                </Placemark>
                <Placemark id="61">
                    <name>60k</name>
                    <description><![CDATA[
        <h1>Waypoint</h1>
        <table style="width: 100%;" cellpadding=0 cellspacing=0 border=0>
        <tr><td style="padding: 10px; border: solid 1px black;border-bottom: 0;"><strong>Local Time</strong></td><td style="border: solid 1px black;border-left: 0; border-bottom: 0; padding: 10px;">07:50:45</td></tr>
        <tr><td style="padding: 10px; border: solid 1px black;border-bottom: 0;"><strong>Altitude</strong></td><td style="border: solid 1px black;border-left: 0; border-bottom: 0; padding: 10px;">60,163ft (18,337.7m)</td></tr>
        <tr><td style="padding: 10px; border: solid 1px black;"><strong>Coordinates</strong></td><td style="border: solid 1px black; border-left: 0; padding: 10px;">39.68308333, -103.58026667</td></tr>
        </table>
        ]]></description>
                    <styleUrl>#62</styleUrl>
                    <Point id="60">
                        <coordinates>-103.5802666667,39.6830833333,18337.68</coordinates>
                        <altitudeMode>absolute</altitudeMode>
                    </Point>
                </Placemark>
                <Placemark id="66">
                    <name>70k</name>
                    <description><![CDATA[
        <h1>Waypoint</h1>
        <table style="width: 100%;" cellpadding=0 cellspacing=0 border=0>
        <tr><td style="padding: 10px; border: solid 1px black;border-bottom: 0;"><strong>Local Time</strong></td><td style="border: solid 1px black;border-left: 0; border-bottom: 0; padding: 10px;">08:00:45</td></tr>
        <tr><td style="padding: 10px; border: solid 1px black;border-bottom: 0;"><strong>Altitude</strong></td><td style="border: solid 1px black;border-left: 0; border-bottom: 0; padding: 10px;">70,087ft (21,362.5m)</td></tr>
        <tr><td style="padding: 10px; border: solid 1px black;"><strong>Coordinates</strong></td><td style="border: solid 1px black; border-left: 0; padding: 10px;">39.68473333, -103.61331667</td></tr>
        </table>
        ]]></description>
                    <styleUrl>#67</styleUrl>
                    <Point id="65">
                        <coordinates>-103.6133166667,39.6847333333,21362.52</coordinates>
                        <altitudeMode>absolute</altitudeMode>
                    </Point>
                </Placemark>
                <Placemark id="71">
                    <name>80k</name>
                    <description><![CDATA[
        <h1>Waypoint</h1>
        <table style="width: 100%;" cellpadding=0 cellspacing=0 border=0>
        <tr><td style="padding: 10px; border: solid 1px black;border-bottom: 0;"><strong>Local Time</strong></td><td style="border: solid 1px black;border-left: 0; border-bottom: 0; padding: 10px;">08:11:27</td></tr>
        <tr><td style="padding: 10px; border: solid 1px black;border-bottom: 0;"><strong>Altitude</strong></td><td style="border: solid 1px black;border-left: 0; border-bottom: 0; padding: 10px;">79,948ft (24,368.2m)</td></tr>
        <tr><td style="padding: 10px; border: solid 1px black;"><strong>Coordinates</strong></td><td style="border: solid 1px black; border-left: 0; padding: 10px;">39.67888333, -103.64183333</td></tr>
        </table>
        ]]></description>
                    <styleUrl>#72</styleUrl>
                    <Point id="70">
                        <coordinates>-103.6418333333,39.6788833333,24368.15</coordinates>
                        <altitudeMode>absolute</altitudeMode>
                    </Point>
                </Placemark>
                <Placemark id="76">
                    <name>90k</name>
                    <description><![CDATA[
        <h1>Waypoint</h1>
        <table style="width: 100%;" cellpadding=0 cellspacing=0 border=0>
        <tr><td style="padding: 10px; border: solid 1px black;border-bottom: 0;"><strong>Local Time</strong></td><td style="border: solid 1px black;border-left: 0; border-bottom: 0; padding: 10px;">08:22:57</td></tr>
        <tr><td style="padding: 10px; border: solid 1px black;border-bottom: 0;"><strong>Altitude</strong></td><td style="border: solid 1px black;border-left: 0; border-bottom: 0; padding: 10px;">89,975ft (27,424.4m)</td></tr>
        <tr><td style="padding: 10px; border: solid 1px black;"><strong>Coordinates</strong></td><td style="border: solid 1px black; border-left: 0; padding: 10px;">39.6899, -103.68436667</td></tr>
        </table>
        ]]></description>
                    <styleUrl>#77</styleUrl>
                    <Point id="75">
                        <coordinates>-103.6843666667,39.6899,27424.38</coordinates>
                        <altitudeMode>absolute</altitudeMode>
                    </Point>
                </Placemark>
                <Placemark id="81">
                    <name>10k</name>
                    <description><![CDATA[
        <h1>Waypoint</h1>
        <table style="width: 100%;" cellpadding=0 cellspacing=0 border=0>
        <tr><td style="padding: 10px; border: solid 1px black;border-bottom: 0;"><strong>Local Time</strong></td><td style="border: solid 1px black;border-left: 0; border-bottom: 0; padding: 10px;">09:03:27</td></tr>
        <tr><td style="padding: 10px; border: solid 1px black;border-bottom: 0;"><strong>Altitude</strong></td><td style="border: solid 1px black;border-left: 0; border-bottom: 0; padding: 10px;">10,228ft (3,117.5m)</td></tr>
        <tr><td style="padding: 10px; border: solid 1px black;"><strong>Coordinates</strong></td><td style="border: solid 1px black; border-left: 0; padding: 10px;">39.74855, -103.41108333</td></tr>
        </table>
        ]]></description>
                    <styleUrl>#82</styleUrl>
                    <Point id="80">
                        <coordinates>-103.4110833333,39.74855,3117.49</coordinates>
                        <altitudeMode>absolute</altitudeMode>
                    </Point>
                </Placemark>
                <Placemark id="86">
                    <name>20k</name>
                    <description><![CDATA[
        <h1>Waypoint</h1>
        <table style="width: 100%;" cellpadding=0 cellspacing=0 border=0>
        <tr><td style="padding: 10px; border: solid 1px black;border-bottom: 0;"><strong>Local Time</strong></td><td style="border: solid 1px black;border-left: 0; border-bottom: 0; padding: 10px;">08:54:57</td></tr>
        <tr><td style="padding: 10px; border: solid 1px black;border-bottom: 0;"><strong>Altitude</strong></td><td style="border: solid 1px black;border-left: 0; border-bottom: 0; padding: 10px;">19,934ft (6,075.9m)</td></tr>
        <tr><td style="padding: 10px; border: solid 1px black;"><strong>Coordinates</strong></td><td style="border: solid 1px black; border-left: 0; padding: 10px;">39.76783333, -103.45863333</td></tr>
        </table>
        ]]></description>
                    <styleUrl>#87</styleUrl>
                    <Point id="85">
                        <coordinates>-103.4586333333,39.7678333333,6075.88</coordinates>
                        <altitudeMode>absolute</altitudeMode>
                    </Point>
                </Placemark>
                <Placemark id="91">
                    <name>30k</name>
                    <description><![CDATA[
        <h1>Waypoint</h1>
        <table style="width: 100%;" cellpadding=0 cellspacing=0 border=0>
        <tr><td style="padding: 10px; border: solid 1px black;border-bottom: 0;"><strong>Local Time</strong></td><td style="border: solid 1px black;border-left: 0; border-bottom: 0; padding: 10px;">08:47:27</td></tr>
        <tr><td style="padding: 10px; border: solid 1px black;border-bottom: 0;"><strong>Altitude</strong></td><td style="border: solid 1px black;border-left: 0; border-bottom: 0; padding: 10px;">29,978ft (9,137.3m)</td></tr>
        <tr><td style="padding: 10px; border: solid 1px black;"><strong>Coordinates</strong></td><td style="border: solid 1px black; border-left: 0; padding: 10px;">39.7436, -103.52606667</td></tr>
        </table>
        ]]></description>
                    <styleUrl>#92</styleUrl>
                    <Point id="90">
                        <coordinates>-103.5260666667,39.7436,9137.29</coordinates>
                        <altitudeMode>absolute</altitudeMode>
                    </Point>
                </Placemark>
                <Placemark id="96">
                    <name>40k</name>
                    <description><![CDATA[
        <h1>Waypoint</h1>
        <table style="width: 100%;" cellpadding=0 cellspacing=0 border=0>
        <tr><td style="padding: 10px; border: solid 1px black;border-bottom: 0;"><strong>Local Time</strong></td><td style="border: solid 1px black;border-left: 0; border-bottom: 0; padding: 10px;">08:41:27</td></tr>
        <tr><td style="padding: 10px; border: solid 1px black;border-bottom: 0;"><strong>Altitude</strong></td><td style="border: solid 1px black;border-left: 0; border-bottom: 0; padding: 10px;">39,887ft (12,157.6m)</td></tr>
        <tr><td style="padding: 10px; border: solid 1px black;"><strong>Coordinates</strong></td><td style="border: solid 1px black; border-left: 0; padding: 10px;">39.70611667, -103.62055</td></tr>
        </table>
        ]]></description>
                    <styleUrl>#97</styleUrl>
                    <Point id="95">
                        <coordinates>-103.62055,39.7061166667,12157.56</coordinates>
                        <altitudeMode>absolute</altitudeMode>
                    </Point>
                </Placemark>
                <Placemark id="101">
                    <name>50k</name>
                    <description><![CDATA[
        <h1>Waypoint</h1>
        <table style="width: 100%;" cellpadding=0 cellspacing=0 border=0>
        <tr><td style="padding: 10px; border: solid 1px black;border-bottom: 0;"><strong>Local Time</strong></td><td style="border: solid 1px black;border-left: 0; border-bottom: 0; padding: 10px;">08:36:57</td></tr>
        <tr><td style="padding: 10px; border: solid 1px black;border-bottom: 0;"><strong>Altitude</strong></td><td style="border: solid 1px black;border-left: 0; border-bottom: 0; padding: 10px;">50,105ft (15,272.0m)</td></tr>
        <tr><td style="padding: 10px; border: solid 1px black;"><strong>Coordinates</strong></td><td style="border: solid 1px black; border-left: 0; padding: 10px;">39.69088333, -103.69128333</td></tr>
        </table>
        ]]></description>
                    <styleUrl>#102</styleUrl>
                    <Point id="100">
                        <coordinates>-103.6912833333,39.6908833333,15272.0</coordinates>
                        <altitudeMode>absolute</altitudeMode>
                    </Point>
                </Placemark>
                <Placemark id="106">
                    <name>60k</name>
                    <description><![CDATA[
        <h1>Waypoint</h1>
        <table style="width: 100%;" cellpadding=0 cellspacing=0 border=0>
        <tr><td style="padding: 10px; border: solid 1px black;border-bottom: 0;"><strong>Local Time</strong></td><td style="border: solid 1px black;border-left: 0; border-bottom: 0; padding: 10px;">08:33:27</td></tr>
        <tr><td style="padding: 10px; border: solid 1px black;border-bottom: 0;"><strong>Altitude</strong></td><td style="border: solid 1px black;border-left: 0; border-bottom: 0; padding: 10px;">60,473ft (18,432.2m)</td></tr>
        <tr><td style="padding: 10px; border: solid 1px black;"><strong>Coordinates</strong></td><td style="border: solid 1px black; border-left: 0; padding: 10px;">39.68576667, -103.71268333</td></tr>
        </table>
        ]]></description>
                    <styleUrl>#107</styleUrl>
                    <Point id="105">
                        <coordinates>-103.7126833333,39.6857666667,18432.17</coordinates>
                        <altitudeMode>absolute</altitudeMode>
                    </Point>
                </Placemark>
                <Placemark id="111">
                    <name>70k</name>
                    <description><![CDATA[
        <h1>Waypoint</h1>
        <table style="width: 100%;" cellpadding=0 cellspacing=0 border=0>
        <tr><td style="padding: 10px; border: solid 1px black;border-bottom: 0;"><strong>Local Time</strong></td><td style="border: solid 1px black;border-left: 0; border-bottom: 0; padding: 10px;">08:30:57</td></tr>
        <tr><td style="padding: 10px; border: solid 1px black;border-bottom: 0;"><strong>Altitude</strong></td><td style="border: solid 1px black;border-left: 0; border-bottom: 0; padding: 10px;">70,124ft (21,373.8m)</td></tr>
        <tr><td style="padding: 10px; border: solid 1px black;"><strong>Coordinates</strong></td><td style="border: solid 1px black; border-left: 0; padding: 10px;">39.68588333, -103.70533333</td></tr>
        </table>
        ]]></description>
                    <styleUrl>#112</styleUrl>
                    <Point id="110">
                        <coordinates>-103.7053333333,39.6858833333,21373.8</coordinates>
                        <altitudeMode>absolute</altitudeMode>
                    </Point>
                </Placemark>
                <Placemark id="116">
                    <name>80k</name>
                    <description><![CDATA[
        <h1>Waypoint</h1>
        <table style="width: 100%;" cellpadding=0 cellspacing=0 border=0>
        <tr><td style="padding: 10px; border: solid 1px black;border-bottom: 0;"><strong>Local Time</strong></td><td style="border: solid 1px black;border-left: 0; border-bottom: 0; padding: 10px;">08:28:57</td></tr>
        <tr><td style="padding: 10px; border: solid 1px black;border-bottom: 0;"><strong>Altitude</strong></td><td style="border: solid 1px black;border-left: 0; border-bottom: 0; padding: 10px;">79,652ft (24,277.9m)</td></tr>
        <tr><td style="padding: 10px; border: solid 1px black;"><strong>Coordinates</strong></td><td style="border: solid 1px black; border-left: 0; padding: 10px;">39.687, -103.69925</td></tr>
        </table>
        ]]></description>
                    <styleUrl>#117</styleUrl>
                    <Point id="115">
                        <coordinates>-103.69925,39.687,24277.93</coordinates>
                        <altitudeMode>absolute</altitudeMode>
                    </Point>
                </Placemark>
                <Placemark id="121">
                    <name>90k</name>
                    <description><![CDATA[
        <h1>Waypoint</h1>
        <table style="width: 100%;" cellpadding=0 cellspacing=0 border=0>
        <tr><td style="padding: 10px; border: solid 1px black;border-bottom: 0;"><strong>Local Time</strong></td><td style="border: solid 1px black;border-left: 0; border-bottom: 0; padding: 10px;">08:27:15</td></tr>
        <tr><td style="padding: 10px; border: solid 1px black;border-bottom: 0;"><strong>Altitude</strong></td><td style="border: solid 1px black;border-left: 0; border-bottom: 0; padding: 10px;">89,875ft (27,393.9m)</td></tr>
        <tr><td style="padding: 10px; border: solid 1px black;"><strong>Coordinates</strong></td><td style="border: solid 1px black; border-left: 0; padding: 10px;">39.68561667, -103.69368333</td></tr>
        </table>
        ]]></description>
                    <styleUrl>#122</styleUrl>
                    <Point id="120">
                        <coordinates>-103.6936833333,39.6856166667,27393.9</coordinates>
                        <altitudeMode>absolute</altitudeMode>
                    </Point>
                </Placemark>
            </Folder>
            <Folder id="5">
                <Style id="16">
                    <IconStyle id="17">
                        <color>ff008cff</color>
                        <colorMode>normal</colorMode>
                        <scale>1</scale>
                        <heading>0</heading>
                        <Icon id="18">
                            <href>https://maps.google.com/mapfiles/kml/shapes/placemark_circle.png</href>
                        </Icon>
                    </IconStyle>
                </Style>
                <Style id="21">
                    <IconStyle id="22">
                        <color>ff008cff</color>
                        <colorMode>normal</colorMode>
                        <scale>1</scale>
                        <heading>0</heading>
                        <Icon id="23">
                            <href>https://maps.google.com/mapfiles/kml/shapes/placemark_circle.png</href>
                        </Icon>
                    </IconStyle>
                </Style>
                <Style id="26">
                    <IconStyle id="27">
                        <color>ff00ffff</color>
                        <colorMode>normal</colorMode>
                        <scale>1</scale>
                        <heading>0</heading>
                        <Icon id="28">
                            <href>https://maps.google.com/mapfiles/kml/shapes/placemark_circle.png</href>
                        </Icon>
                    </IconStyle>
                </Style>
                <Style id="31">
                    <IconStyle id="32">
                        <color>ff006400</color>
                        <colorMode>normal</colorMode>
                        <scale>1</scale>
                        <heading>0</heading>
                        <Icon id="33">
                            <href>https://maps.google.com/mapfiles/kml/shapes/placemark_circle.png</href>
                        </Icon>
                    </IconStyle>
                    <LabelStyle id="34">
                        <color>ff006400</color>
                        <colorMode>normal</colorMode>
                        <scale>1</scale>
                    </LabelStyle>
                </Style>
                <name>Points of Interest</name>
                <Placemark id="15">
                    <name>Launch</name>
                    <description><![CDATA[
    <h1>Launch</h1>
    <table style="width: 100%;" cellpadding=0 cellspacing=0 border=0>
    <tr><td style="padding: 10px; border: solid 1px black;border-bottom: 0;"><strong>Local Time</strong></td><td style="border: solid 1px black;border-bottom: 0; border-left: 0; padding: 10px;">07:03:15</td></tr>
    <tr><td style="padding: 10px; border: solid 1px black;border-bottom: 0;"><strong>Altitude</strong></td><td style="border: solid 1px black;border-left: 0; border-bottom: 0; padding: 10px;">5,226ft (1,592.9m)</td></tr>
    <tr><td style="padding: 10px; border: solid 1px black;"><strong>Coordinates</strong></td><td style="border: solid 1px black; border-left: 0; padding: 10px;">39.60838333, -104.04196667</td></tr>
    </table>
    ]]></description>
                    <styleUrl>#16</styleUrl>
                    <Point id="14">
                        <coordinates>-104.0419666667,39.6083833333,1592.88</coordinates>
                        <altitudeMode>absolute</altitudeMode>
                    </Point>
                </Placemark>
                <Placemark id="20">
                    <name>Landing</name>
                    <description><![CDATA[
    <h1>Landing</h1>
    <table style="width: 100%;" cellpadding=0 cellspacing=0 border=0>
    <tr><td style="padding: 10px; border: solid 1px black;border-bottom: 0;"><strong>Local Time</strong></td><td style="border: solid 1px black;border-left: 0; border-bottom: 0; padding: 10px;">09:11:15</td></tr>
    <tr><td style="padding: 10px; border: solid 1px black;border-bottom: 0;"><strong>Altitude</strong></td><td style="border: solid 1px black;border-bottom: 0; border-left: 0; padding: 10px;">4,981ft (1,518.2m)</td></tr>
    <tr><td style="padding: 10px; border: solid 1px black;"><strong>Coordinates</strong></td><td style="border: solid 1px black; border-left: 0; padding: 10px;">39.7059, -103.38556667</td></tr>
    </table>
    ]]></description>
                    <styleUrl>#21</styleUrl>
                    <Point id="19">
                        <coordinates>-103.3855666667,39.7059,1518.21</coordinates>
                        <altitudeMode>absolute</altitudeMode>
                    </Point>
                </Placemark>
                <Placemark id="25">
                    <name>Burst 93,170ft</name>
                    <description><![CDATA[
    <h1>Burst: 93,170ft</h1>
    <table style="width: 100%;" cellpadding=0 cellspacing=0 border=0>
    <tr><td style="padding: 10px; border: solid 1px black;border-bottom: 0;"><strong>Local Time</strong></td><td style="border: solid 1px black;border-left: 0; border-bottom: 0; padding: 10px;">08:26:45</td></tr>
    <tr><td style="padding: 10px; border: solid 1px black;border-bottom: 0;"><strong>Altitude</strong></td><td style="border: solid 1px black;border-left: 0; border-bottom: 0; padding: 10px;">93,170ft (28,398.2m)</td></tr>
    <tr><td style="padding: 10px; border: solid 1px black;"><strong>Coordinates</strong></td><td style="border: solid 1px black; border-left: 0; padding: 10px;">39.68638333, -103.69195</td></tr>
    </table>
    ]]></description>
                    <styleUrl>#26</styleUrl>
                    <Point id="24">
                        <coordinates>-103.69195,39.6863833333,28398.22</coordinates>
                        <altitudeMode>absolute</altitudeMode>
                    </Point>
                </Placemark>
                <Placemark id="30">
                    <name>62k, Turbulent-to-Laminar</name>
                    <description><![CDATA[
        <h1>Airflow Transitioning from Turbulent-to-Laminar</h1>
        <table style="width: 100%;" cellpadding=0 cellspacing=0 border=0>
        <tr><td style="padding: 10px; border: solid 1px black;border-bottom: 0;"><strong>Local Time</strong></td><td style="border: solid 1px black;border-left: 0; border-bottom: 0; padding: 10px;">07:52:45</td></tr>
        <tr><td style="padding: 10px; border: solid 1px black;border-bottom: 0;"><strong>Altitude</strong></td><td style="border: solid 1px black;border-left: 0; border-bottom: 0; padding: 10px;">62,431ft (19,029.0m)</td></tr>
        <tr><td style="padding: 10px; border: solid 1px black;"><strong>Coordinates</strong></td><td style="border: solid 1px black; border-left: 0; padding: 10px;">39.685, -103.58396667</td></tr>
        </table>
        ]]></description>
                    <styleUrl>#31</styleUrl>
                    <Point id="29">
                        <coordinates>-103.5839666667,39.685,19028.97</coordinates>
                        <altitudeMode>absolute</altitudeMode>
                    </Point>
                </Placemark>
            </Folder>
        </Document>
    </Document>
</kml>
