<?xml version="1.0" encoding="UTF-8"?>
<kml xmlns="http://www.opengis.net/kml/2.2" xmlns:gx="http://www.google.com/kml/ext/2.2">
    <Document id="1">
        <Document id="2">
            <name>EOSS-379</name>
            <description><![CDATA[
    <h1>EOSS-379</h1>
    <table style="width: 100%;" cellpadding=0 cellspacing=0 border=0>
    <tr><td style="border: solid 1px black;border-bottom: 0; padding: 10px;"><strong>Launch Local Date/Time</strong></td><td style=" padding: 10px;border: solid 1px black;border-bottom: 0; border-left: 0;">2025-06-17 09:47:50</td></tr>
    <tr><td style="border: solid 1px black;border-bottom: 0; padding: 10px;"><strong>Flight Duration</strong></td><td style=" padding: 10px;border: solid 1px black;border-bottom: 0; border-left: 0; ">2hrs 36mins 10secs</td></tr>
    <tr><td style="border: solid 1px black;border-bottom: 0; padding: 10px;"><strong>Down Range Distance</strong></td><td style=" padding: 10px;border: solid 1px black;border-bottom: 0; border-left: 0; ">35.8mi (57.6km)</td></tr>
    <tr><td style="border: solid 1px black; padding: 10px;"><strong>Approx. Burst Altitude</strong></td><td style=" padding: 10px;border: solid 1px black; border-left: 0; ">96,874ft (29,527.2m)</td></tr>
    </table>
    ]]></description>
            <Folder id="3">
                <Style id="8">
                    <LineStyle id="9">
                        <color>ff0000ff</color>
                        <colorMode>normal</colorMode>
                        <width>3</width>
                    </LineStyle>
                </Style>
                <Style id="12">
                    <LineStyle id="13">
                        <color>ffff0000</color>
                        <colorMode>normal</colorMode>
                        <width>3</width>
                    </LineStyle>
                </Style>
                <name>Paths</name>
                <Placemark id="7">
                    <name>EOSS-379 Ascent</name>
                    <styleUrl>#8</styleUrl>
                    <LineString id="6">
                        <extrude>0</extrude>
                        <altitudeMode>absolute</altitudeMode>
                        <coordinates>-105.0078333333,39.8823333333,1686.15 -105.0076666667,39.8825,1685.54 -105.0078333333,39.8823333333,1744.37 -105.0083333333,39.8818333333,1952.24 -105.0086666667,39.8818333333,2036.37 -105.0088333333,39.8818333333,2149.45 -105.0086666667,39.882,2225.65 -105.0088333333,39.882,2335.38 -105.009,39.8821666667,2413.41 -105.0093333333,39.8821666667,2506.68 -105.0096666667,39.8821666667,2571.9 -105.0098333333,39.882,2663.34 -105.0098333333,39.882,2736.49 -105.01,39.8816666667,2852.62 -105.0105,39.8815,3021.79 -105.0106666667,39.8816666667,3087.93 -105.0108333333,39.8815,3214.42 -105.011,39.8815,3289.4 -105.0115,39.8815,3398.22 -105.0118333333,39.8818333333,3477.16 -105.0113333333,39.8823333333,3569.21 -105.0113333333,39.8825,3636.57 -105.0108333333,39.8828333333,3734.41 -105.0103333333,39.883,3798.72 -105.0083333333,39.883,3889.55 -105.0073333333,39.8831666667,3964.84 -105.0046666667,39.8835,4063.9 -105.0031666667,39.8838333333,4119.37 -105.0003333333,39.8841666667,4230.01 -104.9968333333,39.8848333333,4410.46 -104.9956666667,39.8848333333,4485.13 -104.9928333333,39.885,4605.53 -104.9918333333,39.8851666667,4683.56 -104.989,39.8851666667,4798.47 -104.9878333333,39.8853333333,4874.06 -104.9848333333,39.8853333333,4988.36 -104.9836666667,39.8851666667,5050.84 -104.9808333333,39.8853333333,5136.49 -104.9795,39.8853333333,5205.07 -104.9766666667,39.8848333333,5309.31 -104.9751666667,39.8846666667,5376.06 -104.9715,39.884,5465.98 -104.9703333333,39.8836666667,5529.07 -104.9668333333,39.8831666667,5634.23 -104.9653333333,39.8826666667,5697.02 -104.9621666667,39.8823333333,5806.14 -104.9608333333,39.8823333333,5879.9 -104.9578333333,39.8825,5991.15 -104.9565,39.8826666667,6068.57 -104.9535,39.8833333333,6195.36 -104.952,39.8833333333,6258.46 -104.949,39.884,6357.21 -104.9475,39.8846666667,6420.0 -104.9446666667,39.8853333333,6515.4 -104.94,39.8861666667,6696.76 -104.9385,39.8865,6761.38 -104.9353333333,39.8875,6886.04 -104.9305,39.8888333333,7075.63 -104.9288333333,39.8895,7142.07 -104.925,39.8903333333,7250.89 -104.9236666667,39.8908333333,7322.21 -104.92,39.8921666667,7417.31 -104.9188333333,39.8925,7478.88 -104.9161666667,39.8931666667,7588.3 -104.915,39.8938333333,7663.28 -104.9101666667,39.8955,7852.87 -104.9071666667,39.8961666667,7960.46 -104.9056666667,39.8966666667,8036.66 -104.9025,39.8978333333,8118.96 -104.9011666667,39.8983333333,8183.58 -104.8983333333,39.8998333333,8282.33 -104.8968333333,39.9005,8346.03 -104.8943333333,39.9021666667,8433.51 -104.8933333333,39.903,8496.91 -104.891,39.904,8616.39 -104.89,39.9046666667,8690.76 -104.8875,39.9056666667,8782.81 -104.8865,39.9063333333,8855.96 -104.8841666667,39.9071666667,8956.24 -104.8801666667,39.909,9161.37 -104.8788333333,39.9096666667,9231.78 -104.8768333333,39.911,9338.46 -104.8763333333,39.912,9403.08 -104.8746666667,39.9128333333,9525.61 -104.8735,39.914,9594.8 -104.871,39.9156666667,9678.92 -104.8696666667,39.9163333333,9746.59 -104.8663333333,39.9175,9820.96 -104.862,39.92,9948.37 -104.8605,39.9211666667,10002.01 -104.857,39.9225,10094.98 -104.8515,39.924,10226.65 -104.8498333333,39.9246666667,10279.68 -104.8455,39.9253333333,10394.9 -104.8435,39.9256666667,10450.37 -104.8395,39.9268333333,10546.69 -104.8378333333,39.9275,10608.26 -104.8341666667,39.9288333333,10688.42 -104.8293333333,39.9311666667,10838.69 -104.8276666667,39.9323333333,10895.69 -104.8243333333,39.9341666667,10977.37 -104.8228333333,39.9353333333,11034.67 -104.8195,39.9371666667,11120.93 -104.818,39.9381666667,11180.06 -104.815,39.9401666667,11265.71 -104.8135,39.9413333333,11326.37 -104.8105,39.9435,11410.8 -104.806,39.947,11546.13 -104.8046666667,39.9483333333,11604.04 -104.8013333333,39.9503333333,11684.51 -104.7998333333,39.9513333333,11744.86 -104.7961666667,39.953,11823.19 -104.7943333333,39.9538333333,11882.02 -104.7901666667,39.9548333333,11965.23 -104.7881666667,39.9551666667,12017.96 -104.784,39.9555,12088.98 -104.7825,39.9556666667,12137.44 -104.7793333333,39.9565,12208.76 -104.7778333333,39.957,12259.06 -104.7746666667,39.958,12326.11 -104.7733333333,39.9586666667,12376.71 -104.7693333333,39.9596666667,12464.8 -104.7676666667,39.9603333333,12516.0 -104.7636666667,39.9616666667,12577.27 -104.762,39.9625,12623.9 -104.7578333333,39.9636666667,12700.41 -104.7561666667,39.9643333333,12770.21 -104.7523333333,39.9663333333,12852.5 -104.7505,39.9676666667,12902.49 -104.7465,39.9698333333,12967.11 -104.7443333333,39.9708333333,13026.85 -104.7398333333,39.9723333333,13113.11 -104.7375,39.973,13172.24 -104.7326666667,39.9738333333,13270.08 -104.7303333333,39.9741666667,13334.7 -104.7255,39.9738333333,13422.78 -104.7233333333,39.9736666667,13481.3 -104.7191666667,39.973,13566.95 -104.717,39.9725,13641.02 -104.7125,39.9713333333,13735.51 -104.7108333333,39.9711666667,13813.84 -104.7068333333,39.9711666667,13914.12 -104.7048333333,39.9715,13977.52 -104.7008333333,39.9713333333,14053.41 -104.6941666667,39.9711666667,14238.73 -104.6905,39.9715,14347.55 -104.6885,39.9718333333,14413.08 -104.685,39.9726666667,14529.82 -104.6835,39.9735,14595.96 -104.679,39.9746666667,14672.77 -104.6766666667,39.9756666667,14741.04 -104.6715,39.9768333333,14814.8 -104.6683333333,39.9778333333,14874.24 -104.6625,39.9791666667,15001.34 -104.6596666667,39.9796666667,15055.6 -104.6538333333,39.9801666667,15147.04 -104.651,39.9803333333,15209.82 -104.6446666667,39.98,15295.47 -104.6418333333,39.98,15348.81 -104.6335,39.9793333333,15466.16 -104.6283333333,39.979,15532.3 -104.6258333333,39.9791666667,15578.63 -104.6201666667,39.979,15640.81 -104.6123333333,39.9785,15745.66 -104.61,39.9781666667,15791.69 -104.6055,39.9773333333,15859.66 -104.6033333333,39.977,15910.86 -104.5993333333,39.9765,15972.74 -104.5975,39.9763333333,16026.08 -104.5938333333,39.9755,16098.62 -104.5925,39.9755,16151.05 -104.5896666667,39.9746666667,16222.37 -104.5881666667,39.9746666667,16273.88 -104.5845,39.974,16343.07 -104.5828333333,39.9738333333,16400.07 -104.5785,39.973,16461.94 -104.5763333333,39.9728333333,16515.59 -104.5716666667,39.972,16590.57 -104.5701666667,39.9715,16644.52 -104.567,39.9701666667,16722.55 -104.5631666667,39.9678333333,16848.12 -104.5621666667,39.967,16911.52 -104.5605,39.9655,16999.92 -104.5598333333,39.965,17060.88 -104.5581666667,39.9636666667,17147.44 -104.5576666667,39.9631666667,17207.18 -104.556,39.962,17300.45 -104.5553333333,39.9613333333,17362.32 -104.5536666667,39.9601666667,17457.72 -104.5528333333,39.9595,17521.43 -104.551,39.9581666667,17616.83 -104.5503333333,39.9578333333,17679.31 -104.5481666667,39.9566666667,17768.62 -104.5473333333,39.956,17827.14 -104.5453333333,39.9548333333,17911.27 -104.5446666667,39.9543333333,17970.09 -104.5436666667,39.9533333333,18065.19 -104.5435,39.9531666667,18128.28 -104.5428333333,39.953,18199.61 -104.5425,39.9531666667,18256.91 -104.5418333333,39.9533333333,18334.33 -104.5415,39.9536666667,18388.89 -104.5408333333,39.9541666667,18468.44 -104.5408333333,39.9543333333,18521.48 -104.5403333333,39.955,18596.15 -104.5401666667,39.9555,18652.24 -104.5395,39.9561666667,18727.22 -104.5391666667,39.9566666667,18779.95 -104.5385,39.9573333333,18860.41 -104.5385,39.958,18913.75 -104.5376666667,39.9586666667,18993.61 -104.5373333333,39.959,19049.39 -104.5363333333,39.959,19126.2 -104.5361666667,39.9588333333,19180.76 -104.5355,39.9588333333,19255.13 -104.5356666667,39.9591666667,19308.17 -104.5355,39.9595,19379.18 -104.5356666667,39.96,19434.96 -104.5356666667,39.9606666667,19509.03 -104.5356666667,39.9611666667,19561.15 -104.5353333333,39.9621666667,19632.17 -104.5353333333,39.9625,19687.95 -104.535,39.9623333333,19757.44 -104.5355,39.962,19806.21 -104.5365,39.9615,19876.62 -104.5371666667,39.9615,19929.35 -104.5388333333,39.9613333333,20009.21 -104.5396666667,39.9616666667,20064.07 -104.5411666667,39.962,20143.32 -104.5416666667,39.9625,20200.32 -104.5426666667,39.9628333333,20279.56 -104.543,39.9628333333,20337.17 -104.5431666667,39.9628333333,20472.81 -104.5425,39.9625,20558.15 -104.5423333333,39.9625,20612.71 -104.5411666667,39.9618333333,20696.53 -104.541,39.9613333333,20754.75 -104.5405,39.9601666667,20831.25 -104.5405,39.9595,20886.12 -104.5405,39.9585,20972.37 -104.5406666667,39.9583333333,21032.72 -104.5415,39.9581666667,21126.6 -104.542,39.9585,21184.51 -104.5423333333,39.9588333333,21270.16 -104.5426666667,39.9591666667,21328.38 -104.5426666667,39.9593333333,21409.46 -104.5428333333,39.9593333333,21470.11 -104.5428333333,39.9585,21549.97 -104.543,39.958,21602.4 -104.5435,39.9561666667,21680.12 -104.544,39.9556666667,21732.24 -104.5448333333,39.9545,21803.26 -104.5455,39.954,21854.77 -104.5466666667,39.9533333333,21927.31 -104.5475,39.9533333333,21982.18 -104.5485,39.9531666667,22050.76 -104.5491666667,39.9533333333,22108.06 -104.5508333333,39.9538333333,22235.16 -104.5515,39.9536666667,22311.06 -104.552,39.9536666667,22366.53 -104.5525,39.9533333333,22441.2 -104.553,39.9533333333,22491.5 -104.5545,39.9531666667,22578.97 -104.5558333333,39.9531666667,22646.64 -104.5578333333,39.9535,22729.85 -104.5588333333,39.9533333333,22785.32 -104.5605,39.9531666667,22864.57 -104.5615,39.9533333333,22920.35 -104.5631666667,39.9536666667,23002.04 -104.564,39.954,23055.07 -104.5651666667,39.9545,23137.06 -104.5656666667,39.955,23191.32 -104.5661666667,39.9558333333,23275.44 -104.5663333333,39.9561666667,23327.87 -104.5661666667,39.9563333333,23412.6 -104.5661666667,39.9563333333,23467.47 -104.566,39.9555,23549.15 -104.566,39.9553333333,23600.36 -104.5663333333,39.9546666667,23690.88 -104.5668333333,39.9545,23744.22 -104.5681666667,39.9538333333,23830.79 -104.5691666667,39.9538333333,23886.87 -104.5715,39.9536666667,23974.04 -104.5725,39.9536666667,24031.65 -104.5736666667,39.9538333333,24116.08 -104.5746666667,39.954,24174.6 -104.5763333333,39.9538333333,24266.35 -104.5773333333,39.954,24325.48 -104.579,39.9541666667,24407.47 -104.5795,39.9545,24466.3 -104.5806666667,39.9553333333,24548.9 -104.5808333333,39.9558333333,24606.5 -104.5813333333,39.9568333333,24693.07 -104.5821666667,39.9573333333,24747.02 -104.5831666667,39.9581666667,24836.02 -104.5838333333,39.9585,24896.98 -104.5855,39.9588333333,24987.2 -104.5865,39.9591666667,25047.55 -104.5886666667,39.9596666667,25136.86 -104.5895,39.9601666667,25197.51 -104.5908333333,39.9605,25281.03 -104.5915,39.9608333333,25340.46 -104.5926666667,39.9616666667,25425.5 -104.5935,39.9618333333,25487.99 -104.5955,39.9623333333,25570.59 -104.5968333333,39.9628333333,25625.45 -104.5993333333,39.9635,25703.48 -104.6003333333,39.9641666667,25755.6 -104.6021666667,39.9653333333,25831.5 -104.6028333333,39.966,25885.14 -104.6038333333,39.9666666667,25965.3 -104.6045,39.967,26023.52 -104.6055,39.9671666667,26106.42 -104.6065,39.9675,26160.68 -104.6086666667,39.9676666667,26247.24 -104.6098333333,39.9675,26303.02 -104.6123333333,39.9673333333,26385.62 -104.6136666667,39.9673333333,26441.4 -104.616,39.967,26534.97 -104.6171666667,39.9668333333,26594.71 -104.6198333333,39.9661666667,26691.34 -104.6211666667,39.9661666667,26756.56 -104.6238333333,39.9658333333,26854.1 -104.6253333333,39.9658333333,26915.97 -104.6281666667,39.9656666667,27009.85 -104.6295,39.9658333333,27068.98 -104.6316666667,39.9658333333,27161.64 -104.6328333333,39.9656666667,27221.08 -104.635,39.9653333333,27308.25 -104.6361666667,39.9655,27364.64 -104.638,39.9651666667,27447.54 -104.6388333333,39.9651666667,27497.53 -104.6401666667,39.9646666667,27577.08 -104.6408333333,39.9643333333,27630.12 -104.6425,39.9636666667,27707.84 -104.6433333333,39.9635,27760.57 -104.6453333333,39.963,27839.21 -104.6466666667,39.9628333333,27896.52 -104.6491666667,39.9621666667,27981.25 -104.6505,39.9623333333,28040.38 -104.6531666667,39.9621666667,28128.77 -104.655,39.9623333333,28190.34 -104.6583333333,39.9625,28286.05 -104.6603333333,39.9626666667,28349.14 -104.6633333333,39.9633333333,28445.46 -104.6648333333,39.9636666667,28510.38 -104.6676666667,39.9643333333,28603.65 -104.6691666667,39.9646666667,28664.92 -104.6721666667,39.965,28760.62 -104.6738333333,39.9651666667,28820.97 -104.6771666667,39.9655,28912.41 -104.679,39.9656666667,28973.37 -104.683,39.9661666667,29062.07 -104.6851666667,39.9666666667,29118.15 -104.6895,39.967,29196.49 -104.6916666667,39.9675,29250.74 -104.6956666667,39.968,29333.65 -104.6978333333,39.9685,29391.86 -104.7013333333,39.9695,29467.15 -104.7033333333,39.9705,29527.2</coordinates>
                    </LineString>
                </Placemark>
                <Placemark id="11">
                    <name>EOSS-379 Descent</name>
                    <styleUrl>#12</styleUrl>
                    <LineString id="10">
                        <extrude>0</extrude>
                        <altitudeMode>absolute</altitudeMode>
                        <coordinates>-104.7033333333,39.9705,29527.2 -104.7066666667,39.9713333333,29407.41 -104.7153333333,39.9731666667,28216.25 -104.7173333333,39.9725,27649.02 -104.7181666667,39.9725,27390.85 -104.7196666667,39.9725,26883.97 -104.7211666667,39.9725,26637.08 -104.724,39.9725,25894.28 -104.7263333333,39.9731666667,25399.59 -104.7271666667,39.9735,25178.92 -104.7288333333,39.9741666667,24738.79 -104.729,39.9745,24546.46 -104.7308333333,39.9751666667,24105.11 -104.7315,39.9753333333,23889.61 -104.733,39.9751666667,23496.12 -104.7333333333,39.976,23328.17 -104.7343333333,39.9761666667,22945.04 -104.7353333333,39.9758333333,22760.03 -104.7366666667,39.9755,22384.21 -104.7376666667,39.976,22230.28 -104.7385,39.9753333333,21896.22 -104.739,39.9751666667,21741.99 -104.7388333333,39.9738333333,21408.85 -104.739,39.9738333333,21247.3 -104.7393333333,39.9735,20900.75 -104.7396666667,39.973,20741.34 -104.7383333333,39.9723333333,20434.4 -104.7378333333,39.9726666667,20311.26 -104.7393333333,39.9735,20043.95 -104.7401666667,39.9731666667,19918.68 -104.74,39.9735,19656.25 -104.74,39.9733333333,19543.47 -104.7386666667,39.9736666667,19282.26 -104.7375,39.975,18799.76 -104.7355,39.9758333333,18555.61 -104.7348333333,39.9756666667,18453.2 -104.7346666667,39.9748333333,18231.31 -104.735,39.9743333333,18137.73 -104.7356666667,39.973,17933.52 -104.7361666667,39.973,17838.72 -104.7335,39.9735,17631.16 -104.732,39.9736666667,17546.73 -104.7286666667,39.9721666667,17348.61 -104.7273333333,39.9711666667,17263.57 -104.7243333333,39.9691666667,17063.31 -104.7228333333,39.9685,16976.75 -104.7196666667,39.968,16766.13 -104.7185,39.9683333333,16676.22 -104.7148333333,39.9683333333,16475.66 -104.7131666667,39.9678333333,16391.53 -104.7103333333,39.9665,16178.78 -104.7085,39.9663333333,16086.12 -104.7031666667,39.9661666667,15871.55 -104.701,39.9656666667,15780.41 -104.6971666667,39.9656666667,15588.69 -104.6946666667,39.9656666667,15508.22 -104.6875,39.9643333333,15326.26 -104.6845,39.9635,15254.02 -104.6786666667,39.9625,15081.5 -104.6758333333,39.9621666667,15012.92 -104.6691666667,39.9638333333,14841.63 -104.6586666667,39.9653333333,14609.98 -104.6565,39.9658333333,14540.48 -104.652,39.9671666667,14381.38 -104.6495,39.9675,14316.76 -104.6446666667,39.9668333333,14157.35 -104.6428333333,39.9665,14092.12 -104.6386666667,39.9665,13934.85 -104.6361666667,39.967,13869.92 -104.6301666667,39.967,13715.09 -104.6275,39.967,13652.3 -104.6225,39.9673333333,13498.68 -104.6203333333,39.9683333333,13435.28 -104.6156666667,39.9708333333,13281.66 -104.6131666667,39.9723333333,13222.22 -104.6085,39.974,13078.36 -104.6071666667,39.9748333333,13018.92 -104.6045,39.9763333333,12876.58 -104.6026666667,39.9773333333,12818.67 -104.5981666667,39.9785,12674.5 -104.5913333333,39.9796666667,12475.77 -104.59,39.9798333333,12419.38 -104.5875,39.9803333333,12279.48 -104.5865,39.9811666667,12225.22 -104.5835,39.983,12090.2 -104.5816666667,39.9835,12038.38 -104.5793333333,39.984,11910.06 -104.5785,39.9843333333,11860.38 -104.5758333333,39.985,11736.63 -104.5741666667,39.9858333333,11689.99 -104.5696666667,39.9873333333,11569.6 -104.5675,39.988,11522.66 -104.564,39.9888333333,11394.95 -104.5628333333,39.9898333333,11345.57 -104.5595,39.992,11213.9 -104.5575,39.993,11154.46 -104.5531666667,39.994,11010.9 -104.5491666667,39.9958333333,10823.14 -104.5423333333,39.998,10631.73 -104.5405,39.9981666667,10582.35 -104.5375,39.9991666667,10455.25 -104.5356666667,40.0,10404.65 -104.5311666667,40.0011666667,10275.72 -104.5288333333,40.0015,10227.26 -104.525,40.001,10104.73 -104.5235,40.0011666667,10059.01 -104.5201666667,40.0018333333,9938.31 -104.5176666667,40.0023333333,9891.06 -104.5128333333,40.0025,9769.14 -104.5111666667,40.0026666667,9722.82 -104.5066666667,40.0038333333,9595.71 -104.5041666667,40.0041666667,9541.76 -104.4995,40.0045,9404.6 -104.4935,40.0063333333,9219.9 -104.4855,40.0086666667,9050.43 -104.4831666667,40.0091666667,9004.4 -104.4798333333,40.0098333333,8882.48 -104.4786666667,40.0108333333,8837.07 -104.4753333333,40.0125,8717.28 -104.4738333333,40.013,8673.08 -104.4715,40.0135,8556.65 -104.4665,40.016,8361.88 -104.4626666667,40.0163333333,8210.7 -104.4605,40.0168333333,8103.11 -104.4556666667,40.017,7955.89 -104.4515,40.0173333333,7809.28 -104.4496666667,40.0175,7770.27 -104.4463333333,40.017,7662.67 -104.4453333333,40.017,7623.35 -104.4408333333,40.0175,7478.27 -104.4378333333,40.0173333333,7371.59 -104.4368333333,40.0173333333,7334.1 -104.4331666667,40.0183333333,7185.36 -104.4296666667,40.0188333333,7076.54 -104.4281666667,40.0188333333,7037.83 -104.4253333333,40.0185,6929.02 -104.4216666667,40.0193333333,6782.71 -104.42,40.0198333333,6744.0 -104.4163333333,40.0198333333,6632.45 -104.415,40.0198333333,6588.86 -104.4111666667,40.0196666667,6431.58 -104.4075,40.019,6319.42 -104.4038333333,40.0175,6171.59 -104.4025,40.0175,6131.05 -104.399,40.0168333333,6023.46 -104.3976666667,40.0163333333,5985.66 -104.3953333333,40.0158333333,5882.94 -104.394,40.0158333333,5846.06 -104.391,40.0148333333,5744.57 -104.39,40.0146666667,5708.6 -104.388,40.0143333333,5606.19 -104.3868333333,40.0141666667,5569.31 -104.384,40.0133333333,5466.59 -104.3825,40.0131666667,5430.01 -104.3793333333,40.0126666667,5329.73 -104.375,40.0125,5190.74 -104.3736666667,40.0126666667,5160.26 -104.3703333333,40.0121666667,5065.47 -104.3693333333,40.012,5033.77 -104.367,40.0118333333,4940.2 -104.3655,40.012,4910.94 -104.3621666667,40.0113333333,4819.5 -104.3611666667,40.0111666667,4789.32 -104.3588333333,40.0108333333,4698.8 -104.3576666667,40.011,4668.93 -104.3546666667,40.0106666667,4575.35 -104.3525,40.0105,4440.94 -104.3518333333,40.0103333333,4407.71 -104.3511666667,40.0101666667,4307.43 -104.3508333333,40.01,4272.99 -104.3505,40.0098333333,4177.28 -104.3501666667,40.0101666667,4144.06 -104.3495,40.01,4023.97 -104.3496666667,40.01,3930.7 -104.3495,40.0105,3901.44 -104.3488333333,40.0106666667,3812.44 -104.3491666667,40.0106666667,3694.18 -104.3493333333,40.011,3667.05 -104.3491666667,40.0105,3586.28 -104.3506666667,40.0108333333,3482.64 -104.351,40.0111666667,3450.95 -104.3518333333,40.0111666667,3365.3 -104.3525,40.0115,3340.91 -104.353,40.0123333333,3263.49 -104.3535,40.0125,3240.94 -104.3546666667,40.0131666667,3163.82 -104.3553333333,40.014,3055.32 -104.356,40.0143333333,3027.58 -104.3568333333,40.0153333333,2938.58 -104.357,40.0158333333,2822.14 -104.3575,40.0173333333,2698.39 -104.3575,40.0176666667,2667.0 -104.3578333333,40.0183333333,2572.51 -104.3578333333,40.0191666667,2539.9 -104.3573333333,40.02,2442.97 -104.3576666667,40.0205,2409.14 -104.3576666667,40.0218333333,2314.65 -104.3575,40.0225,2286.0 -104.3576666667,40.023,2202.79 -104.3583333333,40.0253333333,2089.71 -104.3583333333,40.0261666667,2067.46 -104.359,40.0271666667,1996.44 -104.3591666667,40.0283333333,1969.31 -104.3596666667,40.0295,1888.54 -104.3601666667,40.0303333333,1864.16 -104.3603333333,40.032,1788.57 -104.3606666667,40.0326666667,1761.74 -104.3613333333,40.0343333333,1673.35 -104.3615,40.0353333333,1638.3 -104.362,40.0365,1562.4 -104.3628333333,40.0375,1532.84 -104.3636666667,40.039,1490.17</coordinates>
                    </LineString>
                </Placemark>
            </Folder>
            <Folder id="4">
                <Style id="37">
                    <IconStyle id="38">
                        <color>ff0000ff</color>
                        <colorMode>normal</colorMode>
                        <scale>1</scale>
                        <heading>0</heading>
                        <Icon id="39">
                            <href>https://maps.google.com/mapfiles/kml/shapes/placemark_circle.png</href>
                        </Icon>
                    </IconStyle>
                </Style>
                <Style id="42">
                    <IconStyle id="43">
                        <color>ff0000ff</color>
                        <colorMode>normal</colorMode>
                        <scale>1</scale>
                        <heading>0</heading>
                        <Icon id="44">
                            <href>https://maps.google.com/mapfiles/kml/shapes/placemark_circle.png</href>
                        </Icon>
                    </IconStyle>
                </Style>
                <Style id="47">
                    <IconStyle id="48">
                        <color>ff0000ff</color>
                        <colorMode>normal</colorMode>
                        <scale>1</scale>
                        <heading>0</heading>
                        <Icon id="49">
                            <href>https://maps.google.com/mapfiles/kml/shapes/placemark_circle.png</href>
                        </Icon>
                    </IconStyle>
                </Style>
                <Style id="52">
                    <IconStyle id="53">
                        <color>ff0000ff</color>
                        <colorMode>normal</colorMode>
                        <scale>1</scale>
                        <heading>0</heading>
                        <Icon id="54">
                            <href>https://maps.google.com/mapfiles/kml/shapes/placemark_circle.png</href>
                        </Icon>
                    </IconStyle>
                </Style>
                <Style id="57">
                    <IconStyle id="58">
                        <color>ff0000ff</color>
                        <colorMode>normal</colorMode>
                        <scale>1</scale>
                        <heading>0</heading>
                        <Icon id="59">
                            <href>https://maps.google.com/mapfiles/kml/shapes/placemark_circle.png</href>
                        </Icon>
                    </IconStyle>
                </Style>
                <Style id="62">
                    <IconStyle id="63">
                        <color>ff0000ff</color>
                        <colorMode>normal</colorMode>
                        <scale>1</scale>
                        <heading>0</heading>
                        <Icon id="64">
                            <href>https://maps.google.com/mapfiles/kml/shapes/placemark_circle.png</href>
                        </Icon>
                    </IconStyle>
                </Style>
                <Style id="67">
                    <IconStyle id="68">
                        <color>ff0000ff</color>
                        <colorMode>normal</colorMode>
                        <scale>1</scale>
                        <heading>0</heading>
                        <Icon id="69">
                            <href>https://maps.google.com/mapfiles/kml/shapes/placemark_circle.png</href>
                        </Icon>
                    </IconStyle>
                </Style>
                <Style id="72">
                    <IconStyle id="73">
                        <color>ff0000ff</color>
                        <colorMode>normal</colorMode>
                        <scale>1</scale>
                        <heading>0</heading>
                        <Icon id="74">
                            <href>https://maps.google.com/mapfiles/kml/shapes/placemark_circle.png</href>
                        </Icon>
                    </IconStyle>
                </Style>
                <Style id="77">
                    <IconStyle id="78">
                        <color>ff0000ff</color>
                        <colorMode>normal</colorMode>
                        <scale>1</scale>
                        <heading>0</heading>
                        <Icon id="79">
                            <href>https://maps.google.com/mapfiles/kml/shapes/placemark_circle.png</href>
                        </Icon>
                    </IconStyle>
                </Style>
                <Style id="82">
                    <IconStyle id="83">
                        <color>ffff0000</color>
                        <colorMode>normal</colorMode>
                        <scale>1</scale>
                        <heading>0</heading>
                        <Icon id="84">
                            <href>https://maps.google.com/mapfiles/kml/shapes/placemark_circle.png</href>
                        </Icon>
                    </IconStyle>
                </Style>
                <Style id="87">
                    <IconStyle id="88">
                        <color>ffff0000</color>
                        <colorMode>normal</colorMode>
                        <scale>1</scale>
                        <heading>0</heading>
                        <Icon id="89">
                            <href>https://maps.google.com/mapfiles/kml/shapes/placemark_circle.png</href>
                        </Icon>
                    </IconStyle>
                </Style>
                <Style id="92">
                    <IconStyle id="93">
                        <color>ffff0000</color>
                        <colorMode>normal</colorMode>
                        <scale>1</scale>
                        <heading>0</heading>
                        <Icon id="94">
                            <href>https://maps.google.com/mapfiles/kml/shapes/placemark_circle.png</href>
                        </Icon>
                    </IconStyle>
                </Style>
                <Style id="97">
                    <IconStyle id="98">
                        <color>ffff0000</color>
                        <colorMode>normal</colorMode>
                        <scale>1</scale>
                        <heading>0</heading>
                        <Icon id="99">
                            <href>https://maps.google.com/mapfiles/kml/shapes/placemark_circle.png</href>
                        </Icon>
                    </IconStyle>
                </Style>
                <Style id="102">
                    <IconStyle id="103">
                        <color>ffff0000</color>
                        <colorMode>normal</colorMode>
                        <scale>1</scale>
                        <heading>0</heading>
                        <Icon id="104">
                            <href>https://maps.google.com/mapfiles/kml/shapes/placemark_circle.png</href>
                        </Icon>
                    </IconStyle>
                </Style>
                <Style id="107">
                    <IconStyle id="108">
                        <color>ffff0000</color>
                        <colorMode>normal</colorMode>
                        <scale>1</scale>
                        <heading>0</heading>
                        <Icon id="109">
                            <href>https://maps.google.com/mapfiles/kml/shapes/placemark_circle.png</href>
                        </Icon>
                    </IconStyle>
                </Style>
                <Style id="112">
                    <IconStyle id="113">
                        <color>ffff0000</color>
                        <colorMode>normal</colorMode>
                        <scale>1</scale>
                        <heading>0</heading>
                        <Icon id="114">
                            <href>https://maps.google.com/mapfiles/kml/shapes/placemark_circle.png</href>
                        </Icon>
                    </IconStyle>
                </Style>
                <Style id="117">
                    <IconStyle id="118">
                        <color>ffff0000</color>
                        <colorMode>normal</colorMode>
                        <scale>1</scale>
                        <heading>0</heading>
                        <Icon id="119">
                            <href>https://maps.google.com/mapfiles/kml/shapes/placemark_circle.png</href>
                        </Icon>
                    </IconStyle>
                </Style>
                <Style id="122">
                    <IconStyle id="123">
                        <color>ffff0000</color>
                        <colorMode>normal</colorMode>
                        <scale>1</scale>
                        <heading>0</heading>
                        <Icon id="124">
                            <href>https://maps.google.com/mapfiles/kml/shapes/placemark_circle.png</href>
                        </Icon>
                    </IconStyle>
                </Style>
                <name>Waypoints</name>
                <Placemark id="36">
                    <name>10k</name>
                    <description><![CDATA[
        <h1>Waypoint</h1>
        <table style="width: 100%;" cellpadding=0 cellspacing=0 border=0>
        <tr><td style="padding: 10px; border: solid 1px black;border-bottom: 0;"><strong>Local Time</strong></td><td style="border: solid 1px black;border-left: 0; border-bottom: 0; padding: 10px;">09:51:50</td></tr>
        <tr><td style="padding: 10px; border: solid 1px black;border-bottom: 0;"><strong>Altitude</strong></td><td style="border: solid 1px black;border-left: 0; border-bottom: 0; padding: 10px;">9,914ft (3,021.8m)</td></tr>
        <tr><td style="padding: 10px; border: solid 1px black;"><strong>Coordinates</strong></td><td style="border: solid 1px black; border-left: 0; padding: 10px;">39.8815, -105.0105</td></tr>
        </table>
        ]]></description>
                    <styleUrl>#37</styleUrl>
                    <Point id="35">
                        <coordinates>-105.0105,39.8815,3021.79</coordinates>
                        <altitudeMode>absolute</altitudeMode>
                    </Point>
                </Placemark>
                <Placemark id="41">
                    <name>20k</name>
                    <description><![CDATA[
        <h1>Waypoint</h1>
        <table style="width: 100%;" cellpadding=0 cellspacing=0 border=0>
        <tr><td style="padding: 10px; border: solid 1px black;border-bottom: 0;"><strong>Local Time</strong></td><td style="border: solid 1px black;border-left: 0; border-bottom: 0; padding: 10px;">10:00:30</td></tr>
        <tr><td style="padding: 10px; border: solid 1px black;border-bottom: 0;"><strong>Altitude</strong></td><td style="border: solid 1px black;border-left: 0; border-bottom: 0; padding: 10px;">19,910ft (6,068.6m)</td></tr>
        <tr><td style="padding: 10px; border: solid 1px black;"><strong>Coordinates</strong></td><td style="border: solid 1px black; border-left: 0; padding: 10px;">39.88266667, -104.9565</td></tr>
        </table>
        ]]></description>
                    <styleUrl>#42</styleUrl>
                    <Point id="40">
                        <coordinates>-104.9565,39.8826666667,6068.57</coordinates>
                        <altitudeMode>absolute</altitudeMode>
                    </Point>
                </Placemark>
                <Placemark id="46">
                    <name>30k</name>
                    <description><![CDATA[
        <h1>Waypoint</h1>
        <table style="width: 100%;" cellpadding=0 cellspacing=0 border=0>
        <tr><td style="padding: 10px; border: solid 1px black;border-bottom: 0;"><strong>Local Time</strong></td><td style="border: solid 1px black;border-left: 0; border-bottom: 0; padding: 10px;">10:09:20</td></tr>
        <tr><td style="padding: 10px; border: solid 1px black;border-bottom: 0;"><strong>Altitude</strong></td><td style="border: solid 1px black;border-left: 0; border-bottom: 0; padding: 10px;">30,057ft (9,161.4m)</td></tr>
        <tr><td style="padding: 10px; border: solid 1px black;"><strong>Coordinates</strong></td><td style="border: solid 1px black; border-left: 0; padding: 10px;">39.909, -104.88016667</td></tr>
        </table>
        ]]></description>
                    <styleUrl>#47</styleUrl>
                    <Point id="45">
                        <coordinates>-104.8801666667,39.909,9161.37</coordinates>
                        <altitudeMode>absolute</altitudeMode>
                    </Point>
                </Placemark>
                <Placemark id="51">
                    <name>40k</name>
                    <description><![CDATA[
        <h1>Waypoint</h1>
        <table style="width: 100%;" cellpadding=0 cellspacing=0 border=0>
        <tr><td style="padding: 10px; border: solid 1px black;border-bottom: 0;"><strong>Local Time</strong></td><td style="border: solid 1px black;border-left: 0; border-bottom: 0; padding: 10px;">10:19:50</td></tr>
        <tr><td style="padding: 10px; border: solid 1px black;border-bottom: 0;"><strong>Altitude</strong></td><td style="border: solid 1px black;border-left: 0; border-bottom: 0; padding: 10px;">40,055ft (12,208.8m)</td></tr>
        <tr><td style="padding: 10px; border: solid 1px black;"><strong>Coordinates</strong></td><td style="border: solid 1px black; border-left: 0; padding: 10px;">39.9565, -104.77933333</td></tr>
        </table>
        ]]></description>
                    <styleUrl>#52</styleUrl>
                    <Point id="50">
                        <coordinates>-104.7793333333,39.9565,12208.76</coordinates>
                        <altitudeMode>absolute</altitudeMode>
                    </Point>
                </Placemark>
                <Placemark id="56">
                    <name>50k</name>
                    <description><![CDATA[
        <h1>Waypoint</h1>
        <table style="width: 100%;" cellpadding=0 cellspacing=0 border=0>
        <tr><td style="padding: 10px; border: solid 1px black;border-bottom: 0;"><strong>Local Time</strong></td><td style="border: solid 1px black;border-left: 0; border-bottom: 0; padding: 10px;">10:30:00</td></tr>
        <tr><td style="padding: 10px; border: solid 1px black;border-bottom: 0;"><strong>Altitude</strong></td><td style="border: solid 1px black;border-left: 0; border-bottom: 0; padding: 10px;">49,901ft (15,209.8m)</td></tr>
        <tr><td style="padding: 10px; border: solid 1px black;"><strong>Coordinates</strong></td><td style="border: solid 1px black; border-left: 0; padding: 10px;">39.98033333, -104.651</td></tr>
        </table>
        ]]></description>
                    <styleUrl>#57</styleUrl>
                    <Point id="55">
                        <coordinates>-104.651,39.9803333333,15209.82</coordinates>
                        <altitudeMode>absolute</altitudeMode>
                    </Point>
                </Placemark>
                <Placemark id="61">
                    <name>60k</name>
                    <description><![CDATA[
        <h1>Waypoint</h1>
        <table style="width: 100%;" cellpadding=0 cellspacing=0 border=0>
        <tr><td style="padding: 10px; border: solid 1px black;border-bottom: 0;"><strong>Local Time</strong></td><td style="border: solid 1px black;border-left: 0; border-bottom: 0; padding: 10px;">10:41:30</td></tr>
        <tr><td style="padding: 10px; border: solid 1px black;border-bottom: 0;"><strong>Altitude</strong></td><td style="border: solid 1px black;border-left: 0; border-bottom: 0; padding: 10px;">59,898ft (18,256.9m)</td></tr>
        <tr><td style="padding: 10px; border: solid 1px black;"><strong>Coordinates</strong></td><td style="border: solid 1px black; border-left: 0; padding: 10px;">39.95316667, -104.5425</td></tr>
        </table>
        ]]></description>
                    <styleUrl>#62</styleUrl>
                    <Point id="60">
                        <coordinates>-104.5425,39.9531666667,18256.91</coordinates>
                        <altitudeMode>absolute</altitudeMode>
                    </Point>
                </Placemark>
                <Placemark id="66">
                    <name>70k</name>
                    <description><![CDATA[
        <h1>Waypoint</h1>
        <table style="width: 100%;" cellpadding=0 cellspacing=0 border=0>
        <tr><td style="padding: 10px; border: solid 1px black;border-bottom: 0;"><strong>Local Time</strong></td><td style="border: solid 1px black;border-left: 0; border-bottom: 0; padding: 10px;">10:53:00</td></tr>
        <tr><td style="padding: 10px; border: solid 1px black;border-bottom: 0;"><strong>Altitude</strong></td><td style="border: solid 1px black;border-left: 0; border-bottom: 0; padding: 10px;">69,975ft (21,328.4m)</td></tr>
        <tr><td style="padding: 10px; border: solid 1px black;"><strong>Coordinates</strong></td><td style="border: solid 1px black; border-left: 0; padding: 10px;">39.95916667, -104.54266667</td></tr>
        </table>
        ]]></description>
                    <styleUrl>#67</styleUrl>
                    <Point id="65">
                        <coordinates>-104.5426666667,39.9591666667,21328.38</coordinates>
                        <altitudeMode>absolute</altitudeMode>
                    </Point>
                </Placemark>
                <Placemark id="71">
                    <name>80k</name>
                    <description><![CDATA[
        <h1>Waypoint</h1>
        <table style="width: 100%;" cellpadding=0 cellspacing=0 border=0>
        <tr><td style="padding: 10px; border: solid 1px black;border-bottom: 0;"><strong>Local Time</strong></td><td style="border: solid 1px black;border-left: 0; border-bottom: 0; padding: 10px;">11:04:20</td></tr>
        <tr><td style="padding: 10px; border: solid 1px black;border-bottom: 0;"><strong>Altitude</strong></td><td style="border: solid 1px black;border-left: 0; border-bottom: 0; padding: 10px;">80,077ft (24,407.5m)</td></tr>
        <tr><td style="padding: 10px; border: solid 1px black;"><strong>Coordinates</strong></td><td style="border: solid 1px black; border-left: 0; padding: 10px;">39.95416667, -104.579</td></tr>
        </table>
        ]]></description>
                    <styleUrl>#72</styleUrl>
                    <Point id="70">
                        <coordinates>-104.579,39.9541666667,24407.47</coordinates>
                        <altitudeMode>absolute</altitudeMode>
                    </Point>
                </Placemark>
                <Placemark id="76">
                    <name>90k</name>
                    <description><![CDATA[
        <h1>Waypoint</h1>
        <table style="width: 100%;" cellpadding=0 cellspacing=0 border=0>
        <tr><td style="padding: 10px; border: solid 1px black;border-bottom: 0;"><strong>Local Time</strong></td><td style="border: solid 1px black;border-left: 0; border-bottom: 0; padding: 10px;">11:14:50</td></tr>
        <tr><td style="padding: 10px; border: solid 1px black;border-bottom: 0;"><strong>Altitude</strong></td><td style="border: solid 1px black;border-left: 0; border-bottom: 0; padding: 10px;">90,051ft (27,447.5m)</td></tr>
        <tr><td style="padding: 10px; border: solid 1px black;"><strong>Coordinates</strong></td><td style="border: solid 1px black; border-left: 0; padding: 10px;">39.96516667, -104.638</td></tr>
        </table>
        ]]></description>
                    <styleUrl>#77</styleUrl>
                    <Point id="75">
                        <coordinates>-104.638,39.9651666667,27447.54</coordinates>
                        <altitudeMode>absolute</altitudeMode>
                    </Point>
                </Placemark>
                <Placemark id="81">
                    <name>10k</name>
                    <description><![CDATA[
        <h1>Waypoint</h1>
        <table style="width: 100%;" cellpadding=0 cellspacing=0 border=0>
        <tr><td style="padding: 10px; border: solid 1px black;border-bottom: 0;"><strong>Local Time</strong></td><td style="border: solid 1px black;border-left: 0; border-bottom: 0; padding: 10px;">12:15:20</td></tr>
        <tr><td style="padding: 10px; border: solid 1px black;border-bottom: 0;"><strong>Altitude</strong></td><td style="border: solid 1px black;border-left: 0; border-bottom: 0; padding: 10px;">10,024ft (3,055.3m)</td></tr>
        <tr><td style="padding: 10px; border: solid 1px black;"><strong>Coordinates</strong></td><td style="border: solid 1px black; border-left: 0; padding: 10px;">40.014, -104.35533333</td></tr>
        </table>
        ]]></description>
                    <styleUrl>#82</styleUrl>
                    <Point id="80">
                        <coordinates>-104.3553333333,40.014,3055.32</coordinates>
                        <altitudeMode>absolute</altitudeMode>
                    </Point>
                </Placemark>
                <Placemark id="86">
                    <name>20k</name>
                    <description><![CDATA[
        <h1>Waypoint</h1>
        <table style="width: 100%;" cellpadding=0 cellspacing=0 border=0>
        <tr><td style="padding: 10px; border: solid 1px black;border-bottom: 0;"><strong>Local Time</strong></td><td style="border: solid 1px black;border-left: 0; border-bottom: 0; padding: 10px;">12:03:00</td></tr>
        <tr><td style="padding: 10px; border: solid 1px black;border-bottom: 0;"><strong>Altitude</strong></td><td style="border: solid 1px black;border-left: 0; border-bottom: 0; padding: 10px;">20,115ft (6,131.1m)</td></tr>
        <tr><td style="padding: 10px; border: solid 1px black;"><strong>Coordinates</strong></td><td style="border: solid 1px black; border-left: 0; padding: 10px;">40.0175, -104.4025</td></tr>
        </table>
        ]]></description>
                    <styleUrl>#87</styleUrl>
                    <Point id="85">
                        <coordinates>-104.4025,40.0175,6131.05</coordinates>
                        <altitudeMode>absolute</altitudeMode>
                    </Point>
                </Placemark>
                <Placemark id="91">
                    <name>30k</name>
                    <description><![CDATA[
        <h1>Waypoint</h1>
        <table style="width: 100%;" cellpadding=0 cellspacing=0 border=0>
        <tr><td style="padding: 10px; border: solid 1px black;border-bottom: 0;"><strong>Local Time</strong></td><td style="border: solid 1px black;border-left: 0; border-bottom: 0; padding: 10px;">11:52:50</td></tr>
        <tr><td style="padding: 10px; border: solid 1px black;border-bottom: 0;"><strong>Altitude</strong></td><td style="border: solid 1px black;border-left: 0; border-bottom: 0; padding: 10px;">30,249ft (9,219.9m)</td></tr>
        <tr><td style="padding: 10px; border: solid 1px black;"><strong>Coordinates</strong></td><td style="border: solid 1px black; border-left: 0; padding: 10px;">40.00633333, -104.4935</td></tr>
        </table>
        ]]></description>
                    <styleUrl>#92</styleUrl>
                    <Point id="90">
                        <coordinates>-104.4935,40.0063333333,9219.9</coordinates>
                        <altitudeMode>absolute</altitudeMode>
                    </Point>
                </Placemark>
                <Placemark id="96">
                    <name>40k</name>
                    <description><![CDATA[
        <h1>Waypoint</h1>
        <table style="width: 100%;" cellpadding=0 cellspacing=0 border=0>
        <tr><td style="padding: 10px; border: solid 1px black;border-bottom: 0;"><strong>Local Time</strong></td><td style="border: solid 1px black;border-left: 0; border-bottom: 0; padding: 10px;">11:44:30</td></tr>
        <tr><td style="padding: 10px; border: solid 1px black;border-bottom: 0;"><strong>Altitude</strong></td><td style="border: solid 1px black;border-left: 0; border-bottom: 0; padding: 10px;">40,109ft (12,225.2m)</td></tr>
        <tr><td style="padding: 10px; border: solid 1px black;"><strong>Coordinates</strong></td><td style="border: solid 1px black; border-left: 0; padding: 10px;">39.98116667, -104.5865</td></tr>
        </table>
        ]]></description>
                    <styleUrl>#97</styleUrl>
                    <Point id="95">
                        <coordinates>-104.5865,39.9811666667,12225.22</coordinates>
                        <altitudeMode>absolute</altitudeMode>
                    </Point>
                </Placemark>
                <Placemark id="101">
                    <name>50k</name>
                    <description><![CDATA[
        <h1>Waypoint</h1>
        <table style="width: 100%;" cellpadding=0 cellspacing=0 border=0>
        <tr><td style="padding: 10px; border: solid 1px black;border-bottom: 0;"><strong>Local Time</strong></td><td style="border: solid 1px black;border-left: 0; border-bottom: 0; padding: 10px;">11:37:30</td></tr>
        <tr><td style="padding: 10px; border: solid 1px black;border-bottom: 0;"><strong>Altitude</strong></td><td style="border: solid 1px black;border-left: 0; border-bottom: 0; padding: 10px;">50,046ft (15,254.0m)</td></tr>
        <tr><td style="padding: 10px; border: solid 1px black;"><strong>Coordinates</strong></td><td style="border: solid 1px black; border-left: 0; padding: 10px;">39.9635, -104.6845</td></tr>
        </table>
        ]]></description>
                    <styleUrl>#102</styleUrl>
                    <Point id="100">
                        <coordinates>-104.6845,39.9635,15254.02</coordinates>
                        <altitudeMode>absolute</altitudeMode>
                    </Point>
                </Placemark>
                <Placemark id="106">
                    <name>60k</name>
                    <description><![CDATA[
        <h1>Waypoint</h1>
        <table style="width: 100%;" cellpadding=0 cellspacing=0 border=0>
        <tr><td style="padding: 10px; border: solid 1px black;border-bottom: 0;"><strong>Local Time</strong></td><td style="border: solid 1px black;border-left: 0; border-bottom: 0; padding: 10px;">11:32:20</td></tr>
        <tr><td style="padding: 10px; border: solid 1px black;border-bottom: 0;"><strong>Altitude</strong></td><td style="border: solid 1px black;border-left: 0; border-bottom: 0; padding: 10px;">59,814ft (18,231.3m)</td></tr>
        <tr><td style="padding: 10px; border: solid 1px black;"><strong>Coordinates</strong></td><td style="border: solid 1px black; border-left: 0; padding: 10px;">39.97483333, -104.73466667</td></tr>
        </table>
        ]]></description>
                    <styleUrl>#107</styleUrl>
                    <Point id="105">
                        <coordinates>-104.7346666667,39.9748333333,18231.31</coordinates>
                        <altitudeMode>absolute</altitudeMode>
                    </Point>
                </Placemark>
                <Placemark id="111">
                    <name>70k</name>
                    <description><![CDATA[
        <h1>Waypoint</h1>
        <table style="width: 100%;" cellpadding=0 cellspacing=0 border=0>
        <tr><td style="padding: 10px; border: solid 1px black;border-bottom: 0;"><strong>Local Time</strong></td><td style="border: solid 1px black;border-left: 0; border-bottom: 0; padding: 10px;">11:28:20</td></tr>
        <tr><td style="padding: 10px; border: solid 1px black;border-bottom: 0;"><strong>Altitude</strong></td><td style="border: solid 1px black;border-left: 0; border-bottom: 0; padding: 10px;">70,239ft (21,408.8m)</td></tr>
        <tr><td style="padding: 10px; border: solid 1px black;"><strong>Coordinates</strong></td><td style="border: solid 1px black; border-left: 0; padding: 10px;">39.97383333, -104.73883333</td></tr>
        </table>
        ]]></description>
                    <styleUrl>#112</styleUrl>
                    <Point id="110">
                        <coordinates>-104.7388333333,39.9738333333,21408.85</coordinates>
                        <altitudeMode>absolute</altitudeMode>
                    </Point>
                </Placemark>
                <Placemark id="116">
                    <name>81k</name>
                    <description><![CDATA[
        <h1>Waypoint</h1>
        <table style="width: 100%;" cellpadding=0 cellspacing=0 border=0>
        <tr><td style="padding: 10px; border: solid 1px black;border-bottom: 0;"><strong>Local Time</strong></td><td style="border: solid 1px black;border-left: 0; border-bottom: 0; padding: 10px;">11:25:30</td></tr>
        <tr><td style="padding: 10px; border: solid 1px black;border-bottom: 0;"><strong>Altitude</strong></td><td style="border: solid 1px black;border-left: 0; border-bottom: 0; padding: 10px;">80,533ft (24,546.5m)</td></tr>
        <tr><td style="padding: 10px; border: solid 1px black;"><strong>Coordinates</strong></td><td style="border: solid 1px black; border-left: 0; padding: 10px;">39.9745, -104.729</td></tr>
        </table>
        ]]></description>
                    <styleUrl>#117</styleUrl>
                    <Point id="115">
                        <coordinates>-104.729,39.9745,24546.46</coordinates>
                        <altitudeMode>absolute</altitudeMode>
                    </Point>
                </Placemark>
                <Placemark id="121">
                    <name>90k</name>
                    <description><![CDATA[
        <h1>Waypoint</h1>
        <table style="width: 100%;" cellpadding=0 cellspacing=0 border=0>
        <tr><td style="padding: 10px; border: solid 1px black;border-bottom: 0;"><strong>Local Time</strong></td><td style="border: solid 1px black;border-left: 0; border-bottom: 0; padding: 10px;">11:23:30</td></tr>
        <tr><td style="padding: 10px; border: solid 1px black;border-bottom: 0;"><strong>Altitude</strong></td><td style="border: solid 1px black;border-left: 0; border-bottom: 0; padding: 10px;">89,865ft (27,390.8m)</td></tr>
        <tr><td style="padding: 10px; border: solid 1px black;"><strong>Coordinates</strong></td><td style="border: solid 1px black; border-left: 0; padding: 10px;">39.9725, -104.71816667</td></tr>
        </table>
        ]]></description>
                    <styleUrl>#122</styleUrl>
                    <Point id="120">
                        <coordinates>-104.7181666667,39.9725,27390.85</coordinates>
                        <altitudeMode>absolute</altitudeMode>
                    </Point>
                </Placemark>
            </Folder>
            <Folder id="5">
                <Style id="16">
                    <IconStyle id="17">
                        <color>ff008cff</color>
                        <colorMode>normal</colorMode>
                        <scale>1</scale>
                        <heading>0</heading>
                        <Icon id="18">
                            <href>https://maps.google.com/mapfiles/kml/shapes/placemark_circle.png</href>
                        </Icon>
                    </IconStyle>
                </Style>
                <Style id="21">
                    <IconStyle id="22">
                        <color>ff008cff</color>
                        <colorMode>normal</colorMode>
                        <scale>1</scale>
                        <heading>0</heading>
                        <Icon id="23">
                            <href>https://maps.google.com/mapfiles/kml/shapes/placemark_circle.png</href>
                        </Icon>
                    </IconStyle>
                </Style>
                <Style id="26">
                    <IconStyle id="27">
                        <color>ff00ffff</color>
                        <colorMode>normal</colorMode>
                        <scale>1</scale>
                        <heading>0</heading>
                        <Icon id="28">
                            <href>https://maps.google.com/mapfiles/kml/shapes/placemark_circle.png</href>
                        </Icon>
                    </IconStyle>
                </Style>
                <Style id="31">
                    <IconStyle id="32">
                        <color>ff006400</color>
                        <colorMode>normal</colorMode>
                        <scale>1</scale>
                        <heading>0</heading>
                        <Icon id="33">
                            <href>https://maps.google.com/mapfiles/kml/shapes/placemark_circle.png</href>
                        </Icon>
                    </IconStyle>
                    <LabelStyle id="34">
                        <color>ff006400</color>
                        <colorMode>normal</colorMode>
                        <scale>1</scale>
                    </LabelStyle>
                </Style>
                <name>Points of Interest</name>
                <Placemark id="15">
                    <name>Launch</name>
                    <description><![CDATA[
    <h1>Launch</h1>
    <table style="width: 100%;" cellpadding=0 cellspacing=0 border=0>
    <tr><td style="padding: 10px; border: solid 1px black;border-bottom: 0;"><strong>Local Time</strong></td><td style="border: solid 1px black;border-bottom: 0; border-left: 0; padding: 10px;">09:47:50</td></tr>
    <tr><td style="padding: 10px; border: solid 1px black;border-bottom: 0;"><strong>Altitude</strong></td><td style="border: solid 1px black;border-left: 0; border-bottom: 0; padding: 10px;">5,532ft (1,686.2m)</td></tr>
    <tr><td style="padding: 10px; border: solid 1px black;"><strong>Coordinates</strong></td><td style="border: solid 1px black; border-left: 0; padding: 10px;">39.88233333, -105.00783333</td></tr>
    </table>
    ]]></description>
                    <styleUrl>#16</styleUrl>
                    <Point id="14">
                        <coordinates>-105.0078333333,39.8823333333,1686.15</coordinates>
                        <altitudeMode>absolute</altitudeMode>
                    </Point>
                </Placemark>
                <Placemark id="20">
                    <name>Landing</name>
                    <description><![CDATA[
    <h1>Landing</h1>
    <table style="width: 100%;" cellpadding=0 cellspacing=0 border=0>
    <tr><td style="padding: 10px; border: solid 1px black;border-bottom: 0;"><strong>Local Time</strong></td><td style="border: solid 1px black;border-left: 0; border-bottom: 0; padding: 10px;">12:24:00</td></tr>
    <tr><td style="padding: 10px; border: solid 1px black;border-bottom: 0;"><strong>Altitude</strong></td><td style="border: solid 1px black;border-bottom: 0; border-left: 0; padding: 10px;">4,889ft (1,490.2m)</td></tr>
    <tr><td style="padding: 10px; border: solid 1px black;"><strong>Coordinates</strong></td><td style="border: solid 1px black; border-left: 0; padding: 10px;">40.039, -104.36366667</td></tr>
    </table>
    ]]></description>
                    <styleUrl>#21</styleUrl>
                    <Point id="19">
                        <coordinates>-104.3636666667,40.039,1490.17</coordinates>
                        <altitudeMode>absolute</altitudeMode>
                    </Point>
                </Placemark>
                <Placemark id="25">
                    <name>Burst 96,874ft</name>
                    <description><![CDATA[
    <h1>Burst: 96,874ft</h1>
    <table style="width: 100%;" cellpadding=0 cellspacing=0 border=0>
    <tr><td style="padding: 10px; border: solid 1px black;border-bottom: 0;"><strong>Local Time</strong></td><td style="border: solid 1px black;border-left: 0; border-bottom: 0; padding: 10px;">11:22:00</td></tr>
    <tr><td style="padding: 10px; border: solid 1px black;border-bottom: 0;"><strong>Altitude</strong></td><td style="border: solid 1px black;border-left: 0; border-bottom: 0; padding: 10px;">96,874ft (29,527.2m)</td></tr>
    <tr><td style="padding: 10px; border: solid 1px black;"><strong>Coordinates</strong></td><td style="border: solid 1px black; border-left: 0; padding: 10px;">39.9705, -104.70333333</td></tr>
    </table>
    ]]></description>
                    <styleUrl>#26</styleUrl>
                    <Point id="24">
                        <coordinates>-104.7033333333,39.9705,29527.2</coordinates>
                        <altitudeMode>absolute</altitudeMode>
                    </Point>
                </Placemark>
                <Placemark id="30">
                    <name>32k, Turbulent-to-Laminar</name>
                    <description><![CDATA[
        <h1>Airflow Transitioning from Turbulent-to-Laminar</h1>
        <table style="width: 100%;" cellpadding=0 cellspacing=0 border=0>
        <tr><td style="padding: 10px; border: solid 1px black;border-bottom: 0;"><strong>Local Time</strong></td><td style="border: solid 1px black;border-left: 0; border-bottom: 0; padding: 10px;">10:11:00</td></tr>
        <tr><td style="padding: 10px; border: solid 1px black;border-bottom: 0;"><strong>Altitude</strong></td><td style="border: solid 1px black;border-left: 0; border-bottom: 0; padding: 10px;">31,977ft (9,746.6m)</td></tr>
        <tr><td style="padding: 10px; border: solid 1px black;"><strong>Coordinates</strong></td><td style="border: solid 1px black; border-left: 0; padding: 10px;">39.91633333, -104.86966667</td></tr>
        </table>
        ]]></description>
                    <styleUrl>#31</styleUrl>
                    <Point id="29">
                        <coordinates>-104.8696666667,39.9163333333,9746.59</coordinates>
                        <altitudeMode>absolute</altitudeMode>
                    </Point>
                </Placemark>
            </Folder>
        </Document>
    </Document>
</kml>
