<?xml version="1.0" encoding="UTF-8"?>
<kml xmlns="http://www.opengis.net/kml/2.2" xmlns:gx="http://www.google.com/kml/ext/2.2">
    <Document id="1">
        <Document id="2">
            <name>EOSS-300</name>
            <description><![CDATA[
    <h1>EOSS-300</h1>
    <table style="width: 100%;" cellpadding=0 cellspacing=0 border=0>
    <tr><td style="border: solid 1px black;border-bottom: 0; padding: 10px;"><strong>Launch Local Date/Time</strong></td><td style=" padding: 10px;border: solid 1px black;border-bottom: 0; border-left: 0;">2020-07-11 08:18:15</td></tr>
    <tr><td style="border: solid 1px black;border-bottom: 0; padding: 10px;"><strong>Flight Duration</strong></td><td style=" padding: 10px;border: solid 1px black;border-bottom: 0; border-left: 0; ">0hrs 25mins 26secs</td></tr>
    <tr><td style="border: solid 1px black;border-bottom: 0; padding: 10px;"><strong>Down Range Distance</strong></td><td style=" padding: 10px;border: solid 1px black;border-bottom: 0; border-left: 0; ">4.3mi (7.0km)</td></tr>
    <tr><td style="border: solid 1px black; padding: 10px;"><strong>Approx. Burst Altitude</strong></td><td style=" padding: 10px;border: solid 1px black; border-left: 0; ">11,223ft (3,420.8m)</td></tr>
    </table>
    ]]></description>
            <Folder id="3">
                <Style id="8">
                    <LineStyle id="9">
                        <color>ff0000ff</color>
                        <colorMode>normal</colorMode>
                        <width>3</width>
                    </LineStyle>
                </Style>
                <Style id="12">
                    <LineStyle id="13">
                        <color>ffff0000</color>
                        <colorMode>normal</colorMode>
                        <width>3</width>
                    </LineStyle>
                </Style>
                <name>Paths</name>
                <Placemark id="7">
                    <name>EOSS-300 Ascent</name>
                    <styleUrl>#8</styleUrl>
                    <LineString id="6">
                        <extrude>0</extrude>
                        <altitudeMode>absolute</altitudeMode>
                        <coordinates>-104.3843333333,40.6488333333,1522.48 -104.3849333333,40.6483166667,1557.22 -104.3862666667,40.64575,1640.13 -104.3864333333,40.6454666667,1692.55 -104.3879666667,40.6431666667,1793.14 -104.3882166667,40.64295,1843.43 -104.38855,40.64215,1950.11 -104.3883333333,40.642,1988.82 -104.38845,40.6420166667,2001.01 -104.3877666667,40.6415166667,2103.12 -104.38765,40.6414666667,2156.76 -104.38695,40.6410166667,2245.16 -104.3866666667,40.641,2278.68 -104.3868,40.6410166667,2294.84 -104.38615,40.6405166667,2371.34 -104.38605,40.6404333333,2421.03 -104.386,40.6403333333,2410.66 -104.3852166667,40.6402333333,2542.95 -104.3851666667,40.6401666667,2525.27 -104.3841666667,40.64005,2685.59 -104.3841666667,40.64,2661.51 -104.3831333333,40.6396333333,2769.41 -104.3829,40.6395833333,2817.57 -104.3828333333,40.6395,2802.03 -104.3817333333,40.6392833333,2887.37 -104.3815166667,40.6391833333,2942.23 -104.3791,40.6382666667,3070.86 -104.379,40.6381666667,3052.57 -104.3761666667,40.637,3139.44 -104.37625,40.6370166667,3145.54 -104.3740333333,40.6360333333,3156.51 -104.3736666667,40.6358333333,3175.1 -104.3737,40.6359,3198.57 -104.37145,40.6351166667,3206.5 -104.3711,40.6349833333,3247.95 -104.371,40.6348333333,3232.4 -104.3687666667,40.63425,3258.31 -104.3684333333,40.6341166667,3300.98 -104.3683333333,40.634,3288.79 -104.3660833333,40.6332166667,3310.43 -104.3656833333,40.63305,3350.06 -104.3656666667,40.633,3337.26 -104.3629333333,40.63185,3384.5 -104.3628333333,40.6318333333,3365.3 -104.36055,40.6308,3372.31 -104.3601833333,40.6306166667,3409.49 -104.35785,40.6295166667,3385.41 -104.3574833333,40.6293333333,3420.77</coordinates>
                    </LineString>
                </Placemark>
                <Placemark id="11">
                    <name>EOSS-300 Descent</name>
                    <styleUrl>#12</styleUrl>
                    <LineString id="10">
                        <extrude>0</extrude>
                        <altitudeMode>absolute</altitudeMode>
                        <coordinates>-104.3574833333,40.6293333333,3420.77 -104.3573333333,40.6293333333,3404.62 -104.3548333333,40.628,3403.7 -104.3547333333,40.6280666667,3414.37 -104.35245,40.6269833333,3359.51 -104.352,40.6266666667,3371.39 -104.3520666667,40.6268,3388.77 -104.3497833333,40.62575,3329.33 -104.3494166667,40.6255666667,3357.37 -104.3471666667,40.6245333333,3289.4 -104.3468,40.6243666667,3315.92 -104.3466666667,40.6243333333,3297.94 -104.34435,40.62325,3262.27 -104.3423166667,40.6223833333,3181.5 -104.34195,40.6222333333,3207.72 -104.3399166667,40.6213,3129.38 -104.3396166667,40.62115,3155.29 -104.3373833333,40.6201,3064.46 -104.3370333333,40.6199166667,3088.54 -104.3346333333,40.61905,2987.34 -104.3342333333,40.6189333333,3013.56 -104.3318333333,40.6183333333,2916.63 -104.3319,40.6183833333,2930.04 -104.33025,40.61805,2813.3 -104.33005,40.6179833333,2834.03 -104.3284,40.6178833333,2731.31 -104.3268333333,40.6176,2615.18 -104.3266,40.6174833333,2638.35 -104.3253166667,40.6172666667,2508.2 -104.3251833333,40.6171833333,2529.23 -104.3251666667,40.6171666667,2511.55 -104.3237,40.6166833333,2407.01 -104.3236666667,40.6166666667,2389.94 -104.32245,40.6165666667,2272.28 -104.3221666667,40.6165,2273.81 -104.32225,40.6165166667,2291.79 -104.3212166667,40.6163833333,2164.38 -104.32105,40.6163333333,2182.98 -104.3203833333,40.6161666667,2062.28 -104.32035,40.6161166667,2083.31 -104.3196833333,40.6157666667,1956.21 -104.31965,40.6156666667,1972.06 -104.3204,40.6141333333,1849.22 -104.3205166667,40.6137833333,1870.25 -104.3214833333,40.6113833333,1748.64 -104.3227166667,40.60945,1597.15 -104.32295,40.6089666667,1615.14 -104.3236833333,40.6065166667,1483.16</coordinates>
                    </LineString>
                </Placemark>
            </Folder>
            <Folder id="4">
                <Style id="37">
                    <IconStyle id="38">
                        <color>ff0000ff</color>
                        <colorMode>normal</colorMode>
                        <scale>1</scale>
                        <heading>0</heading>
                        <Icon id="39">
                            <href>https://maps.google.com/mapfiles/kml/shapes/placemark_circle.png</href>
                        </Icon>
                    </IconStyle>
                </Style>
                <Style id="42">
                    <IconStyle id="43">
                        <color>ffff0000</color>
                        <colorMode>normal</colorMode>
                        <scale>1</scale>
                        <heading>0</heading>
                        <Icon id="44">
                            <href>https://maps.google.com/mapfiles/kml/shapes/placemark_circle.png</href>
                        </Icon>
                    </IconStyle>
                </Style>
                <name>Waypoints</name>
                <Placemark id="36">
                    <name>10k</name>
                    <description><![CDATA[
        <h1>Waypoint</h1>
        <table style="width: 100%;" cellpadding=0 cellspacing=0 border=0>
        <tr><td style="padding: 10px; border: solid 1px black;border-bottom: 0;"><strong>Local Time</strong></td><td style="border: solid 1px black;border-left: 0; border-bottom: 0; padding: 10px;">08:24:15</td></tr>
        <tr><td style="padding: 10px; border: solid 1px black;border-bottom: 0;"><strong>Altitude</strong></td><td style="border: solid 1px black;border-left: 0; border-bottom: 0; padding: 10px;">10,015ft (3,052.6m)</td></tr>
        <tr><td style="padding: 10px; border: solid 1px black;"><strong>Coordinates</strong></td><td style="border: solid 1px black; border-left: 0; padding: 10px;">40.63816667, -104.379</td></tr>
        </table>
        ]]></description>
                    <styleUrl>#37</styleUrl>
                    <Point id="35">
                        <coordinates>-104.379,40.6381666667,3052.57</coordinates>
                        <altitudeMode>absolute</altitudeMode>
                    </Point>
                </Placemark>
                <Placemark id="41">
                    <name>10k</name>
                    <description><![CDATA[
        <h1>Waypoint</h1>
        <table style="width: 100%;" cellpadding=0 cellspacing=0 border=0>
        <tr><td style="padding: 10px; border: solid 1px black;border-bottom: 0;"><strong>Local Time</strong></td><td style="border: solid 1px black;border-left: 0; border-bottom: 0; padding: 10px;">08:32:11</td></tr>
        <tr><td style="padding: 10px; border: solid 1px black;border-bottom: 0;"><strong>Altitude</strong></td><td style="border: solid 1px black;border-left: 0; border-bottom: 0; padding: 10px;">10,054ft (3,064.5m)</td></tr>
        <tr><td style="padding: 10px; border: solid 1px black;"><strong>Coordinates</strong></td><td style="border: solid 1px black; border-left: 0; padding: 10px;">40.6201, -104.33738333</td></tr>
        </table>
        ]]></description>
                    <styleUrl>#42</styleUrl>
                    <Point id="40">
                        <coordinates>-104.3373833333,40.6201,3064.46</coordinates>
                        <altitudeMode>absolute</altitudeMode>
                    </Point>
                </Placemark>
            </Folder>
            <Folder id="5">
                <Style id="16">
                    <IconStyle id="17">
                        <color>ff008cff</color>
                        <colorMode>normal</colorMode>
                        <scale>1</scale>
                        <heading>0</heading>
                        <Icon id="18">
                            <href>https://maps.google.com/mapfiles/kml/shapes/placemark_circle.png</href>
                        </Icon>
                    </IconStyle>
                </Style>
                <Style id="21">
                    <IconStyle id="22">
                        <color>ff008cff</color>
                        <colorMode>normal</colorMode>
                        <scale>1</scale>
                        <heading>0</heading>
                        <Icon id="23">
                            <href>https://maps.google.com/mapfiles/kml/shapes/placemark_circle.png</href>
                        </Icon>
                    </IconStyle>
                </Style>
                <Style id="26">
                    <IconStyle id="27">
                        <color>ff00ffff</color>
                        <colorMode>normal</colorMode>
                        <scale>1</scale>
                        <heading>0</heading>
                        <Icon id="28">
                            <href>https://maps.google.com/mapfiles/kml/shapes/placemark_circle.png</href>
                        </Icon>
                    </IconStyle>
                </Style>
                <Style id="31">
                    <IconStyle id="32">
                        <color>ff006400</color>
                        <colorMode>normal</colorMode>
                        <scale>1</scale>
                        <heading>0</heading>
                        <Icon id="33">
                            <href>https://maps.google.com/mapfiles/kml/shapes/placemark_circle.png</href>
                        </Icon>
                    </IconStyle>
                    <LabelStyle id="34">
                        <color>ff006400</color>
                        <colorMode>normal</colorMode>
                        <scale>1</scale>
                    </LabelStyle>
                </Style>
                <name>Points of Interest</name>
                <Placemark id="15">
                    <name>Launch</name>
                    <description><![CDATA[
    <h1>Launch</h1>
    <table style="width: 100%;" cellpadding=0 cellspacing=0 border=0>
    <tr><td style="padding: 10px; border: solid 1px black;border-bottom: 0;"><strong>Local Time</strong></td><td style="border: solid 1px black;border-bottom: 0; border-left: 0; padding: 10px;">08:18:15</td></tr>
    <tr><td style="padding: 10px; border: solid 1px black;border-bottom: 0;"><strong>Altitude</strong></td><td style="border: solid 1px black;border-left: 0; border-bottom: 0; padding: 10px;">4,995ft (1,522.5m)</td></tr>
    <tr><td style="padding: 10px; border: solid 1px black;"><strong>Coordinates</strong></td><td style="border: solid 1px black; border-left: 0; padding: 10px;">40.64883333, -104.38433333</td></tr>
    </table>
    ]]></description>
                    <styleUrl>#16</styleUrl>
                    <Point id="14">
                        <coordinates>-104.3843333333,40.6488333333,1522.48</coordinates>
                        <altitudeMode>absolute</altitudeMode>
                    </Point>
                </Placemark>
                <Placemark id="20">
                    <name>Landing</name>
                    <description><![CDATA[
    <h1>Landing</h1>
    <table style="width: 100%;" cellpadding=0 cellspacing=0 border=0>
    <tr><td style="padding: 10px; border: solid 1px black;border-bottom: 0;"><strong>Local Time</strong></td><td style="border: solid 1px black;border-left: 0; border-bottom: 0; padding: 10px;">08:43:41</td></tr>
    <tr><td style="padding: 10px; border: solid 1px black;border-bottom: 0;"><strong>Altitude</strong></td><td style="border: solid 1px black;border-bottom: 0; border-left: 0; padding: 10px;">4,866ft (1,483.2m)</td></tr>
    <tr><td style="padding: 10px; border: solid 1px black;"><strong>Coordinates</strong></td><td style="border: solid 1px black; border-left: 0; padding: 10px;">40.60651667, -104.32368333</td></tr>
    </table>
    ]]></description>
                    <styleUrl>#21</styleUrl>
                    <Point id="19">
                        <coordinates>-104.3236833333,40.6065166667,1483.16</coordinates>
                        <altitudeMode>absolute</altitudeMode>
                    </Point>
                </Placemark>
                <Placemark id="25">
                    <name>Burst 11,223ft</name>
                    <description><![CDATA[
    <h1>Burst: 11,223ft</h1>
    <table style="width: 100%;" cellpadding=0 cellspacing=0 border=0>
    <tr><td style="padding: 10px; border: solid 1px black;border-bottom: 0;"><strong>Local Time</strong></td><td style="border: solid 1px black;border-left: 0; border-bottom: 0; padding: 10px;">08:28:15</td></tr>
    <tr><td style="padding: 10px; border: solid 1px black;border-bottom: 0;"><strong>Altitude</strong></td><td style="border: solid 1px black;border-left: 0; border-bottom: 0; padding: 10px;">11,223ft (3,420.8m)</td></tr>
    <tr><td style="padding: 10px; border: solid 1px black;"><strong>Coordinates</strong></td><td style="border: solid 1px black; border-left: 0; padding: 10px;">40.62933333, -104.35748333</td></tr>
    </table>
    ]]></description>
                    <styleUrl>#26</styleUrl>
                    <Point id="24">
                        <coordinates>-104.3574833333,40.6293333333,3420.77</coordinates>
                        <altitudeMode>absolute</altitudeMode>
                    </Point>
                </Placemark>
                <Placemark id="30">
                    <name>10k, Turbulent-to-Laminar</name>
                    <description><![CDATA[
        <h1>Airflow Transitioning from Turbulent-to-Laminar</h1>
        <table style="width: 100%;" cellpadding=0 cellspacing=0 border=0>
        <tr><td style="padding: 10px; border: solid 1px black;border-bottom: 0;"><strong>Local Time</strong></td><td style="border: solid 1px black;border-left: 0; border-bottom: 0; padding: 10px;">08:24:15</td></tr>
        <tr><td style="padding: 10px; border: solid 1px black;border-bottom: 0;"><strong>Altitude</strong></td><td style="border: solid 1px black;border-left: 0; border-bottom: 0; padding: 10px;">10,075ft (3,070.9m)</td></tr>
        <tr><td style="padding: 10px; border: solid 1px black;"><strong>Coordinates</strong></td><td style="border: solid 1px black; border-left: 0; padding: 10px;">40.63826667, -104.3791</td></tr>
        </table>
        ]]></description>
                    <styleUrl>#31</styleUrl>
                    <Point id="29">
                        <coordinates>-104.3791,40.6382666667,3070.86</coordinates>
                        <altitudeMode>absolute</altitudeMode>
                    </Point>
                </Placemark>
            </Folder>
        </Document>
    </Document>
</kml>
