<?xml version="1.0" encoding="UTF-8"?>
<kml xmlns="http://www.opengis.net/kml/2.2" xmlns:gx="http://www.google.com/kml/ext/2.2">
    <Document id="1">
        <Document id="2">
            <name>EOSS-338</name>
            <description><![CDATA[
    <h1>EOSS-338</h1>
    <table style="width: 100%;" cellpadding=0 cellspacing=0 border=0>
    <tr><td style="border: solid 1px black;border-bottom: 0; padding: 10px;"><strong>Launch Local Date/Time</strong></td><td style=" padding: 10px;border: solid 1px black;border-bottom: 0; border-left: 0;">2023-04-16 07:03:30</td></tr>
    <tr><td style="border: solid 1px black;border-bottom: 0; padding: 10px;"><strong>Flight Duration</strong></td><td style=" padding: 10px;border: solid 1px black;border-bottom: 0; border-left: 0; ">1hrs 58mins 0secs</td></tr>
    <tr><td style="border: solid 1px black;border-bottom: 0; padding: 10px;"><strong>Down Range Distance</strong></td><td style=" padding: 10px;border: solid 1px black;border-bottom: 0; border-left: 0; ">54.2mi (87.3km)</td></tr>
    <tr><td style="border: solid 1px black; padding: 10px;"><strong>Approx. Burst Altitude</strong></td><td style=" padding: 10px;border: solid 1px black; border-left: 0; ">105,170ft (32,055.8m)</td></tr>
    </table>
    ]]></description>
            <Folder id="3">
                <Style id="8">
                    <LineStyle id="9">
                        <color>ff0000ff</color>
                        <colorMode>normal</colorMode>
                        <width>3</width>
                    </LineStyle>
                </Style>
                <Style id="12">
                    <LineStyle id="13">
                        <color>ffff0000</color>
                        <colorMode>normal</colorMode>
                        <width>3</width>
                    </LineStyle>
                </Style>
                <name>Paths</name>
                <Placemark id="7">
                    <name>EOSS-338 Ascent</name>
                    <styleUrl>#8</styleUrl>
                    <LineString id="6">
                        <extrude>0</extrude>
                        <altitudeMode>absolute</altitudeMode>
                        <coordinates>-104.0425,39.6081666667,1588.62 -104.0426166667,39.6083666667,1591.06 -104.0425,39.6085,1625.8 -104.0432666667,39.6089666667,1762.35 -104.0435,39.609,1814.78 -104.0439666667,39.60925,1936.39 -104.044,39.6093333333,1999.79 -104.04315,39.6096666667,2120.19 -104.043,39.6096666667,2198.22 -104.0413333333,39.6085,2374.39 -104.0398333333,39.6074833333,2489.3 -104.0398333333,39.6073333333,2551.48 -104.0382333333,39.6061333333,2677.36 -104.038,39.606,2735.88 -104.0367333333,39.6047166667,2858.41 -104.0366666667,39.6045,2917.85 -104.0348666667,39.6030333333,3042.51 -104.0346666667,39.6028333333,3100.73 -104.03275,39.6014,3218.38 -104.0326666667,39.6011666667,3277.21 -104.0300833333,39.5989666667,3397.3 -104.0296666667,39.5986666667,3455.82 -104.0268166667,39.5955,3583.53 -104.0265,39.5951666667,3639.92 -104.0233333333,39.5913333333,3766.41 -104.023,39.591,3826.76 -104.0201833333,39.5872333333,3954.48 -104.0198333333,39.587,4012.39 -104.016,39.584,4206.54 -104.0129166667,39.5811666667,4334.56 -104.0126666667,39.581,4391.25 -104.0090333333,39.57865,4521.71 -104.0088333333,39.5783333333,4580.53 -104.0050166667,39.5758666667,4704.59 -104.0045,39.5756666667,4767.07 -104.0007,39.5726833333,4894.48 -104.0003333333,39.5725,4954.52 -103.99615,39.5697166667,5082.54 -103.9956666667,39.5695,5144.11 -103.9914666667,39.5665833333,5277.61 -103.991,39.5663333333,5340.1 -103.98605,39.5639833333,5485.79 -103.9855,39.5636666667,5546.14 -103.9798666667,39.5609166667,5694.58 -103.9791666667,39.5606666667,5759.2 -103.9732833333,39.5577,5925.62 -103.9726666667,39.5573333333,5989.32 -103.9671166667,39.5535333333,6147.82 -103.9665,39.553,6206.95 -103.9607666667,39.5483333333,6361.79 -103.9601666667,39.5478333333,6426.1 -103.9535666667,39.5432166667,6583.68 -103.9526666667,39.5428333333,6647.38 -103.9456833333,39.5384666667,6805.88 -103.945,39.538,6866.84 -103.9377666667,39.53405,7023.81 -103.9368333333,39.5338333333,7085.99 -103.92925,39.5300166667,7242.96 -103.9283333333,39.5296666667,7306.97 -103.9209666667,39.5258833333,7461.81 -103.9201666667,39.5255,7528.56 -103.9129666667,39.5211833333,7677.0 -103.9121666667,39.5208333333,7740.09 -103.9046166667,39.51665,7901.03 -103.9036666667,39.5161666667,7966.25 -103.8959333333,39.51225,8132.98 -103.8951666667,39.5118333333,8197.9 -103.8864666667,39.5077666667,8367.06 -103.8855,39.5071666667,8429.85 -103.8769,39.50315,8595.06 -103.876,39.5026666667,8659.37 -103.8669333333,39.4984333333,8826.09 -103.8656666667,39.4981666667,8925.46 -103.8563,39.4940333333,9060.18 -103.855,39.4936666667,9135.16 -103.84435,39.4896833333,9314.08 -103.8431666667,39.4893333333,9388.75 -103.8322,39.48535,9576.21 -103.8311666667,39.485,9648.14 -103.8213833333,39.4807833333,9824.31 -103.8203333333,39.4803333333,9896.86 -103.81085,39.4764666667,10080.35 -103.8096666667,39.4761666667,10157.46 -103.79985,39.4718166667,10332.42 -103.7986666667,39.4713333333,10399.17 -103.7894833333,39.4669333333,10584.18 -103.7885,39.4665,10656.72 -103.7786666667,39.4621666667,10917.94 -103.76905,39.4582333333,11099.29 -103.7681666667,39.4578333333,11168.79 -103.75855,39.4537,11357.46 -103.7575,39.4533333333,11430.0 -103.7485666667,39.44955,11620.5 -103.7475,39.4491666667,11689.99 -103.7378666667,39.44525,11891.47 -103.7368333333,39.4448333333,11965.23 -103.7266166667,39.4413833333,12147.5 -103.7256666667,39.441,12214.86 -103.71605,39.4370166667,12417.55 -103.7151666667,39.4366666667,12486.44 -103.70585,39.4325333333,12680.59 -103.7048333333,39.4321666667,12747.65 -103.6955833333,39.4282,12929.62 -103.6946666667,39.4278333333,12993.01 -103.6868166667,39.4235333333,13162.79 -103.6858333333,39.4231666667,13231.67 -103.6782166667,39.4188,13411.81 -103.6775,39.4183333333,13482.22 -103.6697166667,39.41395,13681.86 -103.6686666667,39.4135,13747.39 -103.6617666667,39.4093166667,13905.89 -103.6608333333,39.4088333333,13962.28 -103.6544,39.4048833333,14137.84 -103.6536666667,39.4045,14191.18 -103.6461166667,39.4010833333,14374.67 -103.645,39.4008333333,14436.24 -103.63725,39.3970166667,14596.87 -103.6365,39.3966666667,14661.79 -103.63105,39.3934666667,14875.76 -103.6305,39.393,14946.78 -103.6258166667,39.3905833333,15108.94 -103.6255,39.3903333333,15162.58 -103.62155,39.38895,15297.91 -103.621,39.389,15369.84 -103.61605,39.3878,15533.83 -103.6155,39.3876666667,15586.25 -103.6103,39.38635,15795.96 -103.6098333333,39.3863333333,15864.54 -103.60565,39.3844833333,16105.02 -103.6053333333,39.3843333333,16169.03 -103.6013333333,39.3830333333,16363.19 -103.601,39.3828333333,16432.38 -103.5975833333,39.3815666667,16641.17 -103.5971666667,39.3816666667,16696.03 -103.5925,39.3811666667,16816.43 -103.5888166667,39.3801166667,16893.24 -103.5885,39.38,16952.06 -103.5856666667,39.3790666667,17064.23 -103.5855,39.379,17112.69 -103.5832,39.3798833333,17322.09 -103.583,39.38,17391.89 -103.5811666667,39.382,17672.61 -103.57885,39.3843166667,17809.16 -103.5783333333,39.3845,17872.25 -103.5744,39.38615,17993.26 -103.574,39.3863333333,18030.75 -103.5704333333,39.3889333333,18128.28 -103.5701666667,39.3891666667,18176.44 -103.5669333333,39.39165,18268.19 -103.5666666667,39.392,18318.18 -103.5630833333,39.3946666667,18417.24 -103.5628333333,39.395,18464.78 -103.5593333333,39.3973166667,18579.39 -103.559,39.3975,18626.94 -103.5560666667,39.3992833333,18734.23 -103.5558333333,39.3995,18782.69 -103.5528166667,39.4008333333,18898.51 -103.5526666667,39.401,18968.62 -103.55025,39.40315,19173.44 -103.5498333333,39.4033333333,19232.58 -103.54635,39.4047833333,19353.28 -103.546,39.405,19407.84 -103.54315,39.4067833333,19501.41 -103.5428333333,39.407,19555.05 -103.5406,39.4076666667,19686.42 -103.5401666667,39.4078333333,19739.76 -103.5374666667,39.4074,19844.61 -103.5373333333,39.4075,19896.43 -103.5360333333,39.4073666667,20017.44 -103.5361666667,39.4075,20067.73 -103.5363333333,39.4080833333,20227.44 -103.5363333333,39.4081666667,20282.0 -103.53655,39.4086333333,20397.52 -103.5365,39.4088333333,20449.34 -103.5354333333,39.4095833333,20561.5 -103.5353333333,39.4096666667,20614.84 -103.5342666667,39.4103166667,20710.55 -103.5341666667,39.4103333333,20763.89 -103.5333333333,39.4106833333,20853.5 -103.5331666667,39.4108333333,20913.55 -103.5315666667,39.4121,21011.69 -103.5315,39.4121666667,21060.77 -103.5305166667,39.4129666667,21152.51 -103.5305,39.4131666667,21199.45 -103.5287833333,39.4132,21303.69 -103.5285,39.4131666667,21357.03 -103.5271166667,39.4132833333,21449.69 -103.5271666667,39.4133333333,21505.77 -103.52655,39.4142666667,21621.6 -103.5261666667,39.4143333333,21681.95 -103.5245,39.41435,21784.67 -103.5245,39.4145,21834.04 -103.5229833333,39.4144833333,21934.63 -103.5228333333,39.4143333333,21989.8 -103.52115,39.4140833333,22097.7 -103.5208333333,39.414,22150.12 -103.5199333333,39.4132833333,22281.79 -103.52,39.4133333333,22333.92 -103.5198333333,39.4129166667,22454.92 -103.5198333333,39.4128333333,22501.86 -103.5196833333,39.41205,22622.87 -103.5196666667,39.412,22672.85 -103.5209,39.4118666667,22812.76 -103.5211666667,39.412,22861.83 -103.5225166667,39.413,22988.93 -103.5226666667,39.413,23034.96 -103.5237333333,39.4137833333,23156.88 -103.5238333333,39.4138333333,23203.2 -103.52455,39.4151166667,23326.04 -103.5245,39.4153333333,23373.89 -103.5243833333,39.4153833333,23498.86 -103.5245,39.4153333333,23542.75 -103.5250333333,39.4147666667,23660.1 -103.525,39.4146666667,23707.65 -103.5261333333,39.4143333333,23828.04 -103.5261666667,39.4143333333,23879.25 -103.5275,39.4141666667,24040.8 -103.5281666667,39.4151666667,24199.29 -103.52875,39.4154666667,24302.01 -103.5288333333,39.4156666667,24350.78 -103.52905,39.4160666667,24462.03 -103.5291666667,39.4161666667,24508.36 -103.53005,39.4164166667,24620.22 -103.5301666667,39.4165,24664.72 -103.5308166667,39.4166,24773.23 -103.5306666667,39.4166666667,24819.86 -103.5305,39.4173,24935.99 -103.5303333333,39.4173333333,24981.71 -103.5305166667,39.4176833333,25104.24 -103.5305,39.4176666667,25150.57 -103.53125,39.4175166667,25267.31 -103.5313333333,39.4175,25312.42 -103.5315333333,39.41665,25423.06 -103.5315,39.4165,25471.83 -103.532,39.4148333333,25567.23 -103.532,39.4146666667,25619.96 -103.5324166667,39.4127,25716.28 -103.5325,39.4125,25762.92 -103.5320333333,39.4106333333,25859.23 -103.5321666667,39.4105,25911.05 -103.5326166667,39.4081833333,26009.19 -103.5328333333,39.408,26059.79 -103.53395,39.4058166667,26162.2 -103.5341666667,39.4056666667,26213.71 -103.5366166667,39.4044333333,26322.22 -103.537,39.4043333333,26370.69 -103.5408666667,39.4030333333,26474.32 -103.5413333333,39.403,26522.78 -103.5443833333,39.4021833333,26629.46 -103.5446666667,39.4021666667,26682.5 -103.5462,39.4020333333,26785.21 -103.5463333333,39.402,26834.59 -103.5473833333,39.4023166667,26940.36 -103.5475,39.4023333333,26988.52 -103.5488333333,39.4025666667,27090.32 -103.549,39.4025,27136.34 -103.55035,39.4025333333,27237.54 -103.5505,39.4026666667,27288.44 -103.5518,39.4028,27397.56 -103.552,39.4028333333,27448.46 -103.5524666667,39.4034166667,27568.55 -103.5525,39.4035,27619.76 -103.5530833333,39.40375,27735.58 -103.5531666667,39.4038333333,27786.79 -103.5532,39.4044166667,27905.35 -103.5531666667,39.4045,27957.48 -103.55235,39.4050333333,28076.65 -103.5523333333,39.405,28128.47 -103.5525666667,39.4049666667,28238.5 -103.5525,39.405,28288.49 -103.5521833333,39.4053,28388.46 -103.5521666667,39.4053333333,28437.54 -103.5520166667,39.40455,28536.6 -103.5521666667,39.4045,28585.67 -103.55285,39.4037833333,28684.73 -103.5528333333,39.4038333333,28733.8 -103.5531,39.4035333333,28831.64 -103.5531666667,39.4035,28877.06 -103.5537666667,39.4032333333,28977.64 -103.5538333333,39.4031666667,29026.1 -103.5537833333,39.4028833333,29126.69 -103.5538333333,39.403,29176.37 -103.5543166667,39.4027833333,29280.61 -103.5543333333,39.4026666667,29332.43 -103.5536833333,39.4022333333,29442.77 -103.5536666667,39.4021666667,29492.45 -103.5527,39.4013666667,29594.56 -103.5525,39.4011666667,29645.15 -103.5518,39.3996333333,29745.74 -103.5516666667,39.3995,29791.76 -103.5516333333,39.39815,29889.6 -103.5516666667,39.3981666667,29935.93 -103.5517,39.3970833333,30024.63 -103.5516666667,39.397,30072.48 -103.5517666667,39.3965,30164.84 -103.5518333333,39.3965,30214.52 -103.5525833333,39.3961166667,30314.8 -103.5526666667,39.3961666667,30363.57 -103.5524833333,39.396,30457.75 -103.5523333333,39.396,30510.48 -103.5519833333,39.3964333333,30610.76 -103.552,39.3965,30659.22 -103.5510166667,39.39745,30759.81 -103.5508333333,39.3975,30810.1 -103.5488666667,39.3973,30903.98 -103.5486666667,39.3973333333,30951.22 -103.54745,39.3969333333,31041.75 -103.5473333333,39.397,31087.77 -103.5475333333,39.3974833333,31178.91 -103.5475,39.3975,31224.02 -103.5473,39.3983666667,31313.93 -103.5471666667,39.3985,31361.48 -103.5467833333,39.3992666667,31452.92 -103.5466666667,39.3993333333,31500.17 -103.5455666667,39.3999,31587.95 -103.5453333333,39.4,31636.41 -103.5440833333,39.4010333333,31726.94 -103.5438333333,39.4011666667,31774.18 -103.5416833333,39.4020166667,31868.06 -103.5413333333,39.4021666667,31915.3 -103.5385166667,39.4022666667,32007.96 -103.5381666667,39.4023333333,32055.82</coordinates>
                    </LineString>
                </Placemark>
                <Placemark id="11">
                    <name>EOSS-338 Descent</name>
                    <styleUrl>#12</styleUrl>
                    <LineString id="10">
                        <extrude>0</extrude>
                        <altitudeMode>absolute</altitudeMode>
                        <coordinates>-103.5381666667,39.4023333333,32055.82 -103.5359833333,39.40205,31761.99 -103.5356666667,39.4021666667,31554.42 -103.5348333333,39.4021666667,29859.73 -103.5361,39.4008166667,28575.61 -103.5361666667,39.401,28419.25 -103.5366166667,39.40175,27285.39 -103.5366666667,39.4016666667,27134.52 -103.5381833333,39.4017166667,26099.41 -103.5381666667,39.4015,25966.52 -103.5389333333,39.4007833333,25004.27 -103.5388333333,39.4008333333,24885.09 -103.5384333333,39.40075,24007.88 -103.5386666667,39.4008333333,23904.55 -103.5391666667,39.4008333333,22975.82 -103.5400333333,39.4001,22214.74 -103.5398333333,39.3998333333,22121.16 -103.5396,39.3993833333,21408.54 -103.5393333333,39.3996666667,21321.98 -103.53835,39.4003,20648.68 -103.5381666667,39.4003333333,20566.68 -103.5376333333,39.4006,19947.64 -103.5376666667,39.4003333333,19885.76 -103.5354,39.4001166667,19319.44 -103.5348333333,39.4003333333,19250.56 -103.53135,39.40155,18684.24 -103.5311666667,39.4016666667,18629.07 -103.5275666667,39.4032666667,18075.25 -103.5271666667,39.4035,18017.03 -103.5256,39.4062666667,17508.32 -103.5255,39.4065,17460.47 -103.5238,39.4074333333,16975.23 -103.5235,39.4071666667,16922.8 -103.5193333333,39.4069166667,16446.09 -103.5188333333,39.4068333333,16393.97 -103.5151,39.4042666667,15951.1 -103.5143333333,39.404,15911.17 -103.5099833333,39.4026333333,15457.93 -103.5093333333,39.4026666667,15411.91 -103.50535,39.4010833333,14968.73 -103.5048333333,39.4006666667,14933.98 -103.4994666667,39.3979333333,14516.71 -103.4988333333,39.3975,14485.62 -103.4908333333,39.3935833333,14086.64 -103.4898333333,39.393,14046.1 -103.4823166667,39.3891833333,13672.72 -103.4815,39.3886666667,13646.2 -103.4733333333,39.3837333333,13292.63 -103.4725,39.3833333333,13267.03 -103.4632666667,39.3803166667,12938.76 -103.4621666667,39.38,12915.6 -103.4527,39.3765333333,12585.5 -103.4515,39.376,12563.55 -103.44255,39.3717,12245.64 -103.4415,39.3713333333,12224.61 -103.4332333333,39.36695,11925.6 -103.4323333333,39.3665,11908.54 -103.4230166667,39.36425,11603.43 -103.422,39.3641666667,11590.02 -103.4140166667,39.3599666667,11298.33 -103.4131666667,39.3595,11283.39 -103.4045,39.3547,10991.39 -103.4035,39.3541666667,10978.29 -103.3936833333,39.3497666667,10683.24 -103.3925,39.3493333333,10669.83 -103.3838166667,39.3452833333,10379.35 -103.3826666667,39.3448333333,10362.59 -103.3726,39.3409833333,10066.32 -103.3713333333,39.3406666667,10053.52 -103.36085,39.3366833333,9771.28 -103.36,39.3361666667,9760.92 -103.3499166667,39.3317166667,9492.08 -103.349,39.3313333333,9480.19 -103.3391833333,39.3268666667,9212.28 -103.338,39.3263333333,9201.61 -103.3274,39.3220333333,8946.18 -103.3263333333,39.3215,8941.0 -103.31655,39.3179833333,8691.07 -103.3153333333,39.3175,8683.75 -103.3058333333,39.31275,8435.95 -103.3048333333,39.3125,8428.02 -103.2957,39.3082333333,8172.91 -103.295,39.3078333333,8161.63 -103.2869666667,39.3037166667,7901.03 -103.2863333333,39.3033333333,7896.45 -103.2786333333,39.2993,7656.88 -103.2778333333,39.2988333333,7652.31 -103.2710333333,39.2954,7414.87 -103.27,39.2951666667,7410.6 -103.2625,39.2910833333,7175.91 -103.2615,39.2908333333,7170.72 -103.2532,39.28665,6932.98 -103.2525,39.2863333333,6928.1 -103.2451,39.2828666667,6695.85 -103.2445,39.2823333333,6692.19 -103.2389333333,39.27885,6461.76 -103.2381666667,39.2785,6459.93 -103.2330166667,39.2740833333,6231.64 -103.2325,39.2738333333,6228.28 -103.2284833333,39.2703166667,6005.78 -103.228,39.27,6006.08 -103.2240166667,39.2670333333,5785.71 -103.2236666667,39.2666666667,5783.58 -103.2192,39.2639166667,5565.65 -103.2188333333,39.2635,5563.82 -103.2147,39.2608333333,5347.72 -103.2143333333,39.2605,5344.67 -103.2108666667,39.2581833333,5125.52 -103.2103333333,39.2578333333,5123.69 -103.2070166667,39.2545333333,4909.72 -103.2065,39.2541666667,4908.19 -103.2031,39.2510666667,4698.49 -103.2026666667,39.251,4696.05 -103.1985166667,39.2486166667,4484.52 -103.198,39.2483333333,4483.91 -103.19505,39.2460166667,4281.53 -103.1945,39.2458333333,4281.22 -103.19155,39.24345,4077.61 -103.191,39.2431666667,4077.61 -103.1879666667,39.2404166667,3875.53 -103.1875,39.2401666667,3879.8 -103.1837,39.2361666667,3678.33 -103.1835,39.2358333333,3678.63 -103.1806666667,39.2318333333,3478.99 -103.1779166667,39.22905,3279.34 -103.1776666667,39.2288333333,3277.21 -103.1755666667,39.2255,3079.39 -103.1751666667,39.2251666667,3079.09 -103.1722833333,39.22185,2874.26 -103.172,39.2215,2873.04 -103.1702166667,39.2189,2674.32 -103.17,39.2188333333,2677.36 -103.1678666667,39.2167666667,2493.26 -103.1676666667,39.2165,2496.62 -103.1662166667,39.2154833333,2319.22 -103.1661666667,39.2153333333,2326.84 -103.16395,39.21555,1960.17 -103.1636666667,39.2156666667,1963.83 -103.1621,39.2156,1747.11 -103.1618333333,39.2156666667,1749.55</coordinates>
                    </LineString>
                </Placemark>
            </Folder>
            <Folder id="4">
                <Style id="43">
                    <IconStyle id="44">
                        <color>ff0000ff</color>
                        <colorMode>normal</colorMode>
                        <scale>1</scale>
                        <heading>0</heading>
                        <Icon id="45">
                            <href>https://maps.google.com/mapfiles/kml/shapes/placemark_circle.png</href>
                        </Icon>
                    </IconStyle>
                </Style>
                <Style id="48">
                    <IconStyle id="49">
                        <color>ff0000ff</color>
                        <colorMode>normal</colorMode>
                        <scale>1</scale>
                        <heading>0</heading>
                        <Icon id="50">
                            <href>https://maps.google.com/mapfiles/kml/shapes/placemark_circle.png</href>
                        </Icon>
                    </IconStyle>
                </Style>
                <Style id="53">
                    <IconStyle id="54">
                        <color>ff0000ff</color>
                        <colorMode>normal</colorMode>
                        <scale>1</scale>
                        <heading>0</heading>
                        <Icon id="55">
                            <href>https://maps.google.com/mapfiles/kml/shapes/placemark_circle.png</href>
                        </Icon>
                    </IconStyle>
                </Style>
                <Style id="58">
                    <IconStyle id="59">
                        <color>ff0000ff</color>
                        <colorMode>normal</colorMode>
                        <scale>1</scale>
                        <heading>0</heading>
                        <Icon id="60">
                            <href>https://maps.google.com/mapfiles/kml/shapes/placemark_circle.png</href>
                        </Icon>
                    </IconStyle>
                </Style>
                <Style id="63">
                    <IconStyle id="64">
                        <color>ff0000ff</color>
                        <colorMode>normal</colorMode>
                        <scale>1</scale>
                        <heading>0</heading>
                        <Icon id="65">
                            <href>https://maps.google.com/mapfiles/kml/shapes/placemark_circle.png</href>
                        </Icon>
                    </IconStyle>
                </Style>
                <Style id="68">
                    <IconStyle id="69">
                        <color>ff0000ff</color>
                        <colorMode>normal</colorMode>
                        <scale>1</scale>
                        <heading>0</heading>
                        <Icon id="70">
                            <href>https://maps.google.com/mapfiles/kml/shapes/placemark_circle.png</href>
                        </Icon>
                    </IconStyle>
                </Style>
                <Style id="73">
                    <IconStyle id="74">
                        <color>ff0000ff</color>
                        <colorMode>normal</colorMode>
                        <scale>1</scale>
                        <heading>0</heading>
                        <Icon id="75">
                            <href>https://maps.google.com/mapfiles/kml/shapes/placemark_circle.png</href>
                        </Icon>
                    </IconStyle>
                </Style>
                <Style id="78">
                    <IconStyle id="79">
                        <color>ff0000ff</color>
                        <colorMode>normal</colorMode>
                        <scale>1</scale>
                        <heading>0</heading>
                        <Icon id="80">
                            <href>https://maps.google.com/mapfiles/kml/shapes/placemark_circle.png</href>
                        </Icon>
                    </IconStyle>
                </Style>
                <Style id="83">
                    <IconStyle id="84">
                        <color>ff0000ff</color>
                        <colorMode>normal</colorMode>
                        <scale>1</scale>
                        <heading>0</heading>
                        <Icon id="85">
                            <href>https://maps.google.com/mapfiles/kml/shapes/placemark_circle.png</href>
                        </Icon>
                    </IconStyle>
                </Style>
                <Style id="88">
                    <IconStyle id="89">
                        <color>ff0000ff</color>
                        <colorMode>normal</colorMode>
                        <scale>1</scale>
                        <heading>0</heading>
                        <Icon id="90">
                            <href>https://maps.google.com/mapfiles/kml/shapes/placemark_circle.png</href>
                        </Icon>
                    </IconStyle>
                </Style>
                <Style id="93">
                    <IconStyle id="94">
                        <color>ffff0000</color>
                        <colorMode>normal</colorMode>
                        <scale>1</scale>
                        <heading>0</heading>
                        <Icon id="95">
                            <href>https://maps.google.com/mapfiles/kml/shapes/placemark_circle.png</href>
                        </Icon>
                    </IconStyle>
                </Style>
                <Style id="98">
                    <IconStyle id="99">
                        <color>ffff0000</color>
                        <colorMode>normal</colorMode>
                        <scale>1</scale>
                        <heading>0</heading>
                        <Icon id="100">
                            <href>https://maps.google.com/mapfiles/kml/shapes/placemark_circle.png</href>
                        </Icon>
                    </IconStyle>
                </Style>
                <Style id="103">
                    <IconStyle id="104">
                        <color>ffff0000</color>
                        <colorMode>normal</colorMode>
                        <scale>1</scale>
                        <heading>0</heading>
                        <Icon id="105">
                            <href>https://maps.google.com/mapfiles/kml/shapes/placemark_circle.png</href>
                        </Icon>
                    </IconStyle>
                </Style>
                <Style id="108">
                    <IconStyle id="109">
                        <color>ffff0000</color>
                        <colorMode>normal</colorMode>
                        <scale>1</scale>
                        <heading>0</heading>
                        <Icon id="110">
                            <href>https://maps.google.com/mapfiles/kml/shapes/placemark_circle.png</href>
                        </Icon>
                    </IconStyle>
                </Style>
                <Style id="113">
                    <IconStyle id="114">
                        <color>ffff0000</color>
                        <colorMode>normal</colorMode>
                        <scale>1</scale>
                        <heading>0</heading>
                        <Icon id="115">
                            <href>https://maps.google.com/mapfiles/kml/shapes/placemark_circle.png</href>
                        </Icon>
                    </IconStyle>
                </Style>
                <Style id="118">
                    <IconStyle id="119">
                        <color>ffff0000</color>
                        <colorMode>normal</colorMode>
                        <scale>1</scale>
                        <heading>0</heading>
                        <Icon id="120">
                            <href>https://maps.google.com/mapfiles/kml/shapes/placemark_circle.png</href>
                        </Icon>
                    </IconStyle>
                </Style>
                <Style id="123">
                    <IconStyle id="124">
                        <color>ffff0000</color>
                        <colorMode>normal</colorMode>
                        <scale>1</scale>
                        <heading>0</heading>
                        <Icon id="125">
                            <href>https://maps.google.com/mapfiles/kml/shapes/placemark_circle.png</href>
                        </Icon>
                    </IconStyle>
                </Style>
                <Style id="128">
                    <IconStyle id="129">
                        <color>ffff0000</color>
                        <colorMode>normal</colorMode>
                        <scale>1</scale>
                        <heading>0</heading>
                        <Icon id="130">
                            <href>https://maps.google.com/mapfiles/kml/shapes/placemark_circle.png</href>
                        </Icon>
                    </IconStyle>
                </Style>
                <Style id="133">
                    <IconStyle id="134">
                        <color>ffff0000</color>
                        <colorMode>normal</colorMode>
                        <scale>1</scale>
                        <heading>0</heading>
                        <Icon id="135">
                            <href>https://maps.google.com/mapfiles/kml/shapes/placemark_circle.png</href>
                        </Icon>
                    </IconStyle>
                </Style>
                <Style id="138">
                    <IconStyle id="139">
                        <color>ffff0000</color>
                        <colorMode>normal</colorMode>
                        <scale>1</scale>
                        <heading>0</heading>
                        <Icon id="140">
                            <href>https://maps.google.com/mapfiles/kml/shapes/placemark_circle.png</href>
                        </Icon>
                    </IconStyle>
                </Style>
                <name>Waypoints</name>
                <Placemark id="42">
                    <name>10k</name>
                    <description><![CDATA[
        <h1>Waypoint</h1>
        <table style="width: 100%;" cellpadding=0 cellspacing=0 border=0>
        <tr><td style="padding: 10px; border: solid 1px black;border-bottom: 0;"><strong>Local Time</strong></td><td style="border: solid 1px black;border-left: 0; border-bottom: 0; padding: 10px;">07:07:57</td></tr>
        <tr><td style="padding: 10px; border: solid 1px black;border-bottom: 0;"><strong>Altitude</strong></td><td style="border: solid 1px black;border-left: 0; border-bottom: 0; padding: 10px;">9,982ft (3,042.5m)</td></tr>
        <tr><td style="padding: 10px; border: solid 1px black;"><strong>Coordinates</strong></td><td style="border: solid 1px black; border-left: 0; padding: 10px;">39.60303333, -104.03486667</td></tr>
        </table>
        ]]></description>
                    <styleUrl>#43</styleUrl>
                    <Point id="41">
                        <coordinates>-104.0348666667,39.6030333333,3042.51</coordinates>
                        <altitudeMode>absolute</altitudeMode>
                    </Point>
                </Placemark>
                <Placemark id="47">
                    <name>20k</name>
                    <description><![CDATA[
        <h1>Waypoint</h1>
        <table style="width: 100%;" cellpadding=0 cellspacing=0 border=0>
        <tr><td style="padding: 10px; border: solid 1px black;border-bottom: 0;"><strong>Local Time</strong></td><td style="border: solid 1px black;border-left: 0; border-bottom: 0; padding: 10px;">07:15:57</td></tr>
        <tr><td style="padding: 10px; border: solid 1px black;border-bottom: 0;"><strong>Altitude</strong></td><td style="border: solid 1px black;border-left: 0; border-bottom: 0; padding: 10px;">20,170ft (6,147.8m)</td></tr>
        <tr><td style="padding: 10px; border: solid 1px black;"><strong>Coordinates</strong></td><td style="border: solid 1px black; border-left: 0; padding: 10px;">39.55353333, -103.96711667</td></tr>
        </table>
        ]]></description>
                    <styleUrl>#48</styleUrl>
                    <Point id="46">
                        <coordinates>-103.9671166667,39.5535333333,6147.82</coordinates>
                        <altitudeMode>absolute</altitudeMode>
                    </Point>
                </Placemark>
                <Placemark id="52">
                    <name>30k</name>
                    <description><![CDATA[
        <h1>Waypoint</h1>
        <table style="width: 100%;" cellpadding=0 cellspacing=0 border=0>
        <tr><td style="padding: 10px; border: solid 1px black;border-bottom: 0;"><strong>Local Time</strong></td><td style="border: solid 1px black;border-left: 0; border-bottom: 0; padding: 10px;">07:22:30</td></tr>
        <tr><td style="padding: 10px; border: solid 1px black;border-bottom: 0;"><strong>Altitude</strong></td><td style="border: solid 1px black;border-left: 0; border-bottom: 0; padding: 10px;">29,971ft (9,135.2m)</td></tr>
        <tr><td style="padding: 10px; border: solid 1px black;"><strong>Coordinates</strong></td><td style="border: solid 1px black; border-left: 0; padding: 10px;">39.49366667, -103.855</td></tr>
        </table>
        ]]></description>
                    <styleUrl>#53</styleUrl>
                    <Point id="51">
                        <coordinates>-103.855,39.4936666667,9135.16</coordinates>
                        <altitudeMode>absolute</altitudeMode>
                    </Point>
                </Placemark>
                <Placemark id="57">
                    <name>40k</name>
                    <description><![CDATA[
        <h1>Waypoint</h1>
        <table style="width: 100%;" cellpadding=0 cellspacing=0 border=0>
        <tr><td style="padding: 10px; border: solid 1px black;border-bottom: 0;"><strong>Local Time</strong></td><td style="border: solid 1px black;border-left: 0; border-bottom: 0; padding: 10px;">07:28:30</td></tr>
        <tr><td style="padding: 10px; border: solid 1px black;border-bottom: 0;"><strong>Altitude</strong></td><td style="border: solid 1px black;border-left: 0; border-bottom: 0; padding: 10px;">40,075ft (12,214.9m)</td></tr>
        <tr><td style="padding: 10px; border: solid 1px black;"><strong>Coordinates</strong></td><td style="border: solid 1px black; border-left: 0; padding: 10px;">39.441, -103.72566667</td></tr>
        </table>
        ]]></description>
                    <styleUrl>#58</styleUrl>
                    <Point id="56">
                        <coordinates>-103.7256666667,39.441,12214.86</coordinates>
                        <altitudeMode>absolute</altitudeMode>
                    </Point>
                </Placemark>
                <Placemark id="62">
                    <name>50k</name>
                    <description><![CDATA[
        <h1>Waypoint</h1>
        <table style="width: 100%;" cellpadding=0 cellspacing=0 border=0>
        <tr><td style="padding: 10px; border: solid 1px black;border-bottom: 0;"><strong>Local Time</strong></td><td style="border: solid 1px black;border-left: 0; border-bottom: 0; padding: 10px;">07:34:57</td></tr>
        <tr><td style="padding: 10px; border: solid 1px black;border-bottom: 0;"><strong>Altitude</strong></td><td style="border: solid 1px black;border-left: 0; border-bottom: 0; padding: 10px;">50,190ft (15,297.9m)</td></tr>
        <tr><td style="padding: 10px; border: solid 1px black;"><strong>Coordinates</strong></td><td style="border: solid 1px black; border-left: 0; padding: 10px;">39.38895, -103.62155</td></tr>
        </table>
        ]]></description>
                    <styleUrl>#63</styleUrl>
                    <Point id="61">
                        <coordinates>-103.62155,39.38895,15297.91</coordinates>
                        <altitudeMode>absolute</altitudeMode>
                    </Point>
                </Placemark>
                <Placemark id="67">
                    <name>60k</name>
                    <description><![CDATA[
        <h1>Waypoint</h1>
        <table style="width: 100%;" cellpadding=0 cellspacing=0 border=0>
        <tr><td style="padding: 10px; border: solid 1px black;border-bottom: 0;"><strong>Local Time</strong></td><td style="border: solid 1px black;border-left: 0; border-bottom: 0; padding: 10px;">07:41:57</td></tr>
        <tr><td style="padding: 10px; border: solid 1px black;border-bottom: 0;"><strong>Altitude</strong></td><td style="border: solid 1px black;border-left: 0; border-bottom: 0; padding: 10px;">59,935ft (18,268.2m)</td></tr>
        <tr><td style="padding: 10px; border: solid 1px black;"><strong>Coordinates</strong></td><td style="border: solid 1px black; border-left: 0; padding: 10px;">39.39165, -103.56693333</td></tr>
        </table>
        ]]></description>
                    <styleUrl>#68</styleUrl>
                    <Point id="66">
                        <coordinates>-103.5669333333,39.39165,18268.19</coordinates>
                        <altitudeMode>absolute</altitudeMode>
                    </Point>
                </Placemark>
                <Placemark id="72">
                    <name>70k</name>
                    <description><![CDATA[
        <h1>Waypoint</h1>
        <table style="width: 100%;" cellpadding=0 cellspacing=0 border=0>
        <tr><td style="padding: 10px; border: solid 1px black;border-bottom: 0;"><strong>Local Time</strong></td><td style="border: solid 1px black;border-left: 0; border-bottom: 0; padding: 10px;">07:51:00</td></tr>
        <tr><td style="padding: 10px; border: solid 1px black;border-bottom: 0;"><strong>Altitude</strong></td><td style="border: solid 1px black;border-left: 0; border-bottom: 0; padding: 10px;">70,069ft (21,357.0m)</td></tr>
        <tr><td style="padding: 10px; border: solid 1px black;"><strong>Coordinates</strong></td><td style="border: solid 1px black; border-left: 0; padding: 10px;">39.41316667, -103.5285</td></tr>
        </table>
        ]]></description>
                    <styleUrl>#73</styleUrl>
                    <Point id="71">
                        <coordinates>-103.5285,39.4131666667,21357.03</coordinates>
                        <altitudeMode>absolute</altitudeMode>
                    </Point>
                </Placemark>
                <Placemark id="77">
                    <name>80k</name>
                    <description><![CDATA[
        <h1>Waypoint</h1>
        <table style="width: 100%;" cellpadding=0 cellspacing=0 border=0>
        <tr><td style="padding: 10px; border: solid 1px black;border-bottom: 0;"><strong>Local Time</strong></td><td style="border: solid 1px black;border-left: 0; border-bottom: 0; padding: 10px;">08:00:00</td></tr>
        <tr><td style="padding: 10px; border: solid 1px black;border-bottom: 0;"><strong>Altitude</strong></td><td style="border: solid 1px black;border-left: 0; border-bottom: 0; padding: 10px;">79,891ft (24,350.8m)</td></tr>
        <tr><td style="padding: 10px; border: solid 1px black;"><strong>Coordinates</strong></td><td style="border: solid 1px black; border-left: 0; padding: 10px;">39.41566667, -103.52883333</td></tr>
        </table>
        ]]></description>
                    <styleUrl>#78</styleUrl>
                    <Point id="76">
                        <coordinates>-103.5288333333,39.4156666667,24350.78</coordinates>
                        <altitudeMode>absolute</altitudeMode>
                    </Point>
                </Placemark>
                <Placemark id="82">
                    <name>90k</name>
                    <description><![CDATA[
        <h1>Waypoint</h1>
        <table style="width: 100%;" cellpadding=0 cellspacing=0 border=0>
        <tr><td style="padding: 10px; border: solid 1px black;border-bottom: 0;"><strong>Local Time</strong></td><td style="border: solid 1px black;border-left: 0; border-bottom: 0; padding: 10px;">08:10:00</td></tr>
        <tr><td style="padding: 10px; border: solid 1px black;border-bottom: 0;"><strong>Altitude</strong></td><td style="border: solid 1px black;border-left: 0; border-bottom: 0; padding: 10px;">90,054ft (27,448.5m)</td></tr>
        <tr><td style="padding: 10px; border: solid 1px black;"><strong>Coordinates</strong></td><td style="border: solid 1px black; border-left: 0; padding: 10px;">39.40283333, -103.552</td></tr>
        </table>
        ]]></description>
                    <styleUrl>#83</styleUrl>
                    <Point id="81">
                        <coordinates>-103.552,39.4028333333,27448.46</coordinates>
                        <altitudeMode>absolute</altitudeMode>
                    </Point>
                </Placemark>
                <Placemark id="87">
                    <name>100k</name>
                    <description><![CDATA[
        <h1>Waypoint</h1>
        <table style="width: 100%;" cellpadding=0 cellspacing=0 border=0>
        <tr><td style="padding: 10px; border: solid 1px black;border-bottom: 0;"><strong>Local Time</strong></td><td style="border: solid 1px black;border-left: 0; border-bottom: 0; padding: 10px;">08:19:57</td></tr>
        <tr><td style="padding: 10px; border: solid 1px black;border-bottom: 0;"><strong>Altitude</strong></td><td style="border: solid 1px black;border-left: 0; border-bottom: 0; padding: 10px;">99,927ft (30,457.8m)</td></tr>
        <tr><td style="padding: 10px; border: solid 1px black;"><strong>Coordinates</strong></td><td style="border: solid 1px black; border-left: 0; padding: 10px;">39.396, -103.55248333</td></tr>
        </table>
        ]]></description>
                    <styleUrl>#88</styleUrl>
                    <Point id="86">
                        <coordinates>-103.5524833333,39.396,30457.75</coordinates>
                        <altitudeMode>absolute</altitudeMode>
                    </Point>
                </Placemark>
                <Placemark id="92">
                    <name>10k</name>
                    <description><![CDATA[
        <h1>Waypoint</h1>
        <table style="width: 100%;" cellpadding=0 cellspacing=0 border=0>
        <tr><td style="padding: 10px; border: solid 1px black;border-bottom: 0;"><strong>Local Time</strong></td><td style="border: solid 1px black;border-left: 0; border-bottom: 0; padding: 10px;">08:58:00</td></tr>
        <tr><td style="padding: 10px; border: solid 1px black;border-bottom: 0;"><strong>Altitude</strong></td><td style="border: solid 1px black;border-left: 0; border-bottom: 0; padding: 10px;">10,102ft (3,079.1m)</td></tr>
        <tr><td style="padding: 10px; border: solid 1px black;"><strong>Coordinates</strong></td><td style="border: solid 1px black; border-left: 0; padding: 10px;">39.22516667, -103.17516667</td></tr>
        </table>
        ]]></description>
                    <styleUrl>#93</styleUrl>
                    <Point id="91">
                        <coordinates>-103.1751666667,39.2251666667,3079.09</coordinates>
                        <altitudeMode>absolute</altitudeMode>
                    </Point>
                </Placemark>
                <Placemark id="97">
                    <name>20k</name>
                    <description><![CDATA[
        <h1>Waypoint</h1>
        <table style="width: 100%;" cellpadding=0 cellspacing=0 border=0>
        <tr><td style="padding: 10px; border: solid 1px black;border-bottom: 0;"><strong>Local Time</strong></td><td style="border: solid 1px black;border-left: 0; border-bottom: 0; padding: 10px;">08:51:00</td></tr>
        <tr><td style="padding: 10px; border: solid 1px black;border-bottom: 0;"><strong>Altitude</strong></td><td style="border: solid 1px black;border-left: 0; border-bottom: 0; padding: 10px;">19,705ft (6,006.1m)</td></tr>
        <tr><td style="padding: 10px; border: solid 1px black;"><strong>Coordinates</strong></td><td style="border: solid 1px black; border-left: 0; padding: 10px;">39.27, -103.228</td></tr>
        </table>
        ]]></description>
                    <styleUrl>#98</styleUrl>
                    <Point id="96">
                        <coordinates>-103.228,39.27,6006.08</coordinates>
                        <altitudeMode>absolute</altitudeMode>
                    </Point>
                </Placemark>
                <Placemark id="102">
                    <name>30k</name>
                    <description><![CDATA[
        <h1>Waypoint</h1>
        <table style="width: 100%;" cellpadding=0 cellspacing=0 border=0>
        <tr><td style="padding: 10px; border: solid 1px black;border-bottom: 0;"><strong>Local Time</strong></td><td style="border: solid 1px black;border-left: 0; border-bottom: 0; padding: 10px;">08:44:30</td></tr>
        <tr><td style="padding: 10px; border: solid 1px black;border-bottom: 0;"><strong>Altitude</strong></td><td style="border: solid 1px black;border-left: 0; border-bottom: 0; padding: 10px;">30,189ft (9,201.6m)</td></tr>
        <tr><td style="padding: 10px; border: solid 1px black;"><strong>Coordinates</strong></td><td style="border: solid 1px black; border-left: 0; padding: 10px;">39.32633333, -103.338</td></tr>
        </table>
        ]]></description>
                    <styleUrl>#103</styleUrl>
                    <Point id="101">
                        <coordinates>-103.338,39.3263333333,9201.61</coordinates>
                        <altitudeMode>absolute</altitudeMode>
                    </Point>
                </Placemark>
                <Placemark id="107">
                    <name>40k</name>
                    <description><![CDATA[
        <h1>Waypoint</h1>
        <table style="width: 100%;" cellpadding=0 cellspacing=0 border=0>
        <tr><td style="padding: 10px; border: solid 1px black;border-bottom: 0;"><strong>Local Time</strong></td><td style="border: solid 1px black;border-left: 0; border-bottom: 0; padding: 10px;">08:39:30</td></tr>
        <tr><td style="padding: 10px; border: solid 1px black;border-bottom: 0;"><strong>Altitude</strong></td><td style="border: solid 1px black;border-left: 0; border-bottom: 0; padding: 10px;">40,107ft (12,224.6m)</td></tr>
        <tr><td style="padding: 10px; border: solid 1px black;"><strong>Coordinates</strong></td><td style="border: solid 1px black; border-left: 0; padding: 10px;">39.37133333, -103.4415</td></tr>
        </table>
        ]]></description>
                    <styleUrl>#108</styleUrl>
                    <Point id="106">
                        <coordinates>-103.4415,39.3713333333,12224.61</coordinates>
                        <altitudeMode>absolute</altitudeMode>
                    </Point>
                </Placemark>
                <Placemark id="112">
                    <name>51k</name>
                    <description><![CDATA[
        <h1>Waypoint</h1>
        <table style="width: 100%;" cellpadding=0 cellspacing=0 border=0>
        <tr><td style="padding: 10px; border: solid 1px black;border-bottom: 0;"><strong>Local Time</strong></td><td style="border: solid 1px black;border-left: 0; border-bottom: 0; padding: 10px;">08:35:30</td></tr>
        <tr><td style="padding: 10px; border: solid 1px black;border-bottom: 0;"><strong>Altitude</strong></td><td style="border: solid 1px black;border-left: 0; border-bottom: 0; padding: 10px;">50,564ft (15,411.9m)</td></tr>
        <tr><td style="padding: 10px; border: solid 1px black;"><strong>Coordinates</strong></td><td style="border: solid 1px black; border-left: 0; padding: 10px;">39.40266667, -103.50933333</td></tr>
        </table>
        ]]></description>
                    <styleUrl>#113</styleUrl>
                    <Point id="111">
                        <coordinates>-103.5093333333,39.4026666667,15411.91</coordinates>
                        <altitudeMode>absolute</altitudeMode>
                    </Point>
                </Placemark>
                <Placemark id="117">
                    <name>59k</name>
                    <description><![CDATA[
        <h1>Waypoint</h1>
        <table style="width: 100%;" cellpadding=0 cellspacing=0 border=0>
        <tr><td style="padding: 10px; border: solid 1px black;border-bottom: 0;"><strong>Local Time</strong></td><td style="border: solid 1px black;border-left: 0; border-bottom: 0; padding: 10px;">08:32:57</td></tr>
        <tr><td style="padding: 10px; border: solid 1px black;border-bottom: 0;"><strong>Altitude</strong></td><td style="border: solid 1px black;border-left: 0; border-bottom: 0; padding: 10px;">59,302ft (18,075.2m)</td></tr>
        <tr><td style="padding: 10px; border: solid 1px black;"><strong>Coordinates</strong></td><td style="border: solid 1px black; border-left: 0; padding: 10px;">39.40326667, -103.52756667</td></tr>
        </table>
        ]]></description>
                    <styleUrl>#118</styleUrl>
                    <Point id="116">
                        <coordinates>-103.5275666667,39.4032666667,18075.25</coordinates>
                        <altitudeMode>absolute</altitudeMode>
                    </Point>
                </Placemark>
                <Placemark id="122">
                    <name>70k</name>
                    <description><![CDATA[
        <h1>Waypoint</h1>
        <table style="width: 100%;" cellpadding=0 cellspacing=0 border=0>
        <tr><td style="padding: 10px; border: solid 1px black;border-bottom: 0;"><strong>Local Time</strong></td><td style="border: solid 1px black;border-left: 0; border-bottom: 0; padding: 10px;">08:30:30</td></tr>
        <tr><td style="padding: 10px; border: solid 1px black;border-bottom: 0;"><strong>Altitude</strong></td><td style="border: solid 1px black;border-left: 0; border-bottom: 0; padding: 10px;">69,954ft (21,322.0m)</td></tr>
        <tr><td style="padding: 10px; border: solid 1px black;"><strong>Coordinates</strong></td><td style="border: solid 1px black; border-left: 0; padding: 10px;">39.39966667, -103.53933333</td></tr>
        </table>
        ]]></description>
                    <styleUrl>#123</styleUrl>
                    <Point id="121">
                        <coordinates>-103.5393333333,39.3996666667,21321.98</coordinates>
                        <altitudeMode>absolute</altitudeMode>
                    </Point>
                </Placemark>
                <Placemark id="127">
                    <name>79k</name>
                    <description><![CDATA[
        <h1>Waypoint</h1>
        <table style="width: 100%;" cellpadding=0 cellspacing=0 border=0>
        <tr><td style="padding: 10px; border: solid 1px black;border-bottom: 0;"><strong>Local Time</strong></td><td style="border: solid 1px black;border-left: 0; border-bottom: 0; padding: 10px;">08:28:57</td></tr>
        <tr><td style="padding: 10px; border: solid 1px black;border-bottom: 0;"><strong>Altitude</strong></td><td style="border: solid 1px black;border-left: 0; border-bottom: 0; padding: 10px;">78,766ft (24,007.9m)</td></tr>
        <tr><td style="padding: 10px; border: solid 1px black;"><strong>Coordinates</strong></td><td style="border: solid 1px black; border-left: 0; padding: 10px;">39.40075, -103.53843333</td></tr>
        </table>
        ]]></description>
                    <styleUrl>#128</styleUrl>
                    <Point id="126">
                        <coordinates>-103.5384333333,39.40075,24007.88</coordinates>
                        <altitudeMode>absolute</altitudeMode>
                    </Point>
                </Placemark>
                <Placemark id="132">
                    <name>90k</name>
                    <description><![CDATA[
        <h1>Waypoint</h1>
        <table style="width: 100%;" cellpadding=0 cellspacing=0 border=0>
        <tr><td style="padding: 10px; border: solid 1px black;border-bottom: 0;"><strong>Local Time</strong></td><td style="border: solid 1px black;border-left: 0; border-bottom: 0; padding: 10px;">08:27:27</td></tr>
        <tr><td style="padding: 10px; border: solid 1px black;border-bottom: 0;"><strong>Altitude</strong></td><td style="border: solid 1px black;border-left: 0; border-bottom: 0; padding: 10px;">89,519ft (27,285.4m)</td></tr>
        <tr><td style="padding: 10px; border: solid 1px black;"><strong>Coordinates</strong></td><td style="border: solid 1px black; border-left: 0; padding: 10px;">39.40175, -103.53661667</td></tr>
        </table>
        ]]></description>
                    <styleUrl>#133</styleUrl>
                    <Point id="131">
                        <coordinates>-103.5366166667,39.40175,27285.39</coordinates>
                        <altitudeMode>absolute</altitudeMode>
                    </Point>
                </Placemark>
                <Placemark id="137">
                    <name>98k</name>
                    <description><![CDATA[
        <h1>Waypoint</h1>
        <table style="width: 100%;" cellpadding=0 cellspacing=0 border=0>
        <tr><td style="padding: 10px; border: solid 1px black;border-bottom: 0;"><strong>Local Time</strong></td><td style="border: solid 1px black;border-left: 0; border-bottom: 0; padding: 10px;">08:26:30</td></tr>
        <tr><td style="padding: 10px; border: solid 1px black;border-bottom: 0;"><strong>Altitude</strong></td><td style="border: solid 1px black;border-left: 0; border-bottom: 0; padding: 10px;">97,965ft (29,859.7m)</td></tr>
        <tr><td style="padding: 10px; border: solid 1px black;"><strong>Coordinates</strong></td><td style="border: solid 1px black; border-left: 0; padding: 10px;">39.40216667, -103.53483333</td></tr>
        </table>
        ]]></description>
                    <styleUrl>#138</styleUrl>
                    <Point id="136">
                        <coordinates>-103.5348333333,39.4021666667,29859.73</coordinates>
                        <altitudeMode>absolute</altitudeMode>
                    </Point>
                </Placemark>
            </Folder>
            <Folder id="5">
                <Style id="16">
                    <IconStyle id="17">
                        <color>ff008cff</color>
                        <colorMode>normal</colorMode>
                        <scale>1</scale>
                        <heading>0</heading>
                        <Icon id="18">
                            <href>https://maps.google.com/mapfiles/kml/shapes/placemark_circle.png</href>
                        </Icon>
                    </IconStyle>
                </Style>
                <Style id="21">
                    <IconStyle id="22">
                        <color>ff008cff</color>
                        <colorMode>normal</colorMode>
                        <scale>1</scale>
                        <heading>0</heading>
                        <Icon id="23">
                            <href>https://maps.google.com/mapfiles/kml/shapes/placemark_circle.png</href>
                        </Icon>
                    </IconStyle>
                </Style>
                <Style id="26">
                    <IconStyle id="27">
                        <color>ff00ffff</color>
                        <colorMode>normal</colorMode>
                        <scale>1</scale>
                        <heading>0</heading>
                        <Icon id="28">
                            <href>https://maps.google.com/mapfiles/kml/shapes/placemark_circle.png</href>
                        </Icon>
                    </IconStyle>
                </Style>
                <Style id="31">
                    <IconStyle id="32">
                        <color>ff006400</color>
                        <colorMode>normal</colorMode>
                        <scale>1</scale>
                        <heading>0</heading>
                        <Icon id="33">
                            <href>https://maps.google.com/mapfiles/kml/shapes/placemark_circle.png</href>
                        </Icon>
                    </IconStyle>
                    <LabelStyle id="34">
                        <color>ff006400</color>
                        <colorMode>normal</colorMode>
                        <scale>1</scale>
                    </LabelStyle>
                </Style>
                <Style id="37">
                    <IconStyle id="38">
                        <color>ff006400</color>
                        <colorMode>normal</colorMode>
                        <scale>1</scale>
                        <heading>0</heading>
                        <Icon id="39">
                            <href>https://maps.google.com/mapfiles/kml/shapes/placemark_circle.png</href>
                        </Icon>
                    </IconStyle>
                    <LabelStyle id="40">
                        <color>ff006400</color>
                        <colorMode>normal</colorMode>
                        <scale>1</scale>
                    </LabelStyle>
                </Style>
                <name>Points of Interest</name>
                <Placemark id="15">
                    <name>Launch</name>
                    <description><![CDATA[
    <h1>Launch</h1>
    <table style="width: 100%;" cellpadding=0 cellspacing=0 border=0>
    <tr><td style="padding: 10px; border: solid 1px black;border-bottom: 0;"><strong>Local Time</strong></td><td style="border: solid 1px black;border-bottom: 0; border-left: 0; padding: 10px;">07:03:30</td></tr>
    <tr><td style="padding: 10px; border: solid 1px black;border-bottom: 0;"><strong>Altitude</strong></td><td style="border: solid 1px black;border-left: 0; border-bottom: 0; padding: 10px;">5,212ft (1,588.6m)</td></tr>
    <tr><td style="padding: 10px; border: solid 1px black;"><strong>Coordinates</strong></td><td style="border: solid 1px black; border-left: 0; padding: 10px;">39.60816667, -104.0425</td></tr>
    </table>
    ]]></description>
                    <styleUrl>#16</styleUrl>
                    <Point id="14">
                        <coordinates>-104.0425,39.6081666667,1588.62</coordinates>
                        <altitudeMode>absolute</altitudeMode>
                    </Point>
                </Placemark>
                <Placemark id="20">
                    <name>Landing</name>
                    <description><![CDATA[
    <h1>Landing</h1>
    <table style="width: 100%;" cellpadding=0 cellspacing=0 border=0>
    <tr><td style="padding: 10px; border: solid 1px black;border-bottom: 0;"><strong>Local Time</strong></td><td style="border: solid 1px black;border-left: 0; border-bottom: 0; padding: 10px;">09:01:30</td></tr>
    <tr><td style="padding: 10px; border: solid 1px black;border-bottom: 0;"><strong>Altitude</strong></td><td style="border: solid 1px black;border-bottom: 0; border-left: 0; padding: 10px;">5,740ft (1,749.6m)</td></tr>
    <tr><td style="padding: 10px; border: solid 1px black;"><strong>Coordinates</strong></td><td style="border: solid 1px black; border-left: 0; padding: 10px;">39.21566667, -103.16183333</td></tr>
    </table>
    ]]></description>
                    <styleUrl>#21</styleUrl>
                    <Point id="19">
                        <coordinates>-103.1618333333,39.2156666667,1749.55</coordinates>
                        <altitudeMode>absolute</altitudeMode>
                    </Point>
                </Placemark>
                <Placemark id="25">
                    <name>Burst 105,170ft</name>
                    <description><![CDATA[
    <h1>Burst: 105,170ft</h1>
    <table style="width: 100%;" cellpadding=0 cellspacing=0 border=0>
    <tr><td style="padding: 10px; border: solid 1px black;border-bottom: 0;"><strong>Local Time</strong></td><td style="border: solid 1px black;border-left: 0; border-bottom: 0; padding: 10px;">08:25:30</td></tr>
    <tr><td style="padding: 10px; border: solid 1px black;border-bottom: 0;"><strong>Altitude</strong></td><td style="border: solid 1px black;border-left: 0; border-bottom: 0; padding: 10px;">105,170ft (32,055.8m)</td></tr>
    <tr><td style="padding: 10px; border: solid 1px black;"><strong>Coordinates</strong></td><td style="border: solid 1px black; border-left: 0; padding: 10px;">39.40233333, -103.53816667</td></tr>
    </table>
    ]]></description>
                    <styleUrl>#26</styleUrl>
                    <Point id="24">
                        <coordinates>-103.5381666667,39.4023333333,32055.82</coordinates>
                        <altitudeMode>absolute</altitudeMode>
                    </Point>
                </Placemark>
                <Placemark id="30">
                    <name>12k, Laminar-to-Turbulent</name>
                    <description><![CDATA[
        <h1>Airflow Transitioning from Laminar-to-Turbulent</h1>
        <table style="width: 100%;" cellpadding=0 cellspacing=0 border=0>
        <tr><td style="padding: 10px; border: solid 1px black;border-bottom: 0;"><strong>Local Time</strong></td><td style="border: solid 1px black;border-left: 0; border-bottom: 0; padding: 10px;">07:09:57</td></tr>
        <tr><td style="padding: 10px; border: solid 1px black;border-bottom: 0;"><strong>Altitude</strong></td><td style="border: solid 1px black;border-left: 0; border-bottom: 0; padding: 10px;">12,357ft (3,766.4m)</td></tr>
        <tr><td style="padding: 10px; border: solid 1px black;"><strong>Coordinates</strong></td><td style="border: solid 1px black; border-left: 0; padding: 10px;">39.59133333, -104.02333333</td></tr>
        </table>
        ]]></description>
                    <styleUrl>#31</styleUrl>
                    <Point id="29">
                        <coordinates>-104.0233333333,39.5913333333,3766.41</coordinates>
                        <altitudeMode>absolute</altitudeMode>
                    </Point>
                </Placemark>
                <Placemark id="36">
                    <name>59k, Turbulent-to-Laminar</name>
                    <description><![CDATA[
        <h1>Airflow Transitioning from Turbulent-to-Laminar</h1>
        <table style="width: 100%;" cellpadding=0 cellspacing=0 border=0>
        <tr><td style="padding: 10px; border: solid 1px black;border-bottom: 0;"><strong>Local Time</strong></td><td style="border: solid 1px black;border-left: 0; border-bottom: 0; padding: 10px;">07:40:30</td></tr>
        <tr><td style="padding: 10px; border: solid 1px black;border-bottom: 0;"><strong>Altitude</strong></td><td style="border: solid 1px black;border-left: 0; border-bottom: 0; padding: 10px;">58,636ft (17,872.2m)</td></tr>
        <tr><td style="padding: 10px; border: solid 1px black;"><strong>Coordinates</strong></td><td style="border: solid 1px black; border-left: 0; padding: 10px;">39.3845, -103.57833333</td></tr>
        </table>
        ]]></description>
                    <styleUrl>#37</styleUrl>
                    <Point id="35">
                        <coordinates>-103.5783333333,39.3845,17872.25</coordinates>
                        <altitudeMode>absolute</altitudeMode>
                    </Point>
                </Placemark>
            </Folder>
        </Document>
    </Document>
</kml>
