<?xml version="1.0" encoding="UTF-8"?>
<kml xmlns="http://www.opengis.net/kml/2.2" xmlns:gx="http://www.google.com/kml/ext/2.2">
    <Document id="1">
        <Document id="2">
            <name>EOSS-382</name>
            <description><![CDATA[
    <h1>EOSS-382</h1>
    <table style="width: 100%;" cellpadding=0 cellspacing=0 border=0>
    <tr><td style="border: solid 1px black;border-bottom: 0; padding: 10px;"><strong>Launch Local Date/Time</strong></td><td style=" padding: 10px;border: solid 1px black;border-bottom: 0; border-left: 0;">2025-08-02 09:30:15</td></tr>
    <tr><td style="border: solid 1px black;border-bottom: 0; padding: 10px;"><strong>Flight Duration</strong></td><td style=" padding: 10px;border: solid 1px black;border-bottom: 0; border-left: 0; ">2hrs 19mins 53secs</td></tr>
    <tr><td style="border: solid 1px black;border-bottom: 0; padding: 10px;"><strong>Down Range Distance</strong></td><td style=" padding: 10px;border: solid 1px black;border-bottom: 0; border-left: 0; ">32.8mi (52.8km)</td></tr>
    <tr><td style="border: solid 1px black; padding: 10px;"><strong>Approx. Burst Altitude</strong></td><td style=" padding: 10px;border: solid 1px black; border-left: 0; ">96,468ft (29,403.4m)</td></tr>
    </table>
    ]]></description>
            <Folder id="3">
                <Style id="8">
                    <LineStyle id="9">
                        <color>ff0000ff</color>
                        <colorMode>normal</colorMode>
                        <width>3</width>
                    </LineStyle>
                </Style>
                <Style id="12">
                    <LineStyle id="13">
                        <color>ffff0000</color>
                        <colorMode>normal</colorMode>
                        <width>3</width>
                    </LineStyle>
                </Style>
                <name>Paths</name>
                <Placemark id="7">
                    <name>EOSS-382 Ascent</name>
                    <styleUrl>#8</styleUrl>
                    <LineString id="6">
                        <extrude>0</extrude>
                        <altitudeMode>absolute</altitudeMode>
                        <coordinates>-103.697,39.236,1644.4 -103.697,39.236,1645.31 -103.697,39.2363333333,1663.29 -103.697,39.2375,1777.29 -103.697,39.2378333333,1821.18 -103.696,39.2396666667,1986.99 -103.6931666667,39.2413333333,2111.65 -103.6923333333,39.2416666667,2148.84 -103.69,39.2425,2284.17 -103.6895,39.243,2341.17 -103.6875,39.2438333333,2476.8 -103.6871666667,39.244,2522.83 -103.6858333333,39.2445,2649.02 -103.6856666667,39.2448333333,2701.44 -103.6848333333,39.2451666667,2828.85 -103.6846666667,39.2451666667,2874.57 -103.6843333333,39.2451666667,2992.53 -103.6843333333,39.2453333333,3040.08 -103.6831666667,39.2453333333,3162.3 -103.6831666667,39.2453333333,3210.46 -103.6828333333,39.2451666667,3340.3 -103.6826666667,39.2451666667,3398.82 -103.6818333333,39.2446666667,3527.15 -103.6815,39.2445,3573.48 -103.6805,39.244,3721.91 -103.6801666667,39.2441666667,3764.89 -103.6791666667,39.2436666667,3899.92 -103.6791666667,39.2436666667,3950.82 -103.6778333333,39.2426666667,4098.34 -103.6773333333,39.2425,4140.1 -103.676,39.2413333333,4250.44 -103.6758333333,39.241,4286.4 -103.675,39.2398333333,4413.2 -103.6746666667,39.2398333333,4455.57 -103.674,39.2385,4589.68 -103.674,39.2383333333,4639.36 -103.673,39.2371666667,4757.01 -103.673,39.2368333333,4813.4 -103.6723333333,39.2353333333,4953.91 -103.6721666667,39.235,5007.25 -103.6715,39.2335,5152.95 -103.6716666667,39.2331666667,5197.14 -103.6705,39.2318333333,5310.53 -103.6703333333,39.2315,5368.14 -103.6686666667,39.2298333333,5494.32 -103.6683333333,39.2291666667,5537.91 -103.667,39.2275,5668.06 -103.6665,39.2271666667,5724.75 -103.6646666667,39.2258333333,5871.06 -103.6645,39.2255,5926.23 -103.6625,39.2241666667,6049.06 -103.662,39.2238333333,6100.57 -103.6598333333,39.2225,6239.87 -103.6593333333,39.2221666667,6295.03 -103.6571666667,39.2205,6412.69 -103.6565,39.2201666667,6473.04 -103.654,39.2186666667,6623.91 -103.6531666667,39.2183333333,6680.3 -103.6501666667,39.2173333333,6816.85 -103.6493333333,39.2173333333,6862.57 -103.6458333333,39.2168333333,7013.14 -103.645,39.2165,7065.57 -103.6415,39.2156666667,7223.46 -103.6403333333,39.2153333333,7275.88 -103.6351666667,39.2136666667,7453.27 -103.6315,39.213,7568.79 -103.6305,39.213,7611.77 -103.626,39.2121666667,7753.2 -103.625,39.2116666667,7801.05 -103.6208333333,39.21,7943.7 -103.6193333333,39.2096666667,7995.82 -103.6135,39.2081666667,8125.05 -103.6121666667,39.2078333333,8167.12 -103.6071666667,39.2068333333,8296.66 -103.6055,39.2066666667,8359.44 -103.5996666667,39.2056666667,8479.84 -103.5981666667,39.2055,8524.65 -103.5921666667,39.2045,8659.67 -103.5906666667,39.2043333333,8713.32 -103.5845,39.2028333333,8819.69 -103.5825,39.2025,8866.33 -103.576,39.2013333333,8995.56 -103.574,39.201,9043.11 -103.567,39.2,9166.56 -103.5651666667,39.1996666667,9218.98 -103.5575,39.198,9351.87 -103.555,39.1978333333,9401.86 -103.5475,39.1963333333,9533.23 -103.5453333333,39.1956666667,9578.95 -103.537,39.1938333333,9738.66 -103.5343333333,39.1935,9791.09 -103.5258333333,39.1916666667,9911.49 -103.5233333333,39.191,9960.25 -103.5151666667,39.1893333333,10090.71 -103.5121666667,39.189,10137.65 -103.5031666667,39.1868333333,10266.58 -103.5003333333,39.1863333333,10306.51 -103.4908333333,39.1843333333,10418.98 -103.4881666667,39.1838333333,10457.99 -103.4791666667,39.1816666667,10553.7 -103.4766666667,39.1811666667,10591.19 -103.4678333333,39.1785,10715.55 -103.4648333333,39.1778333333,10758.22 -103.4558333333,39.1746666667,10871.0 -103.453,39.1738333333,10909.1 -103.4451666667,39.1705,11018.82 -103.4428333333,39.17,11058.75 -103.4346666667,39.1675,11173.66 -103.432,39.1671666667,11211.15 -103.4238333333,39.1653333333,11303.51 -103.4211666667,39.1648333333,11345.57 -103.4123333333,39.1636666667,11480.9 -103.4095,39.1633333333,11532.41 -103.4001666667,39.1615,11661.34 -103.3978333333,39.1611666667,11699.75 -103.3901666667,39.1595,11810.7 -103.3878333333,39.1595,11854.59 -103.3796666667,39.158,11993.27 -103.377,39.1576666667,12050.88 -103.3688333333,39.1566666667,12177.06 -103.3665,39.1566666667,12226.14 -103.3568333333,39.157,12333.43 -103.3536666667,39.1571666667,12374.27 -103.3443333333,39.1568333333,12465.1 -103.3416666667,39.1568333333,12505.03 -103.3325,39.1555,12626.95 -103.33,39.1551666667,12668.1 -103.3195,39.1531666667,12806.78 -103.3118333333,39.1515,12897.0 -103.3096666667,39.1511666667,12936.63 -103.3025,39.1495,13061.29 -103.3008333333,39.149,13122.25 -103.2956666667,39.1473333333,13246.91 -103.2941666667,39.1471666667,13294.77 -103.289,39.1463333333,13389.86 -103.2875,39.1461666667,13429.49 -103.2823333333,39.1453333333,13536.17 -103.281,39.145,13588.59 -103.2761666667,39.1441666667,13695.27 -103.2748333333,39.1441666667,13736.12 -103.27,39.1436666667,13867.18 -103.2683333333,39.1438333333,13911.38 -103.2626666667,39.144,14009.22 -103.2608333333,39.1441666667,14055.55 -103.2543333333,39.1441666667,14161.31 -103.2523333333,39.1443333333,14211.3 -103.2453333333,39.1438333333,14313.41 -103.2433333333,39.1436666667,14354.25 -103.2363333333,39.1428333333,14446.3 -103.2345,39.1426666667,14484.71 -103.2281666667,39.1415,14598.09 -103.2266666667,39.1413333333,14637.41 -103.2221666667,39.1401666667,14729.76 -103.221,39.1398333333,14775.79 -103.2175,39.1396666667,14931.85 -103.2168333333,39.1396666667,14983.05 -103.2141666667,39.1398333333,15117.17 -103.2135,39.1401666667,15175.08 -103.2105,39.1411666667,15314.68 -103.2096666667,39.1413333333,15374.72 -103.2066666667,39.14,15510.36 -103.2061666667,39.1396666667,15570.1 -103.2041666667,39.1388333333,15706.65 -103.204,39.1386666667,15746.27 -103.2028333333,39.1375,15845.03 -103.2025,39.1373333333,15886.18 -103.2016666667,39.1363333333,15984.02 -103.2013333333,39.1361666667,16031.26 -103.2005,39.1348333333,16115.69 -103.2005,39.1346666667,16158.36 -103.1996666667,39.1335,16254.68 -103.1996666667,39.1331666667,16298.27 -103.1988333333,39.1318333333,16403.42 -103.1988333333,39.1316666667,16445.79 -103.1981666667,39.1306666667,16549.73 -103.1981666667,39.1305,16589.96 -103.198,39.1296666667,16714.93 -103.1981666667,39.1295,16753.64 -103.1988333333,39.1295,16890.8 -103.1993333333,39.1296666667,16931.03 -103.1998333333,39.1303333333,17071.54 -103.1991666667,39.1306666667,17170.91 -103.199,39.131,17208.7 -103.198,39.1308333333,17309.29 -103.1981666667,39.1308333333,17349.22 -103.1988333333,39.1303333333,17449.5 -103.1991666667,39.1301666667,17486.38 -103.1993333333,39.129,17585.13 -103.1995,39.1286666667,17625.67 -103.2003333333,39.1273333333,17733.26 -103.2008333333,39.127,17773.8 -103.2026666667,39.1256666667,17884.14 -103.2031666667,39.1255,17925.29 -103.2048333333,39.125,18034.71 -103.2056666667,39.1248333333,18072.81 -103.208,39.1243333333,18172.48 -103.2088333333,39.1243333333,18212.1 -103.211,39.1238333333,18312.08 -103.2118333333,39.124,18348.66 -103.2136666667,39.1241666667,18440.4 -103.2141666667,39.1243333333,18484.29 -103.215,39.1248333333,18578.78 -103.2153333333,39.1251666667,18617.18 -103.216,39.1258333333,18709.84 -103.2163333333,39.1263333333,18746.72 -103.2171666667,39.1268333333,18845.78 -103.2176666667,39.1271666667,18882.06 -103.2183333333,39.1273333333,18985.08 -103.2185,39.1273333333,19023.48 -103.2188333333,39.1271666667,19131.69 -103.2191666667,39.1273333333,19172.53 -103.2203333333,39.1273333333,19284.39 -103.2206666667,39.1273333333,19330.11 -103.2211666667,39.1263333333,19444.72 -103.2215,39.1263333333,19486.47 -103.2223333333,39.1251666667,19603.21 -103.2228333333,39.1248333333,19644.97 -103.2241666667,39.1236666667,19751.34 -103.2246666667,39.1236666667,19791.27 -103.2258333333,39.1233333333,19892.77 -103.2263333333,39.1231666667,19928.43 -103.2275,39.1221666667,20028.41 -103.228,39.1218333333,20073.52 -103.23,39.1205,20164.04 -103.2306666667,39.1203333333,20204.89 -103.2331666667,39.1196666667,20313.09 -103.2341666667,39.1196666667,20354.85 -103.2366666667,39.1196666667,20455.74 -103.2376666667,39.1198333333,20500.24 -103.2393333333,39.1195,20606.31 -103.2398333333,39.1196666667,20650.2 -103.2408333333,39.1191666667,20752.31 -103.2413333333,39.119,20794.98 -103.2426666667,39.118,20896.17 -103.2433333333,39.118,20937.93 -103.2458333333,39.1176666667,21075.09 -103.2471666667,39.118,21173.24 -103.2473333333,39.1183333333,21216.52 -103.2476666667,39.1185,21313.14 -103.2478333333,39.1188333333,21353.37 -103.2486666667,39.1183333333,21494.8 -103.25,39.1173333333,21598.43 -103.2506666667,39.1171666667,21640.5 -103.2526666667,39.1161666667,21739.25 -103.2535,39.116,21781.62 -103.2555,39.1153333333,21885.55 -103.2563333333,39.1153333333,21927.01 -103.2588333333,39.115,22045.27 -103.2595,39.115,22087.94 -103.2613333333,39.1145,22201.02 -103.262,39.1145,22242.17 -103.2645,39.1145,22357.38 -103.2653333333,39.1148333333,22401.58 -103.2676666667,39.1153333333,22507.65 -103.2683333333,39.1155,22546.67 -103.2705,39.1153333333,22647.86 -103.2713333333,39.1155,22688.7 -103.2733333333,39.1155,22791.42 -103.2738333333,39.1156666667,22828.61 -103.2753333333,39.1151666667,22931.63 -103.276,39.115,22971.56 -103.278,39.1143333333,23074.27 -103.2786666667,39.1143333333,23116.34 -103.2806666667,39.1145,23225.46 -103.2813333333,39.1145,23269.65 -103.2835,39.1141666667,23384.56 -103.2843333333,39.1141666667,23432.41 -103.2866666667,39.1135,23548.54 -103.2875,39.1135,23596.09 -103.2895,39.1135,23714.96 -103.2901666667,39.1135,23763.12 -103.2928333333,39.1125,23915.22 -103.2956666667,39.1116666667,24013.36 -103.2968333333,39.1115,24052.99 -103.3,39.1108333333,24157.53 -103.301,39.111,24192.89 -103.3041666667,39.1108333333,24295.61 -103.305,39.111,24333.4 -103.3076666667,39.1106666667,24441.61 -103.3086666667,39.1105,24483.06 -103.312,39.1105,24590.04 -103.3133333333,39.1106666667,24631.5 -103.3165,39.111,24742.44 -103.3178333333,39.1108333333,24785.12 -103.3211666667,39.11,24894.84 -103.3225,39.1095,24936.91 -103.3285,39.1073333333,25082.6 -103.3335,39.1063333333,25191.42 -103.335,39.1063333333,25231.95 -103.3401666667,39.1061666667,25343.82 -103.3418333333,39.1063333333,25384.05 -103.3466666667,39.1066666667,25488.29 -103.3478333333,39.1066666667,25530.66 -103.3536666667,39.1063333333,25673.61 -103.3583333333,39.1063333333,25782.73 -103.3598333333,39.1065,25821.44 -103.365,39.1066666667,25976.58 -103.3683333333,39.1065,26088.75 -103.3693333333,39.1065,26132.33 -103.3733333333,39.1061666667,26277.72 -103.3766666667,39.106,26391.41 -103.3778333333,39.106,26431.95 -103.3825,39.1063333333,26536.8 -103.384,39.1066666667,26574.9 -103.3885,39.1076666667,26681.89 -103.3895,39.1078333333,26722.73 -103.3935,39.1081666667,26825.75 -103.3948333333,39.1081666667,26864.77 -103.3988333333,39.1085,26970.84 -103.4,39.1085,27014.12 -103.4031666667,39.1086666667,27119.28 -103.4041666667,39.1085,27161.03 -103.408,39.1081666667,27262.53 -103.4091666667,39.108,27306.42 -103.4131666667,39.1078333333,27423.77 -103.4143333333,39.1078333333,27467.97 -103.4181666667,39.1078333333,27586.53 -103.419,39.108,27629.82 -103.4228333333,39.108,27744.72 -103.4238333333,39.1081666667,27784.96 -103.4271666667,39.1081666667,27894.99 -103.4281666667,39.1083333333,27937.05 -103.432,39.1081666667,28040.38 -103.4331666667,39.1081666667,28078.79 -103.4368333333,39.108,28174.19 -103.438,39.1081666667,28208.33 -103.4411666667,39.1081666667,28310.13 -103.4421666667,39.1081666667,28346.1 -103.446,39.1078333333,28446.68 -103.4473333333,39.108,28485.08 -103.452,39.1081666667,28592.37 -103.4535,39.1083333333,28633.22 -103.4575,39.1086666667,28740.51 -103.4586666667,39.1088333333,28784.4 -103.4626666667,39.109,28900.53 -103.464,39.1091666667,28944.42 -103.4683333333,39.1096666667,29059.02 -103.4696666667,39.1098333333,29104.44 -103.4736666667,39.1096666667,29213.25 -103.4748333333,39.1095,29253.79 -103.4785,39.1086666667,29356.2 -103.4798333333,39.1088333333,29397.96 -103.4853333333,39.109,29403.45</coordinates>
                    </LineString>
                </Placemark>
                <Placemark id="11">
                    <name>EOSS-382 Descent</name>
                    <styleUrl>#12</styleUrl>
                    <LineString id="10">
                        <extrude>0</extrude>
                        <altitudeMode>absolute</altitudeMode>
                        <coordinates>-103.4853333333,39.109,29403.45 -103.4901666667,39.1103333333,28667.05 -103.492,39.111,28466.19 -103.495,39.1108333333,27741.98 -103.4963333333,39.111,27530.76 -103.4998333333,39.1108333333,26813.87 -103.5011666667,39.111,26616.96 -103.5048333333,39.1113333333,25966.83 -103.5061666667,39.1115,25786.38 -103.5105,39.1118333333,25184.4 -103.5121666667,39.1118333333,25014.63 -103.5165,39.1116666667,24476.96 -103.5171666667,39.1115,24325.48 -103.5196666667,39.1106666667,23784.15 -103.5205,39.1106666667,23629.92 -103.5226666667,39.1101666667,23106.89 -103.5233333333,39.1101666667,22957.23 -103.524,39.1096666667,22522.28 -103.5246666667,39.1096666667,22386.04 -103.5266666667,39.1093333333,21932.8 -103.5273333333,39.1095,21807.53 -103.5286666667,39.1086666667,21362.82 -103.529,39.1093333333,21256.75 -103.5318333333,39.1093333333,20868.44 -103.5321666667,39.1091666667,20746.21 -103.5341666667,39.109,20333.82 -103.5351666667,39.109,20215.56 -103.5366666667,39.1081666667,19836.99 -103.5368333333,39.1078333333,19740.68 -103.5385,39.106,19304.2 -103.5386666667,39.1058333333,18960.39 -103.5388333333,39.106,18856.45 -103.5378333333,39.1058333333,18552.26 -103.5383333333,39.1058333333,18473.32 -103.5403333333,39.1056666667,18174.0 -103.5415,39.1056666667,18099.02 -103.5445,39.1056666667,17828.67 -103.545,39.1053333333,17753.99 -103.5463333333,39.1051666667,17414.14 -103.5468333333,39.1055,17146.22 -103.547,39.1058333333,17072.46 -103.5476666667,39.1065,16813.68 -103.5476666667,39.1068333333,16746.93 -103.5486666667,39.1066666667,16502.18 -103.5488333333,39.1066666667,16431.16 -103.5471666667,39.1051666667,16190.98 -103.547,39.1051666667,16127.27 -103.5463333333,39.1045,15873.98 -103.546,39.1041666667,15799.31 -103.5433333333,39.1035,15541.14 -103.5423333333,39.1035,15469.82 -103.54,39.1036666667,15236.95 -103.5393333333,39.1035,15177.21 -103.5368333333,39.1031666667,14937.64 -103.5361666667,39.1031666667,14866.01 -103.533,39.1018333333,14612.11 -103.5318333333,39.1016666667,14539.26 -103.5266666667,39.1003333333,14284.76 -103.5251666667,39.1001666667,14216.79 -103.5186666667,39.0996666667,13968.98 -103.517,39.0998333333,13901.93 -103.511,39.1003333333,13661.44 -103.5095,39.1006666667,13597.13 -103.5036666667,39.1005,13356.03 -103.502,39.1005,13296.9 -103.4953333333,39.0998333333,13064.34 -103.4933333333,39.0995,13000.94 -103.4858333333,39.098,12778.13 -103.4835,39.0976666667,12717.48 -103.4745,39.096,12507.16 -103.4716666667,39.0956666667,12451.38 -103.4621666667,39.0946666667,12252.66 -103.4593333333,39.0946666667,12201.14 -103.4493333333,39.0946666667,11992.66 -103.4465,39.0948333333,11941.15 -103.4373333333,39.0938333333,11758.88 -103.4348333333,39.0931666667,11715.9 -103.4228333333,39.0913333333,11496.14 -103.4133333333,39.09,11316.61 -103.4106666667,39.0893333333,11273.03 -103.4015,39.087,11108.74 -103.3981666667,39.0863333333,11058.45 -103.389,39.0841666667,10890.5 -103.386,39.0838333333,10850.27 -103.377,39.0818333333,10687.51 -103.374,39.0813333333,10645.75 -103.3646666667,39.0796666667,10485.73 -103.362,39.0793333333,10447.32 -103.353,39.0775,10284.87 -103.3501666667,39.077,10245.24 -103.3418333333,39.075,10081.26 -103.3395,39.0743333333,10043.16 -103.3291666667,39.0716666667,9838.03 -103.3206666667,39.0696666667,9678.31 -103.3185,39.0693333333,9641.43 -103.3101666667,39.0675,9489.03 -103.3076666667,39.067,9451.24 -103.2996666667,39.0656666667,9299.75 -103.2976666667,39.0653333333,9261.65 -103.2903333333,39.0636666667,9109.56 -103.2883333333,39.0635,9072.98 -103.2813333333,39.062,8924.24 -103.2796666667,39.0615,8887.36 -103.2733333333,39.0595,8733.13 -103.2713333333,39.059,8696.25 -103.2656666667,39.0573333333,8548.12 -103.2643333333,39.0568333333,8514.89 -103.2591666667,39.0551666667,8367.37 -103.2575,39.0548333333,8332.32 -103.2525,39.0535,8182.97 -103.251,39.0533333333,8146.69 -103.2458333333,39.0521666667,8000.39 -103.2445,39.0521666667,7965.34 -103.2396666667,39.0516666667,7819.64 -103.2386666667,39.0515,7787.64 -103.2345,39.0513333333,7647.43 -103.2331666667,39.0511666667,7612.99 -103.2288333333,39.051,7470.95 -103.2276666667,39.0513333333,7437.73 -103.2235,39.0506666667,7294.17 -103.2223333333,39.0506666667,7261.25 -103.2185,39.0498333333,7118.6 -103.2176666667,39.0495,7087.21 -103.2133333333,39.0486666667,6946.09 -103.2125,39.0486666667,6912.25 -103.2081666667,39.0476666667,6773.27 -103.2073333333,39.0475,6740.35 -103.2038333333,39.0468333333,6603.8 -103.2026666667,39.0466666667,6573.32 -103.1993333333,39.046,6436.77 -103.199,39.0458333333,6406.59 -103.1968333333,39.0448333333,6282.23 -103.196,39.0445,6253.28 -103.1936666667,39.0426666667,6125.87 -103.1933333333,39.0421666667,6096.61 -103.1913333333,39.0403333333,5977.13 -103.191,39.0401666667,5947.87 -103.1893333333,39.0386666667,5822.9 -103.189,39.0385,5794.55 -103.1871666667,39.0376666667,5673.55 -103.1866666667,39.0376666667,5647.64 -103.1846666667,39.0358333333,5529.68 -103.1841666667,39.0353333333,5501.64 -103.182,39.0341666667,5382.77 -103.1815,39.0338333333,5355.95 -103.18,39.0335,5238.6 -103.1795,39.0333333333,5212.38 -103.1781666667,39.0325,5094.12 -103.1778333333,39.0323333333,5066.39 -103.1776666667,39.0316666667,4950.87 -103.1776666667,39.0315,4926.48 -103.1775,39.0306666667,4809.74 -103.1773333333,39.0306666667,4785.97 -103.1763333333,39.0301666667,4666.18 -103.176,39.03,4637.23 -103.1743333333,39.0293333333,4522.01 -103.1738333333,39.029,4496.41 -103.173,39.028,4355.59 -103.1716666667,39.0278333333,4244.04 -103.1711666667,39.0278333333,4219.65 -103.17,39.0268333333,4108.4 -103.1698333333,39.0266666667,4082.49 -103.1678333333,39.0261666667,3969.41 -103.1675,39.026,3942.59 -103.1666666667,39.0255,3828.29 -103.1663333333,39.0253333333,3804.21 -103.165,39.0245,3695.7 -103.1645,39.0245,3672.23 -103.1636666667,39.0245,3559.45 -103.1633333333,39.0246666667,3535.07 -103.1616666667,39.0246666667,3422.29 -103.1615,39.0246666667,3398.52 -103.1605,39.0251666667,3287.57 -103.16,39.0251666667,3262.58 -103.159,39.0248333333,3154.07 -103.1588333333,39.0248333333,3129.38 -103.158,39.0246666667,3021.48 -103.158,39.0248333333,2998.62 -103.1571666667,39.025,2890.42 -103.1571666667,39.0251666667,2865.42 -103.1553333333,39.0255,2727.96 -103.1535,39.0265,2616.4 -103.1528333333,39.0268333333,2592.93 -103.1503333333,39.0278333333,2481.99 -103.1496666667,39.0281666667,2456.69 -103.147,39.0283333333,2334.16 -103.1465,39.0285,2305.51 -103.1445,39.0293333333,2177.19 -103.144,39.0298333333,2149.14 -103.1416666667,39.0306666667,2037.89 -103.1413333333,39.0308333333,2022.35 -103.1406666667,39.0323333333,1927.56 -103.1406666667,39.033,1906.22 -103.1403333333,39.035,1805.03 -103.1403333333,39.0355,1786.74 -103.1405,39.0368333333,1693.16 -103.1403333333,39.0371666667,1670.0 -103.1405,39.0383333333,1569.72 -103.1406666667,39.0385,1568.5 -103.1405,39.0383333333,1567.59</coordinates>
                    </LineString>
                </Placemark>
            </Folder>
            <Folder id="4">
                <Style id="37">
                    <IconStyle id="38">
                        <color>ff0000ff</color>
                        <colorMode>normal</colorMode>
                        <scale>1</scale>
                        <heading>0</heading>
                        <Icon id="39">
                            <href>https://maps.google.com/mapfiles/kml/shapes/placemark_circle.png</href>
                        </Icon>
                    </IconStyle>
                </Style>
                <Style id="42">
                    <IconStyle id="43">
                        <color>ff0000ff</color>
                        <colorMode>normal</colorMode>
                        <scale>1</scale>
                        <heading>0</heading>
                        <Icon id="44">
                            <href>https://maps.google.com/mapfiles/kml/shapes/placemark_circle.png</href>
                        </Icon>
                    </IconStyle>
                </Style>
                <Style id="47">
                    <IconStyle id="48">
                        <color>ff0000ff</color>
                        <colorMode>normal</colorMode>
                        <scale>1</scale>
                        <heading>0</heading>
                        <Icon id="49">
                            <href>https://maps.google.com/mapfiles/kml/shapes/placemark_circle.png</href>
                        </Icon>
                    </IconStyle>
                </Style>
                <Style id="52">
                    <IconStyle id="53">
                        <color>ff0000ff</color>
                        <colorMode>normal</colorMode>
                        <scale>1</scale>
                        <heading>0</heading>
                        <Icon id="54">
                            <href>https://maps.google.com/mapfiles/kml/shapes/placemark_circle.png</href>
                        </Icon>
                    </IconStyle>
                </Style>
                <Style id="57">
                    <IconStyle id="58">
                        <color>ff0000ff</color>
                        <colorMode>normal</colorMode>
                        <scale>1</scale>
                        <heading>0</heading>
                        <Icon id="59">
                            <href>https://maps.google.com/mapfiles/kml/shapes/placemark_circle.png</href>
                        </Icon>
                    </IconStyle>
                </Style>
                <Style id="62">
                    <IconStyle id="63">
                        <color>ff0000ff</color>
                        <colorMode>normal</colorMode>
                        <scale>1</scale>
                        <heading>0</heading>
                        <Icon id="64">
                            <href>https://maps.google.com/mapfiles/kml/shapes/placemark_circle.png</href>
                        </Icon>
                    </IconStyle>
                </Style>
                <Style id="67">
                    <IconStyle id="68">
                        <color>ff0000ff</color>
                        <colorMode>normal</colorMode>
                        <scale>1</scale>
                        <heading>0</heading>
                        <Icon id="69">
                            <href>https://maps.google.com/mapfiles/kml/shapes/placemark_circle.png</href>
                        </Icon>
                    </IconStyle>
                </Style>
                <Style id="72">
                    <IconStyle id="73">
                        <color>ff0000ff</color>
                        <colorMode>normal</colorMode>
                        <scale>1</scale>
                        <heading>0</heading>
                        <Icon id="74">
                            <href>https://maps.google.com/mapfiles/kml/shapes/placemark_circle.png</href>
                        </Icon>
                    </IconStyle>
                </Style>
                <Style id="77">
                    <IconStyle id="78">
                        <color>ff0000ff</color>
                        <colorMode>normal</colorMode>
                        <scale>1</scale>
                        <heading>0</heading>
                        <Icon id="79">
                            <href>https://maps.google.com/mapfiles/kml/shapes/placemark_circle.png</href>
                        </Icon>
                    </IconStyle>
                </Style>
                <Style id="82">
                    <IconStyle id="83">
                        <color>ffff0000</color>
                        <colorMode>normal</colorMode>
                        <scale>1</scale>
                        <heading>0</heading>
                        <Icon id="84">
                            <href>https://maps.google.com/mapfiles/kml/shapes/placemark_circle.png</href>
                        </Icon>
                    </IconStyle>
                </Style>
                <Style id="87">
                    <IconStyle id="88">
                        <color>ffff0000</color>
                        <colorMode>normal</colorMode>
                        <scale>1</scale>
                        <heading>0</heading>
                        <Icon id="89">
                            <href>https://maps.google.com/mapfiles/kml/shapes/placemark_circle.png</href>
                        </Icon>
                    </IconStyle>
                </Style>
                <Style id="92">
                    <IconStyle id="93">
                        <color>ffff0000</color>
                        <colorMode>normal</colorMode>
                        <scale>1</scale>
                        <heading>0</heading>
                        <Icon id="94">
                            <href>https://maps.google.com/mapfiles/kml/shapes/placemark_circle.png</href>
                        </Icon>
                    </IconStyle>
                </Style>
                <Style id="97">
                    <IconStyle id="98">
                        <color>ffff0000</color>
                        <colorMode>normal</colorMode>
                        <scale>1</scale>
                        <heading>0</heading>
                        <Icon id="99">
                            <href>https://maps.google.com/mapfiles/kml/shapes/placemark_circle.png</href>
                        </Icon>
                    </IconStyle>
                </Style>
                <Style id="102">
                    <IconStyle id="103">
                        <color>ffff0000</color>
                        <colorMode>normal</colorMode>
                        <scale>1</scale>
                        <heading>0</heading>
                        <Icon id="104">
                            <href>https://maps.google.com/mapfiles/kml/shapes/placemark_circle.png</href>
                        </Icon>
                    </IconStyle>
                </Style>
                <Style id="107">
                    <IconStyle id="108">
                        <color>ffff0000</color>
                        <colorMode>normal</colorMode>
                        <scale>1</scale>
                        <heading>0</heading>
                        <Icon id="109">
                            <href>https://maps.google.com/mapfiles/kml/shapes/placemark_circle.png</href>
                        </Icon>
                    </IconStyle>
                </Style>
                <Style id="112">
                    <IconStyle id="113">
                        <color>ffff0000</color>
                        <colorMode>normal</colorMode>
                        <scale>1</scale>
                        <heading>0</heading>
                        <Icon id="114">
                            <href>https://maps.google.com/mapfiles/kml/shapes/placemark_circle.png</href>
                        </Icon>
                    </IconStyle>
                </Style>
                <Style id="117">
                    <IconStyle id="118">
                        <color>ffff0000</color>
                        <colorMode>normal</colorMode>
                        <scale>1</scale>
                        <heading>0</heading>
                        <Icon id="119">
                            <href>https://maps.google.com/mapfiles/kml/shapes/placemark_circle.png</href>
                        </Icon>
                    </IconStyle>
                </Style>
                <Style id="122">
                    <IconStyle id="123">
                        <color>ffff0000</color>
                        <colorMode>normal</colorMode>
                        <scale>1</scale>
                        <heading>0</heading>
                        <Icon id="124">
                            <href>https://maps.google.com/mapfiles/kml/shapes/placemark_circle.png</href>
                        </Icon>
                    </IconStyle>
                </Style>
                <name>Waypoints</name>
                <Placemark id="36">
                    <name>10k</name>
                    <description><![CDATA[
        <h1>Waypoint</h1>
        <table style="width: 100%;" cellpadding=0 cellspacing=0 border=0>
        <tr><td style="padding: 10px; border: solid 1px black;border-bottom: 0;"><strong>Local Time</strong></td><td style="border: solid 1px black;border-left: 0; border-bottom: 0; padding: 10px;">09:34:45</td></tr>
        <tr><td style="padding: 10px; border: solid 1px black;border-bottom: 0;"><strong>Altitude</strong></td><td style="border: solid 1px black;border-left: 0; border-bottom: 0; padding: 10px;">9,974ft (3,040.1m)</td></tr>
        <tr><td style="padding: 10px; border: solid 1px black;"><strong>Coordinates</strong></td><td style="border: solid 1px black; border-left: 0; padding: 10px;">39.24533333, -103.68433333</td></tr>
        </table>
        ]]></description>
                    <styleUrl>#37</styleUrl>
                    <Point id="35">
                        <coordinates>-103.6843333333,39.2453333333,3040.08</coordinates>
                        <altitudeMode>absolute</altitudeMode>
                    </Point>
                </Placemark>
                <Placemark id="41">
                    <name>20k</name>
                    <description><![CDATA[
        <h1>Waypoint</h1>
        <table style="width: 100%;" cellpadding=0 cellspacing=0 border=0>
        <tr><td style="padding: 10px; border: solid 1px black;border-bottom: 0;"><strong>Local Time</strong></td><td style="border: solid 1px black;border-left: 0; border-bottom: 0; padding: 10px;">09:43:15</td></tr>
        <tr><td style="padding: 10px; border: solid 1px black;border-bottom: 0;"><strong>Altitude</strong></td><td style="border: solid 1px black;border-left: 0; border-bottom: 0; padding: 10px;">20,015ft (6,100.6m)</td></tr>
        <tr><td style="padding: 10px; border: solid 1px black;"><strong>Coordinates</strong></td><td style="border: solid 1px black; border-left: 0; padding: 10px;">39.22383333, -103.662</td></tr>
        </table>
        ]]></description>
                    <styleUrl>#42</styleUrl>
                    <Point id="40">
                        <coordinates>-103.662,39.2238333333,6100.57</coordinates>
                        <altitudeMode>absolute</altitudeMode>
                    </Point>
                </Placemark>
                <Placemark id="46">
                    <name>30k</name>
                    <description><![CDATA[
        <h1>Waypoint</h1>
        <table style="width: 100%;" cellpadding=0 cellspacing=0 border=0>
        <tr><td style="padding: 10px; border: solid 1px black;border-bottom: 0;"><strong>Local Time</strong></td><td style="border: solid 1px black;border-left: 0; border-bottom: 0; padding: 10px;">09:51:38</td></tr>
        <tr><td style="padding: 10px; border: solid 1px black;border-bottom: 0;"><strong>Altitude</strong></td><td style="border: solid 1px black;border-left: 0; border-bottom: 0; padding: 10px;">30,074ft (9,166.6m)</td></tr>
        <tr><td style="padding: 10px; border: solid 1px black;"><strong>Coordinates</strong></td><td style="border: solid 1px black; border-left: 0; padding: 10px;">39.2, -103.567</td></tr>
        </table>
        ]]></description>
                    <styleUrl>#47</styleUrl>
                    <Point id="45">
                        <coordinates>-103.567,39.2,9166.56</coordinates>
                        <altitudeMode>absolute</altitudeMode>
                    </Point>
                </Placemark>
                <Placemark id="51">
                    <name>40k</name>
                    <description><![CDATA[
        <h1>Waypoint</h1>
        <table style="width: 100%;" cellpadding=0 cellspacing=0 border=0>
        <tr><td style="padding: 10px; border: solid 1px black;border-bottom: 0;"><strong>Local Time</strong></td><td style="border: solid 1px black;border-left: 0; border-bottom: 0; padding: 10px;">10:00:38</td></tr>
        <tr><td style="padding: 10px; border: solid 1px black;border-bottom: 0;"><strong>Altitude</strong></td><td style="border: solid 1px black;border-left: 0; border-bottom: 0; padding: 10px;">39,951ft (12,177.1m)</td></tr>
        <tr><td style="padding: 10px; border: solid 1px black;"><strong>Coordinates</strong></td><td style="border: solid 1px black; border-left: 0; padding: 10px;">39.15666667, -103.36883333</td></tr>
        </table>
        ]]></description>
                    <styleUrl>#52</styleUrl>
                    <Point id="50">
                        <coordinates>-103.3688333333,39.1566666667,12177.06</coordinates>
                        <altitudeMode>absolute</altitudeMode>
                    </Point>
                </Placemark>
                <Placemark id="56">
                    <name>50k</name>
                    <description><![CDATA[
        <h1>Waypoint</h1>
        <table style="width: 100%;" cellpadding=0 cellspacing=0 border=0>
        <tr><td style="padding: 10px; border: solid 1px black;border-bottom: 0;"><strong>Local Time</strong></td><td style="border: solid 1px black;border-left: 0; border-bottom: 0; padding: 10px;">10:10:15</td></tr>
        <tr><td style="padding: 10px; border: solid 1px black;border-bottom: 0;"><strong>Altitude</strong></td><td style="border: solid 1px black;border-left: 0; border-bottom: 0; padding: 10px;">49,787ft (15,175.1m)</td></tr>
        <tr><td style="padding: 10px; border: solid 1px black;"><strong>Coordinates</strong></td><td style="border: solid 1px black; border-left: 0; padding: 10px;">39.14016667, -103.2135</td></tr>
        </table>
        ]]></description>
                    <styleUrl>#57</styleUrl>
                    <Point id="55">
                        <coordinates>-103.2135,39.1401666667,15175.08</coordinates>
                        <altitudeMode>absolute</altitudeMode>
                    </Point>
                </Placemark>
                <Placemark id="61">
                    <name>60k</name>
                    <description><![CDATA[
        <h1>Waypoint</h1>
        <table style="width: 100%;" cellpadding=0 cellspacing=0 border=0>
        <tr><td style="padding: 10px; border: solid 1px black;border-bottom: 0;"><strong>Local Time</strong></td><td style="border: solid 1px black;border-left: 0; border-bottom: 0; padding: 10px;">10:20:38</td></tr>
        <tr><td style="padding: 10px; border: solid 1px black;border-bottom: 0;"><strong>Altitude</strong></td><td style="border: solid 1px black;border-left: 0; border-bottom: 0; padding: 10px;">60,079ft (18,312.1m)</td></tr>
        <tr><td style="padding: 10px; border: solid 1px black;"><strong>Coordinates</strong></td><td style="border: solid 1px black; border-left: 0; padding: 10px;">39.12383333, -103.211</td></tr>
        </table>
        ]]></description>
                    <styleUrl>#62</styleUrl>
                    <Point id="60">
                        <coordinates>-103.211,39.1238333333,18312.08</coordinates>
                        <altitudeMode>absolute</altitudeMode>
                    </Point>
                </Placemark>
                <Placemark id="66">
                    <name>70k</name>
                    <description><![CDATA[
        <h1>Waypoint</h1>
        <table style="width: 100%;" cellpadding=0 cellspacing=0 border=0>
        <tr><td style="padding: 10px; border: solid 1px black;border-bottom: 0;"><strong>Local Time</strong></td><td style="border: solid 1px black;border-left: 0; border-bottom: 0; padding: 10px;">10:31:15</td></tr>
        <tr><td style="padding: 10px; border: solid 1px black;border-bottom: 0;"><strong>Altitude</strong></td><td style="border: solid 1px black;border-left: 0; border-bottom: 0; padding: 10px;">70,057ft (21,353.4m)</td></tr>
        <tr><td style="padding: 10px; border: solid 1px black;"><strong>Coordinates</strong></td><td style="border: solid 1px black; border-left: 0; padding: 10px;">39.11883333, -103.24783333</td></tr>
        </table>
        ]]></description>
                    <styleUrl>#67</styleUrl>
                    <Point id="65">
                        <coordinates>-103.2478333333,39.1188333333,21353.37</coordinates>
                        <altitudeMode>absolute</altitudeMode>
                    </Point>
                </Placemark>
                <Placemark id="71">
                    <name>80k</name>
                    <description><![CDATA[
        <h1>Waypoint</h1>
        <table style="width: 100%;" cellpadding=0 cellspacing=0 border=0>
        <tr><td style="padding: 10px; border: solid 1px black;border-bottom: 0;"><strong>Local Time</strong></td><td style="border: solid 1px black;border-left: 0; border-bottom: 0; padding: 10px;">10:41:15</td></tr>
        <tr><td style="padding: 10px; border: solid 1px black;border-bottom: 0;"><strong>Altitude</strong></td><td style="border: solid 1px black;border-left: 0; border-bottom: 0; padding: 10px;">79,834ft (24,333.4m)</td></tr>
        <tr><td style="padding: 10px; border: solid 1px black;"><strong>Coordinates</strong></td><td style="border: solid 1px black; border-left: 0; padding: 10px;">39.111, -103.305</td></tr>
        </table>
        ]]></description>
                    <styleUrl>#72</styleUrl>
                    <Point id="70">
                        <coordinates>-103.305,39.111,24333.4</coordinates>
                        <altitudeMode>absolute</altitudeMode>
                    </Point>
                </Placemark>
                <Placemark id="76">
                    <name>90k</name>
                    <description><![CDATA[
        <h1>Waypoint</h1>
        <table style="width: 100%;" cellpadding=0 cellspacing=0 border=0>
        <tr><td style="padding: 10px; border: solid 1px black;border-bottom: 0;"><strong>Local Time</strong></td><td style="border: solid 1px black;border-left: 0; border-bottom: 0; padding: 10px;">10:51:38</td></tr>
        <tr><td style="padding: 10px; border: solid 1px black;border-bottom: 0;"><strong>Altitude</strong></td><td style="border: solid 1px black;border-left: 0; border-bottom: 0; padding: 10px;">89,973ft (27,423.8m)</td></tr>
        <tr><td style="padding: 10px; border: solid 1px black;"><strong>Coordinates</strong></td><td style="border: solid 1px black; border-left: 0; padding: 10px;">39.10783333, -103.41316667</td></tr>
        </table>
        ]]></description>
                    <styleUrl>#77</styleUrl>
                    <Point id="75">
                        <coordinates>-103.4131666667,39.1078333333,27423.77</coordinates>
                        <altitudeMode>absolute</altitudeMode>
                    </Point>
                </Placemark>
                <Placemark id="81">
                    <name>10k</name>
                    <description><![CDATA[
        <h1>Waypoint</h1>
        <table style="width: 100%;" cellpadding=0 cellspacing=0 border=0>
        <tr><td style="padding: 10px; border: solid 1px black;border-bottom: 0;"><strong>Local Time</strong></td><td style="border: solid 1px black;border-left: 0; border-bottom: 0; padding: 10px;">11:44:08</td></tr>
        <tr><td style="padding: 10px; border: solid 1px black;border-bottom: 0;"><strong>Altitude</strong></td><td style="border: solid 1px black;border-left: 0; border-bottom: 0; padding: 10px;">9,913ft (3,021.5m)</td></tr>
        <tr><td style="padding: 10px; border: solid 1px black;"><strong>Coordinates</strong></td><td style="border: solid 1px black; border-left: 0; padding: 10px;">39.02466667, -103.158</td></tr>
        </table>
        ]]></description>
                    <styleUrl>#82</styleUrl>
                    <Point id="80">
                        <coordinates>-103.158,39.0246666667,3021.48</coordinates>
                        <altitudeMode>absolute</altitudeMode>
                    </Point>
                </Placemark>
                <Placemark id="86">
                    <name>20k</name>
                    <description><![CDATA[
        <h1>Waypoint</h1>
        <table style="width: 100%;" cellpadding=0 cellspacing=0 border=0>
        <tr><td style="padding: 10px; border: solid 1px black;border-bottom: 0;"><strong>Local Time</strong></td><td style="border: solid 1px black;border-left: 0; border-bottom: 0; padding: 10px;">11:33:15</td></tr>
        <tr><td style="padding: 10px; border: solid 1px black;border-bottom: 0;"><strong>Altitude</strong></td><td style="border: solid 1px black;border-left: 0; border-bottom: 0; padding: 10px;">20,002ft (6,096.6m)</td></tr>
        <tr><td style="padding: 10px; border: solid 1px black;"><strong>Coordinates</strong></td><td style="border: solid 1px black; border-left: 0; padding: 10px;">39.04216667, -103.19333333</td></tr>
        </table>
        ]]></description>
                    <styleUrl>#87</styleUrl>
                    <Point id="85">
                        <coordinates>-103.1933333333,39.0421666667,6096.61</coordinates>
                        <altitudeMode>absolute</altitudeMode>
                    </Point>
                </Placemark>
                <Placemark id="91">
                    <name>30k</name>
                    <description><![CDATA[
        <h1>Waypoint</h1>
        <table style="width: 100%;" cellpadding=0 cellspacing=0 border=0>
        <tr><td style="padding: 10px; border: solid 1px black;border-bottom: 0;"><strong>Local Time</strong></td><td style="border: solid 1px black;border-left: 0; border-bottom: 0; padding: 10px;">11:24:38</td></tr>
        <tr><td style="padding: 10px; border: solid 1px black;border-bottom: 0;"><strong>Altitude</strong></td><td style="border: solid 1px black;border-left: 0; border-bottom: 0; padding: 10px;">29,887ft (9,109.6m)</td></tr>
        <tr><td style="padding: 10px; border: solid 1px black;"><strong>Coordinates</strong></td><td style="border: solid 1px black; border-left: 0; padding: 10px;">39.06366667, -103.29033333</td></tr>
        </table>
        ]]></description>
                    <styleUrl>#92</styleUrl>
                    <Point id="90">
                        <coordinates>-103.2903333333,39.0636666667,9109.56</coordinates>
                        <altitudeMode>absolute</altitudeMode>
                    </Point>
                </Placemark>
                <Placemark id="96">
                    <name>40k</name>
                    <description><![CDATA[
        <h1>Waypoint</h1>
        <table style="width: 100%;" cellpadding=0 cellspacing=0 border=0>
        <tr><td style="padding: 10px; border: solid 1px black;border-bottom: 0;"><strong>Local Time</strong></td><td style="border: solid 1px black;border-left: 0; border-bottom: 0; padding: 10px;">11:17:15</td></tr>
        <tr><td style="padding: 10px; border: solid 1px black;border-bottom: 0;"><strong>Altitude</strong></td><td style="border: solid 1px black;border-left: 0; border-bottom: 0; padding: 10px;">40,030ft (12,201.1m)</td></tr>
        <tr><td style="padding: 10px; border: solid 1px black;"><strong>Coordinates</strong></td><td style="border: solid 1px black; border-left: 0; padding: 10px;">39.09466667, -103.45933333</td></tr>
        </table>
        ]]></description>
                    <styleUrl>#97</styleUrl>
                    <Point id="95">
                        <coordinates>-103.4593333333,39.0946666667,12201.14</coordinates>
                        <altitudeMode>absolute</altitudeMode>
                    </Point>
                </Placemark>
                <Placemark id="101">
                    <name>50k</name>
                    <description><![CDATA[
        <h1>Waypoint</h1>
        <table style="width: 100%;" cellpadding=0 cellspacing=0 border=0>
        <tr><td style="padding: 10px; border: solid 1px black;border-bottom: 0;"><strong>Local Time</strong></td><td style="border: solid 1px black;border-left: 0; border-bottom: 0; padding: 10px;">11:12:08</td></tr>
        <tr><td style="padding: 10px; border: solid 1px black;border-bottom: 0;"><strong>Altitude</strong></td><td style="border: solid 1px black;border-left: 0; border-bottom: 0; padding: 10px;">49,990ft (15,237.0m)</td></tr>
        <tr><td style="padding: 10px; border: solid 1px black;"><strong>Coordinates</strong></td><td style="border: solid 1px black; border-left: 0; padding: 10px;">39.10366667, -103.54</td></tr>
        </table>
        ]]></description>
                    <styleUrl>#102</styleUrl>
                    <Point id="100">
                        <coordinates>-103.54,39.1036666667,15236.95</coordinates>
                        <altitudeMode>absolute</altitudeMode>
                    </Point>
                </Placemark>
                <Placemark id="106">
                    <name>60k</name>
                    <description><![CDATA[
        <h1>Waypoint</h1>
        <table style="width: 100%;" cellpadding=0 cellspacing=0 border=0>
        <tr><td style="padding: 10px; border: solid 1px black;border-bottom: 0;"><strong>Local Time</strong></td><td style="border: solid 1px black;border-left: 0; border-bottom: 0; padding: 10px;">11:07:38</td></tr>
        <tr><td style="padding: 10px; border: solid 1px black;border-bottom: 0;"><strong>Altitude</strong></td><td style="border: solid 1px black;border-left: 0; border-bottom: 0; padding: 10px;">59,626ft (18,174.0m)</td></tr>
        <tr><td style="padding: 10px; border: solid 1px black;"><strong>Coordinates</strong></td><td style="border: solid 1px black; border-left: 0; padding: 10px;">39.10566667, -103.54033333</td></tr>
        </table>
        ]]></description>
                    <styleUrl>#107</styleUrl>
                    <Point id="105">
                        <coordinates>-103.5403333333,39.1056666667,18174.0</coordinates>
                        <altitudeMode>absolute</altitudeMode>
                    </Point>
                </Placemark>
                <Placemark id="111">
                    <name>70k</name>
                    <description><![CDATA[
        <h1>Waypoint</h1>
        <table style="width: 100%;" cellpadding=0 cellspacing=0 border=0>
        <tr><td style="padding: 10px; border: solid 1px black;border-bottom: 0;"><strong>Local Time</strong></td><td style="border: solid 1px black;border-left: 0; border-bottom: 0; padding: 10px;">11:04:08</td></tr>
        <tr><td style="padding: 10px; border: solid 1px black;border-bottom: 0;"><strong>Altitude</strong></td><td style="border: solid 1px black;border-left: 0; border-bottom: 0; padding: 10px;">70,088ft (21,362.8m)</td></tr>
        <tr><td style="padding: 10px; border: solid 1px black;"><strong>Coordinates</strong></td><td style="border: solid 1px black; border-left: 0; padding: 10px;">39.10866667, -103.52866667</td></tr>
        </table>
        ]]></description>
                    <styleUrl>#112</styleUrl>
                    <Point id="110">
                        <coordinates>-103.5286666667,39.1086666667,21362.82</coordinates>
                        <altitudeMode>absolute</altitudeMode>
                    </Point>
                </Placemark>
                <Placemark id="116">
                    <name>80k</name>
                    <description><![CDATA[
        <h1>Waypoint</h1>
        <table style="width: 100%;" cellpadding=0 cellspacing=0 border=0>
        <tr><td style="padding: 10px; border: solid 1px black;border-bottom: 0;"><strong>Local Time</strong></td><td style="border: solid 1px black;border-left: 0; border-bottom: 0; padding: 10px;">11:01:45</td></tr>
        <tr><td style="padding: 10px; border: solid 1px black;border-bottom: 0;"><strong>Altitude</strong></td><td style="border: solid 1px black;border-left: 0; border-bottom: 0; padding: 10px;">79,808ft (24,325.5m)</td></tr>
        <tr><td style="padding: 10px; border: solid 1px black;"><strong>Coordinates</strong></td><td style="border: solid 1px black; border-left: 0; padding: 10px;">39.1115, -103.51716667</td></tr>
        </table>
        ]]></description>
                    <styleUrl>#117</styleUrl>
                    <Point id="115">
                        <coordinates>-103.5171666667,39.1115,24325.48</coordinates>
                        <altitudeMode>absolute</altitudeMode>
                    </Point>
                </Placemark>
                <Placemark id="121">
                    <name>90k</name>
                    <description><![CDATA[
        <h1>Waypoint</h1>
        <table style="width: 100%;" cellpadding=0 cellspacing=0 border=0>
        <tr><td style="padding: 10px; border: solid 1px black;border-bottom: 0;"><strong>Local Time</strong></td><td style="border: solid 1px black;border-left: 0; border-bottom: 0; padding: 10px;">10:59:45</td></tr>
        <tr><td style="padding: 10px; border: solid 1px black;border-bottom: 0;"><strong>Altitude</strong></td><td style="border: solid 1px black;border-left: 0; border-bottom: 0; padding: 10px;">90,324ft (27,530.8m)</td></tr>
        <tr><td style="padding: 10px; border: solid 1px black;"><strong>Coordinates</strong></td><td style="border: solid 1px black; border-left: 0; padding: 10px;">39.111, -103.49633333</td></tr>
        </table>
        ]]></description>
                    <styleUrl>#122</styleUrl>
                    <Point id="120">
                        <coordinates>-103.4963333333,39.111,27530.76</coordinates>
                        <altitudeMode>absolute</altitudeMode>
                    </Point>
                </Placemark>
            </Folder>
            <Folder id="5">
                <Style id="16">
                    <IconStyle id="17">
                        <color>ff008cff</color>
                        <colorMode>normal</colorMode>
                        <scale>1</scale>
                        <heading>0</heading>
                        <Icon id="18">
                            <href>https://maps.google.com/mapfiles/kml/shapes/placemark_circle.png</href>
                        </Icon>
                    </IconStyle>
                </Style>
                <Style id="21">
                    <IconStyle id="22">
                        <color>ff008cff</color>
                        <colorMode>normal</colorMode>
                        <scale>1</scale>
                        <heading>0</heading>
                        <Icon id="23">
                            <href>https://maps.google.com/mapfiles/kml/shapes/placemark_circle.png</href>
                        </Icon>
                    </IconStyle>
                </Style>
                <Style id="26">
                    <IconStyle id="27">
                        <color>ff00ffff</color>
                        <colorMode>normal</colorMode>
                        <scale>1</scale>
                        <heading>0</heading>
                        <Icon id="28">
                            <href>https://maps.google.com/mapfiles/kml/shapes/placemark_circle.png</href>
                        </Icon>
                    </IconStyle>
                </Style>
                <Style id="31">
                    <IconStyle id="32">
                        <color>ff006400</color>
                        <colorMode>normal</colorMode>
                        <scale>1</scale>
                        <heading>0</heading>
                        <Icon id="33">
                            <href>https://maps.google.com/mapfiles/kml/shapes/placemark_circle.png</href>
                        </Icon>
                    </IconStyle>
                    <LabelStyle id="34">
                        <color>ff006400</color>
                        <colorMode>normal</colorMode>
                        <scale>1</scale>
                    </LabelStyle>
                </Style>
                <name>Points of Interest</name>
                <Placemark id="15">
                    <name>Launch</name>
                    <description><![CDATA[
    <h1>Launch</h1>
    <table style="width: 100%;" cellpadding=0 cellspacing=0 border=0>
    <tr><td style="padding: 10px; border: solid 1px black;border-bottom: 0;"><strong>Local Time</strong></td><td style="border: solid 1px black;border-bottom: 0; border-left: 0; padding: 10px;">09:30:15</td></tr>
    <tr><td style="padding: 10px; border: solid 1px black;border-bottom: 0;"><strong>Altitude</strong></td><td style="border: solid 1px black;border-left: 0; border-bottom: 0; padding: 10px;">5,395ft (1,644.4m)</td></tr>
    <tr><td style="padding: 10px; border: solid 1px black;"><strong>Coordinates</strong></td><td style="border: solid 1px black; border-left: 0; padding: 10px;">39.236, -103.697</td></tr>
    </table>
    ]]></description>
                    <styleUrl>#16</styleUrl>
                    <Point id="14">
                        <coordinates>-103.697,39.236,1644.4</coordinates>
                        <altitudeMode>absolute</altitudeMode>
                    </Point>
                </Placemark>
                <Placemark id="20">
                    <name>Landing</name>
                    <description><![CDATA[
    <h1>Landing</h1>
    <table style="width: 100%;" cellpadding=0 cellspacing=0 border=0>
    <tr><td style="padding: 10px; border: solid 1px black;border-bottom: 0;"><strong>Local Time</strong></td><td style="border: solid 1px black;border-left: 0; border-bottom: 0; padding: 10px;">11:50:08</td></tr>
    <tr><td style="padding: 10px; border: solid 1px black;border-bottom: 0;"><strong>Altitude</strong></td><td style="border: solid 1px black;border-bottom: 0; border-left: 0; padding: 10px;">5,143ft (1,567.6m)</td></tr>
    <tr><td style="padding: 10px; border: solid 1px black;"><strong>Coordinates</strong></td><td style="border: solid 1px black; border-left: 0; padding: 10px;">39.03833333, -103.1405</td></tr>
    </table>
    ]]></description>
                    <styleUrl>#21</styleUrl>
                    <Point id="19">
                        <coordinates>-103.1405,39.0383333333,1567.59</coordinates>
                        <altitudeMode>absolute</altitudeMode>
                    </Point>
                </Placemark>
                <Placemark id="25">
                    <name>Burst 96,468ft</name>
                    <description><![CDATA[
    <h1>Burst: 96,468ft</h1>
    <table style="width: 100%;" cellpadding=0 cellspacing=0 border=0>
    <tr><td style="padding: 10px; border: solid 1px black;border-bottom: 0;"><strong>Local Time</strong></td><td style="border: solid 1px black;border-left: 0; border-bottom: 0; padding: 10px;">10:58:45</td></tr>
    <tr><td style="padding: 10px; border: solid 1px black;border-bottom: 0;"><strong>Altitude</strong></td><td style="border: solid 1px black;border-left: 0; border-bottom: 0; padding: 10px;">96,468ft (29,403.4m)</td></tr>
    <tr><td style="padding: 10px; border: solid 1px black;"><strong>Coordinates</strong></td><td style="border: solid 1px black; border-left: 0; padding: 10px;">39.109, -103.48533333</td></tr>
    </table>
    ]]></description>
                    <styleUrl>#26</styleUrl>
                    <Point id="24">
                        <coordinates>-103.4853333333,39.109,29403.45</coordinates>
                        <altitudeMode>absolute</altitudeMode>
                    </Point>
                </Placemark>
                <Placemark id="30">
                    <name>52k, Turbulent-to-Laminar</name>
                    <description><![CDATA[
        <h1>Airflow Transitioning from Turbulent-to-Laminar</h1>
        <table style="width: 100%;" cellpadding=0 cellspacing=0 border=0>
        <tr><td style="padding: 10px; border: solid 1px black;border-bottom: 0;"><strong>Local Time</strong></td><td style="border: solid 1px black;border-left: 0; border-bottom: 0; padding: 10px;">10:11:45</td></tr>
        <tr><td style="padding: 10px; border: solid 1px black;border-bottom: 0;"><strong>Altitude</strong></td><td style="border: solid 1px black;border-left: 0; border-bottom: 0; padding: 10px;">51,661ft (15,746.3m)</td></tr>
        <tr><td style="padding: 10px; border: solid 1px black;"><strong>Coordinates</strong></td><td style="border: solid 1px black; border-left: 0; padding: 10px;">39.13866667, -103.204</td></tr>
        </table>
        ]]></description>
                    <styleUrl>#31</styleUrl>
                    <Point id="29">
                        <coordinates>-103.204,39.1386666667,15746.27</coordinates>
                        <altitudeMode>absolute</altitudeMode>
                    </Point>
                </Placemark>
            </Folder>
        </Document>
    </Document>
</kml>
