<?xml version="1.0" encoding="UTF-8"?>
<kml xmlns="http://www.opengis.net/kml/2.2" xmlns:gx="http://www.google.com/kml/ext/2.2">
    <Document id="1">
        <Document id="2">
            <name>EOSS-314</name>
            <description><![CDATA[
    <h1>EOSS-314</h1>
    <table style="width: 100%;" cellpadding=0 cellspacing=0 border=0>
    <tr><td style="border: solid 1px black;border-bottom: 0; padding: 10px;"><strong>Launch Local Date/Time</strong></td><td style=" padding: 10px;border: solid 1px black;border-bottom: 0; border-left: 0;">2021-08-01 07:39:45</td></tr>
    <tr><td style="border: solid 1px black;border-bottom: 0; padding: 10px;"><strong>Flight Duration</strong></td><td style=" padding: 10px;border: solid 1px black;border-bottom: 0; border-left: 0; ">2hrs 14mins 0secs</td></tr>
    <tr><td style="border: solid 1px black;border-bottom: 0; padding: 10px;"><strong>Down Range Distance</strong></td><td style=" padding: 10px;border: solid 1px black;border-bottom: 0; border-left: 0; ">22.7mi (36.6km)</td></tr>
    <tr><td style="border: solid 1px black; padding: 10px;"><strong>Approx. Burst Altitude</strong></td><td style=" padding: 10px;border: solid 1px black; border-left: 0; ">97,198ft (29,626.0m)</td></tr>
    </table>
    ]]></description>
            <Folder id="3">
                <Style id="8">
                    <LineStyle id="9">
                        <color>ff0000ff</color>
                        <colorMode>normal</colorMode>
                        <width>3</width>
                    </LineStyle>
                </Style>
                <Style id="12">
                    <LineStyle id="13">
                        <color>ffff0000</color>
                        <colorMode>normal</colorMode>
                        <width>3</width>
                    </LineStyle>
                </Style>
                <name>Paths</name>
                <Placemark id="7">
                    <name>EOSS-314 Ascent</name>
                    <styleUrl>#8</styleUrl>
                    <LineString id="6">
                        <extrude>0</extrude>
                        <altitudeMode>absolute</altitudeMode>
                        <coordinates>-103.4953333333,39.2783333333,1708.71 -103.49545,39.2780666667,1716.33 -103.4955,39.278,1769.67 -103.49665,39.2777166667,1909.27 -103.4968333333,39.2776666667,1937.92 -103.4982333333,39.2775166667,2074.16 -103.4983333333,39.2776666667,2106.78 -103.49965,39.2776333333,2237.23 -103.4998333333,39.2775,2271.98 -103.5011,39.2775166667,2426.21 -103.5015,39.2775,2457.91 -103.5029333333,39.2775166667,2614.27 -103.5031666667,39.2773333333,2642.62 -103.5052166667,39.2772,2759.35 -103.5055,39.2771666667,2785.26 -103.50735,39.2774,2923.34 -103.5075,39.2773333333,2953.21 -103.5091666667,39.2766,3072.38 -103.5093333333,39.2763333333,3107.44 -103.5114,39.2759166667,3270.5 -103.5115,39.2756666667,3309.82 -103.5125666667,39.27475,3454.3 -103.5128333333,39.2746666667,3495.14 -103.51365,39.2735,3642.36 -103.5138333333,39.2731666667,3677.41 -103.51415,39.2717,3821.58 -103.5145,39.2715,3853.59 -103.51605,39.2706666667,3970.63 -103.5165,39.2705,4007.82 -103.51725,39.2698833333,4143.45 -103.5175,39.2698333333,4179.11 -103.5175333333,39.2687833333,4314.44 -103.5175,39.2686666667,4353.46 -103.5176333333,39.26815,4489.7 -103.5173333333,39.2681666667,4522.93 -103.5162833333,39.26735,4640.58 -103.5163333333,39.2673333333,4668.32 -103.5160333333,39.26655,4825.59 -103.516,39.2663333333,4861.86 -103.5163833333,39.26475,4972.51 -103.5165,39.2645,4999.94 -103.5160166667,39.2632333333,5124.6 -103.5158333333,39.2631666667,5155.08 -103.5148333333,39.2618333333,5349.54 -103.5135,39.2609666667,5480.61 -103.5133333333,39.2606666667,5509.56 -103.51225,39.2595833333,5642.76 -103.512,39.2593333333,5674.46 -103.5110166667,39.2573333333,5839.66 -103.511,39.257,5875.63 -103.50995,39.2557166667,6017.67 -103.51,39.2556666667,6049.98 -103.5096833333,39.2549833333,6192.93 -103.5096666667,39.2548333333,6234.38 -103.5093833333,39.25385,6382.82 -103.5095,39.2538333333,6425.18 -103.5099166667,39.2527833333,6550.76 -103.51,39.2528333333,6583.38 -103.5113333333,39.2508333333,6741.26 -103.51215,39.249,6860.74 -103.512,39.2486666667,6893.05 -103.5113333333,39.2473333333,7043.93 -103.511,39.2456166667,7193.89 -103.5111666667,39.2453333333,7220.71 -103.5114166667,39.24355,7332.88 -103.5115,39.2431666667,7362.75 -103.512,39.2420333333,7473.09 -103.512,39.2416666667,7504.79 -103.5118333333,39.24,7666.63 -103.5118,39.2383833333,7815.07 -103.5118333333,39.238,7843.11 -103.5112333333,39.2374833333,7958.94 -103.511,39.2373333333,7986.37 -103.5095333333,39.2370333333,8104.94 -103.5093333333,39.237,8136.33 -103.5081666667,39.2355833333,8253.98 -103.508,39.2355,8295.44 -103.50755,39.2342333333,8453.93 -103.5071666667,39.234,8483.19 -103.50595,39.2328,8627.06 -103.5056666667,39.2326666667,8656.62 -103.5044833333,39.2313666667,8790.13 -103.5045,39.2311666667,8822.74 -103.5048333333,39.2295333333,8961.12 -103.5048333333,39.2291666667,8992.82 -103.5038666667,39.2268833333,9141.26 -103.5038333333,39.2266666667,9178.75 -103.5026333333,39.2247666667,9310.12 -103.5025,39.2245,9347.3 -103.5022833333,39.22305,9496.04 -103.5021666667,39.2226666667,9524.09 -103.5009,39.2206333333,9681.36 -103.5006666667,39.2205,9710.62 -103.4988333333,39.2183333333,9899.29 -103.497,39.2166666667,10090.4 -103.49575,39.2149333333,10254.39 -103.4955,39.2146666667,10283.34 -103.49325,39.2128666667,10465.31 -103.4926666667,39.2125,10498.84 -103.49055,39.2104,10643.31 -103.4903333333,39.2101666667,10675.01 -103.4894166667,39.20835,10804.25 -103.4893333333,39.2081666667,10835.03 -103.48845,39.2068666667,10961.52 -103.4883333333,39.2066666667,10991.39 -103.48645,39.2058,11120.32 -103.4863333333,39.2056666667,11151.41 -103.4853833333,39.2039,11279.43 -103.4853333333,39.2036666667,11316.92 -103.4845333333,39.2024333333,11453.47 -103.4841666667,39.2021666667,11495.53 -103.4813666667,39.2003,11634.52 -103.481,39.2,11670.79 -103.4790166667,39.1987333333,11834.47 -103.4786666667,39.1986666667,11875.92 -103.4758333333,39.1968666667,12035.64 -103.4753333333,39.1965,12066.42 -103.4738,39.1949,12218.52 -103.4736666667,39.1946666667,12252.05 -103.4707666667,39.1931833333,12397.44 -103.4703333333,39.1931666667,12437.67 -103.4682,39.1922166667,12563.55 -103.4678333333,39.192,12596.16 -103.4651166667,39.19105,12774.47 -103.4648333333,39.1908333333,12802.82 -103.4631166667,39.1892333333,12936.63 -103.4628333333,39.189,12963.45 -103.4600333333,39.1874333333,13085.67 -103.4596666667,39.1873333333,13113.72 -103.4568,39.1858666667,13260.63 -103.4563333333,39.1856666667,13296.9 -103.4537333333,39.1848833333,13472.77 -103.4533333333,39.1846666667,13500.81 -103.4508,39.1843166667,13632.79 -103.4505,39.1843333333,13680.64 -103.4480166667,39.1835333333,13852.86 -103.4473333333,39.1833333333,13881.51 -103.4436666667,39.1828,14006.78 -103.4431666667,39.1825,14037.26 -103.4405833333,39.1801333333,14186.92 -103.4403333333,39.1798333333,14219.22 -103.4393666667,39.1772166667,14363.7 -103.4391666667,39.1766666667,14398.14 -103.4382,39.1744,14550.85 -103.438,39.1741666667,14602.66 -103.4367166667,39.1723333333,14770.91 -103.4366666667,39.1721666667,14804.44 -103.4363333333,39.1705166667,14942.82 -103.4363333333,39.1703333333,14973.91 -103.4352,39.1696333333,15129.97 -103.4348333333,39.1696666667,15167.15 -103.433,39.1688333333,15327.78 -103.4303333333,39.168,15482.32 -103.4276666667,39.1669833333,15610.03 -103.4273333333,39.167,15643.86 -103.4242333333,39.16535,15823.08 -103.424,39.1651666667,15851.43 -103.4226333333,39.1621833333,15984.02 -103.4225,39.1616666667,16014.19 -103.4216333333,39.1581333333,16151.05 -103.4215,39.1576666667,16180.61 -103.4211833333,39.1546166667,16315.94 -103.4211666667,39.1541666667,16347.64 -103.4199833333,39.1513333333,16511.93 -103.42,39.1508333333,16542.11 -103.4209,39.14765,16728.95 -103.4211666667,39.1471666667,16754.86 -103.4226333333,39.1447833333,16880.13 -103.423,39.1445,16905.73 -103.4252666667,39.1427333333,17022.17 -103.4255,39.1425,17048.38 -103.42705,39.14085,17161.15 -103.4273333333,39.1405,17188.89 -103.4285333333,39.1387333333,17307.15 -103.4286666667,39.1386666667,17336.72 -103.4302166667,39.1373833333,17454.07 -103.4303333333,39.1371666667,17487.29 -103.4317833333,39.1364333333,17626.28 -103.432,39.1365,17662.86 -103.4327666667,39.1370333333,17823.18 -103.4326666667,39.137,17858.54 -103.4319833333,39.1373666667,17999.35 -103.4318333333,39.1375,18036.24 -103.4322666667,39.1370666667,18232.22 -103.4321666667,39.1368333333,18261.79 -103.4334166667,39.1350666667,18417.24 -103.4336666667,39.1346666667,18449.85 -103.4351666667,39.1332666667,18575.43 -103.4355,39.1331666667,18602.55 -103.4364333333,39.13255,18724.47 -103.4363333333,39.1323333333,18756.48 -103.4372833333,39.1309166667,18883.27 -103.4376666667,39.1306666667,18912.23 -103.4394333333,39.1286666667,19040.25 -103.4395,39.1285,19072.25 -103.44085,39.1270666667,19200.27 -103.4411666667,39.1268333333,19230.44 -103.4430166667,39.1248333333,19362.42 -103.4435,39.1245,19386.5 -103.44645,39.1228833333,19512.38 -103.4468333333,39.1226666667,19539.2 -103.4489166667,39.1219333333,19670.57 -103.4493333333,39.1218333333,19700.44 -103.4503833333,39.1214,19826.63 -103.4505,39.1213333333,19858.33 -103.4510833333,39.1200333333,19995.49 -103.4513333333,39.1198333333,20025.06 -103.4536666667,39.1181666667,20197.88 -103.4553333333,39.1161666667,20360.64 -103.4572666667,39.11385,20495.67 -103.4575,39.1135,20529.5 -103.4604666667,39.1122833333,20666.66 -103.4608333333,39.112,20693.18 -103.4638666667,39.1105666667,20820.58 -103.4646666667,39.1103333333,20848.02 -103.4694166667,39.1098333333,20972.68 -103.47,39.1098333333,21000.42 -103.4735666667,39.1103,21129.65 -103.4741666667,39.1103333333,21158.91 -103.47755,39.1108166667,21297.6 -103.478,39.111,21329.29 -103.4807833333,39.1114833333,21485.66 -103.4811666667,39.1115,21516.44 -103.4831833333,39.1111333333,21657.56 -103.4836666667,39.111,21688.04 -103.4860833333,39.1099666667,21821.85 -103.4863333333,39.1098333333,21849.59 -103.4882833333,39.10905,21974.86 -103.4886666667,39.1088333333,22001.38 -103.4909833333,39.1077666667,22116.9 -103.4915,39.1076666667,22147.99 -103.49525,39.1067166667,22264.73 -103.4958333333,39.1066666667,22294.9 -103.4991333333,39.1057666667,22412.86 -103.4995,39.1058333333,22445.78 -103.5026,39.1057,22577.76 -103.5031666667,39.1056666667,22609.15 -103.5062,39.1051166667,22756.98 -103.5068333333,39.1051666667,22781.36 -103.5101666667,39.1049666667,22949.92 -103.5108333333,39.1051666667,22973.39 -103.5135166667,39.1055833333,23124.87 -103.514,39.1058333333,23147.12 -103.5161333333,39.1071333333,23298.0 -103.5166666667,39.1073333333,23329.7 -103.5184,39.1087833333,23479.96 -103.5186666667,39.109,23508.31 -103.52,39.1099833333,23646.08 -103.5203333333,39.11,23677.17 -103.5226333333,39.1097666667,23817.99 -103.523,39.1096666667,23845.11 -103.5259833333,39.1094,23970.08 -103.5261666667,39.1095,23995.38 -103.5283333333,39.1093666667,24117.91 -103.5286666667,39.1091666667,24145.34 -103.5308833333,39.1083333333,24275.19 -103.5313333333,39.108,24307.8 -103.5341333333,39.10605,24448.01 -103.5346666667,39.106,24472.7 -103.5382333333,39.1047333333,24613.21 -103.5386666667,39.1046666667,24638.81 -103.5425,39.104,24804.93 -103.5463333333,39.1043333333,24964.95 -103.5496666667,39.1046666667,25123.44 -103.5528833333,39.1040666667,25255.12 -103.5535,39.1041666667,25284.38 -103.5573833333,39.1038,25410.26 -103.558,39.1036666667,25439.22 -103.5615,39.1038333333,25596.8 -103.5642166667,39.1039666667,25735.18 -103.5646666667,39.1038333333,25762.31 -103.5671833333,39.1032833333,25900.38 -103.5675,39.1031666667,25933.6 -103.5706166667,39.10225,26080.21 -103.5713333333,39.102,26111.0 -103.57515,39.10125,26266.14 -103.5756666667,39.1011666667,26298.75 -103.5791166667,39.1009333333,26452.37 -103.5796666667,39.101,26481.33 -103.5829166667,39.1015,26632.2 -103.5831666667,39.1016666667,26662.38 -103.5861333333,39.1023,26799.24 -103.5865,39.1023333333,26827.58 -103.58995,39.1019333333,26953.46 -103.5905,39.1018333333,26975.41 -103.5951666667,39.101,27126.59 -103.59875,39.1008833333,27248.51 -103.5993333333,39.1008333333,27278.08 -103.6016666667,39.1004,27409.44 -103.6021666667,39.1003333333,27434.44 -103.60445,39.0993833333,27559.41 -103.6048333333,39.0991666667,27589.28 -103.6093333333,39.098,27750.52 -103.61475,39.097,27896.52 -103.6156666667,39.097,27930.04 -103.6208166667,39.0963833333,28075.43 -103.6216666667,39.0963333333,28112.01 -103.6257333333,39.0959833333,28265.63 -103.6265,39.096,28302.81 -103.63065,39.09555,28463.44 -103.6311666667,39.0953333333,28498.19 -103.6359666667,39.0951666667,28655.47 -103.6366666667,39.095,28688.69 -103.6412333333,39.0951166667,28833.47 -103.6418333333,39.0951666667,28866.08 -103.6464333333,39.0953833333,29001.72 -103.647,39.0955,29028.24 -103.6506833333,39.0951,29151.68 -103.6511666667,39.095,29174.54 -103.65535,39.09415,29286.71 -103.656,39.0941666667,29302.86 -103.6605833333,39.0937166667,29435.76 -103.6613333333,39.0936666667,29459.83 -103.6651666667,39.0930666667,29594.56 -103.666,39.093,29625.95</coordinates>
                    </LineString>
                </Placemark>
                <Placemark id="11">
                    <name>EOSS-314 Descent</name>
                    <styleUrl>#12</styleUrl>
                    <LineString id="10">
                        <extrude>0</extrude>
                        <altitudeMode>absolute</altitudeMode>
                        <coordinates>-103.666,39.093,29625.95 -103.6699333333,39.0921833333,29062.68 -103.6706666667,39.092,28943.81 -103.6750833333,39.0916666667,28153.46 -103.6758333333,39.0915,28044.95 -103.6793,39.09115,27278.38 -103.6795,39.091,27173.83 -103.6828333333,39.0908833333,26453.29 -103.6833333333,39.0908333333,26356.97 -103.6865,39.0904,25698.3 -103.6871666667,39.0903333333,25605.33 -103.6907666667,39.0902166667,24975.01 -103.6911666667,39.0901666667,24884.79 -103.6949333333,39.089,24294.08 -103.6951666667,39.0888333333,24212.4 -103.6972666667,39.0884333333,23630.84 -103.6978333333,39.0885,23553.72 -103.7000833333,39.0894166667,22999.9 -103.7003333333,39.0893333333,22925.53 -103.7035,39.0895,22392.74 -103.7038333333,39.0895,22322.03 -103.7060333333,39.0890166667,21807.83 -103.7065,39.089,21741.69 -103.7087833333,39.0888833333,21245.78 -103.7095,39.0888333333,21182.38 -103.714,39.0892666667,20712.68 -103.7143333333,39.0891666667,20654.16 -103.7173333333,39.0878,20221.65 -103.7178333333,39.0875,20162.52 -103.7199666667,39.0859833333,19760.49 -103.72,39.086,19704.71 -103.723,39.0849666667,19316.4 -103.7231666667,39.0845,19267.63 -103.7251666667,39.0826666667,18856.15 -103.7267833333,39.0809333333,18500.45 -103.7271666667,39.0803333333,18451.98 -103.7275166667,39.0788166667,18104.21 -103.7275,39.0788333333,18051.17 -103.7278333333,39.079,17663.16 -103.72875,39.0780666667,17365.07 -103.7288333333,39.0776666667,17322.09 -103.7300166667,39.07735,17011.19 -103.7301666667,39.0771666667,16968.83 -103.7314333333,39.0762166667,16659.15 -103.7318333333,39.0758333333,16618.92 -103.7317666667,39.0737333333,16321.13 -103.7318333333,39.0731666667,16285.16 -103.7313333333,39.0705,15971.82 -103.7312333333,39.0678,15699.03 -103.731,39.0676666667,15668.24 -103.7293,39.0662166667,15408.86 -103.7293333333,39.0661666667,15380.21 -103.72825,39.0654833333,15128.75 -103.7281666667,39.0651666667,15102.23 -103.7277666667,39.0635833333,14853.82 -103.7275,39.0633333333,14828.22 -103.7265166667,39.06115,14580.72 -103.7265,39.0608333333,14555.42 -103.7246,39.0585,14316.76 -103.7241666667,39.058,14293.9 -103.72005,39.0563333333,14064.69 -103.7193333333,39.0563333333,14039.39 -103.7151,39.0554166667,13808.66 -103.7146666667,39.0551666667,13785.8 -103.7127166667,39.0541333333,13564.82 -103.7121666667,39.054,13542.57 -103.7094833333,39.05225,13320.67 -103.7091666667,39.052,13300.56 -103.70655,39.0502833333,13084.76 -103.7058333333,39.0498333333,13063.42 -103.7023333333,39.0481666667,12831.17 -103.6990333333,39.0466166667,12623.6 -103.6985,39.0461666667,12605.0 -103.6952333333,39.0449833333,12399.57 -103.6948333333,39.045,12381.28 -103.6906666667,39.0438333333,12149.63 -103.6872666667,39.0424333333,11932.62 -103.6868333333,39.0423333333,11913.72 -103.6840333333,39.041,11715.6 -103.6838333333,39.0408333333,11697.31 -103.6816666667,39.0397,11496.45 -103.6815,39.0395,11480.9 -103.67975,39.0381166667,11283.39 -103.6793333333,39.038,11264.19 -103.6778333333,39.0364166667,11061.5 -103.6775,39.036,11045.34 -103.6757333333,39.0343833333,10848.44 -103.6756666667,39.0343333333,10831.68 -103.6738666667,39.0329333333,10634.47 -103.6735,39.0328333333,10617.71 -103.6713333333,39.0311666667,10408.01 -103.6694333333,39.0297,10218.42 -103.6693333333,39.0295,10201.35 -103.6678333333,39.0276666667,9993.48 -103.6666333333,39.02625,9807.24 -103.6665,39.0261666667,9787.74 -103.6653333333,39.0247833333,9606.08 -103.665,39.0245,9587.79 -103.6633833333,39.0232166667,9408.26 -103.6631666667,39.0231666667,9389.97 -103.6618333333,39.0219666667,9213.19 -103.6616666667,39.0216666667,9194.6 -103.6603333333,39.0204,9019.03 -103.66,39.0203333333,8998.0 -103.6585,39.019,8803.23 -103.6575,39.0176833333,8630.11 -103.6573333333,39.0173333333,8609.69 -103.6565666667,39.01625,8435.04 -103.6566666667,39.0161666667,8415.53 -103.65605,39.0157666667,8246.06 -103.6558333333,39.0156666667,8228.69 -103.6553333333,39.0148333333,8048.24 -103.6548833333,39.0141166667,7887.0 -103.6548333333,39.014,7872.98 -103.6552166667,39.0127,7709.92 -103.6553333333,39.0126666667,7696.81 -103.6555,39.0115,7524.29 -103.6557,39.01025,7361.83 -103.6555,39.0101666667,7353.6 -103.6556,39.00895,7205.78 -103.6555666667,39.0078,7031.74 -103.6558333333,39.0075,7024.12 -103.6558333333,39.0067333333,6876.9 -103.656,39.0065,6862.57 -103.65615,39.0058833333,6707.73 -103.6563333333,39.0058333333,6700.42 -103.6562166667,39.0054,6547.71 -103.6563333333,39.0051666667,6542.53 -103.6563333333,39.0045,6381.29 -103.6566166667,39.0037666667,6234.68 -103.6565,39.0036666667,6227.98 -103.6565333333,39.0022833333,6085.64 -103.6565,39.0021666667,6067.04 -103.6562333333,39.0000666667,5909.77 -103.6561666667,38.9998333333,5903.98 -103.65585,38.9977833333,5754.62 -103.656,38.9976666667,5739.08 -103.65535,38.9964666667,5591.56 -103.6555,38.9963333333,5582.11 -103.6546666667,38.995,5424.53 -103.6543333333,38.9931666667,5269.99 -103.6541666667,38.99175,5125.52 -103.6543333333,38.9915,5120.34 -103.6548833333,38.99045,4985.61 -103.6551666667,38.9901666667,4974.64 -103.6551666667,38.9891666667,4830.78 -103.65445,38.98875,4686.6 -103.6541666667,38.9888333333,4686.91 -103.6533,38.9880166667,4558.59 -103.6531666667,38.988,4541.82 -103.6523833333,38.9870166667,4417.47 -103.6523333333,38.987,4402.84 -103.6513666667,38.9861166667,4260.49 -103.6513333333,38.986,4263.54 -103.6503333333,38.9849666667,4133.39 -103.6503333333,38.9848333333,4125.47 -103.6502666667,38.9838,4000.5 -103.6501666667,38.9836666667,3991.66 -103.6509333333,38.98305,3852.37 -103.651,38.9828333333,3855.42 -103.65195,38.9821666667,3730.45 -103.6518333333,38.982,3721.0 -103.6525166667,38.9807833333,3605.48 -103.6523333333,38.9806666667,3585.36 -103.6526,38.9793,3459.48 -103.6526666667,38.9793333333,3452.16 -103.65345,38.9784833333,3311.35 -103.6538333333,38.9785,3315.61 -103.6551166667,38.97805,3191.26 -103.6555,38.9778333333,3180.59 -103.6572833333,38.97765,3062.33 -103.6575,38.9775,3048.61 -103.6593166667,38.9772833333,2918.46 -103.6595,38.9773333333,2915.11 -103.661,38.9769833333,2789.22 -103.6615,38.977,2785.87 -103.6629,38.9769666667,2672.49 -103.6631666667,38.9768333333,2655.42 -103.6644833333,38.9769166667,2530.45 -103.6645,38.977,2526.18 -103.6652166667,38.9772166667,2408.22 -103.6655,38.9771666667,2403.65 -103.6663333333,38.9773166667,2288.44 -103.6663333333,38.9771666667,2272.28 -103.6669833333,38.9773333333,2136.34 -103.6671666667,38.9771666667,2126.89 -103.66775,38.97745,1988.21 -103.668,38.9776666667,1967.48 -103.669,38.9781666667,1819.05 -103.6696333333,38.9784333333,1684.32 -103.6698333333,38.9785,1676.7</coordinates>
                    </LineString>
                </Placemark>
            </Folder>
            <Folder id="4">
                <Style id="43">
                    <IconStyle id="44">
                        <color>ff0000ff</color>
                        <colorMode>normal</colorMode>
                        <scale>1</scale>
                        <heading>0</heading>
                        <Icon id="45">
                            <href>https://maps.google.com/mapfiles/kml/shapes/placemark_circle.png</href>
                        </Icon>
                    </IconStyle>
                </Style>
                <Style id="48">
                    <IconStyle id="49">
                        <color>ff0000ff</color>
                        <colorMode>normal</colorMode>
                        <scale>1</scale>
                        <heading>0</heading>
                        <Icon id="50">
                            <href>https://maps.google.com/mapfiles/kml/shapes/placemark_circle.png</href>
                        </Icon>
                    </IconStyle>
                </Style>
                <Style id="53">
                    <IconStyle id="54">
                        <color>ff0000ff</color>
                        <colorMode>normal</colorMode>
                        <scale>1</scale>
                        <heading>0</heading>
                        <Icon id="55">
                            <href>https://maps.google.com/mapfiles/kml/shapes/placemark_circle.png</href>
                        </Icon>
                    </IconStyle>
                </Style>
                <Style id="58">
                    <IconStyle id="59">
                        <color>ff0000ff</color>
                        <colorMode>normal</colorMode>
                        <scale>1</scale>
                        <heading>0</heading>
                        <Icon id="60">
                            <href>https://maps.google.com/mapfiles/kml/shapes/placemark_circle.png</href>
                        </Icon>
                    </IconStyle>
                </Style>
                <Style id="63">
                    <IconStyle id="64">
                        <color>ff0000ff</color>
                        <colorMode>normal</colorMode>
                        <scale>1</scale>
                        <heading>0</heading>
                        <Icon id="65">
                            <href>https://maps.google.com/mapfiles/kml/shapes/placemark_circle.png</href>
                        </Icon>
                    </IconStyle>
                </Style>
                <Style id="68">
                    <IconStyle id="69">
                        <color>ff0000ff</color>
                        <colorMode>normal</colorMode>
                        <scale>1</scale>
                        <heading>0</heading>
                        <Icon id="70">
                            <href>https://maps.google.com/mapfiles/kml/shapes/placemark_circle.png</href>
                        </Icon>
                    </IconStyle>
                </Style>
                <Style id="73">
                    <IconStyle id="74">
                        <color>ff0000ff</color>
                        <colorMode>normal</colorMode>
                        <scale>1</scale>
                        <heading>0</heading>
                        <Icon id="75">
                            <href>https://maps.google.com/mapfiles/kml/shapes/placemark_circle.png</href>
                        </Icon>
                    </IconStyle>
                </Style>
                <Style id="78">
                    <IconStyle id="79">
                        <color>ff0000ff</color>
                        <colorMode>normal</colorMode>
                        <scale>1</scale>
                        <heading>0</heading>
                        <Icon id="80">
                            <href>https://maps.google.com/mapfiles/kml/shapes/placemark_circle.png</href>
                        </Icon>
                    </IconStyle>
                </Style>
                <Style id="83">
                    <IconStyle id="84">
                        <color>ff0000ff</color>
                        <colorMode>normal</colorMode>
                        <scale>1</scale>
                        <heading>0</heading>
                        <Icon id="85">
                            <href>https://maps.google.com/mapfiles/kml/shapes/placemark_circle.png</href>
                        </Icon>
                    </IconStyle>
                </Style>
                <Style id="88">
                    <IconStyle id="89">
                        <color>ffff0000</color>
                        <colorMode>normal</colorMode>
                        <scale>1</scale>
                        <heading>0</heading>
                        <Icon id="90">
                            <href>https://maps.google.com/mapfiles/kml/shapes/placemark_circle.png</href>
                        </Icon>
                    </IconStyle>
                </Style>
                <Style id="93">
                    <IconStyle id="94">
                        <color>ffff0000</color>
                        <colorMode>normal</colorMode>
                        <scale>1</scale>
                        <heading>0</heading>
                        <Icon id="95">
                            <href>https://maps.google.com/mapfiles/kml/shapes/placemark_circle.png</href>
                        </Icon>
                    </IconStyle>
                </Style>
                <Style id="98">
                    <IconStyle id="99">
                        <color>ffff0000</color>
                        <colorMode>normal</colorMode>
                        <scale>1</scale>
                        <heading>0</heading>
                        <Icon id="100">
                            <href>https://maps.google.com/mapfiles/kml/shapes/placemark_circle.png</href>
                        </Icon>
                    </IconStyle>
                </Style>
                <Style id="103">
                    <IconStyle id="104">
                        <color>ffff0000</color>
                        <colorMode>normal</colorMode>
                        <scale>1</scale>
                        <heading>0</heading>
                        <Icon id="105">
                            <href>https://maps.google.com/mapfiles/kml/shapes/placemark_circle.png</href>
                        </Icon>
                    </IconStyle>
                </Style>
                <Style id="108">
                    <IconStyle id="109">
                        <color>ffff0000</color>
                        <colorMode>normal</colorMode>
                        <scale>1</scale>
                        <heading>0</heading>
                        <Icon id="110">
                            <href>https://maps.google.com/mapfiles/kml/shapes/placemark_circle.png</href>
                        </Icon>
                    </IconStyle>
                </Style>
                <Style id="113">
                    <IconStyle id="114">
                        <color>ffff0000</color>
                        <colorMode>normal</colorMode>
                        <scale>1</scale>
                        <heading>0</heading>
                        <Icon id="115">
                            <href>https://maps.google.com/mapfiles/kml/shapes/placemark_circle.png</href>
                        </Icon>
                    </IconStyle>
                </Style>
                <Style id="118">
                    <IconStyle id="119">
                        <color>ffff0000</color>
                        <colorMode>normal</colorMode>
                        <scale>1</scale>
                        <heading>0</heading>
                        <Icon id="120">
                            <href>https://maps.google.com/mapfiles/kml/shapes/placemark_circle.png</href>
                        </Icon>
                    </IconStyle>
                </Style>
                <Style id="123">
                    <IconStyle id="124">
                        <color>ffff0000</color>
                        <colorMode>normal</colorMode>
                        <scale>1</scale>
                        <heading>0</heading>
                        <Icon id="125">
                            <href>https://maps.google.com/mapfiles/kml/shapes/placemark_circle.png</href>
                        </Icon>
                    </IconStyle>
                </Style>
                <Style id="128">
                    <IconStyle id="129">
                        <color>ffff0000</color>
                        <colorMode>normal</colorMode>
                        <scale>1</scale>
                        <heading>0</heading>
                        <Icon id="130">
                            <href>https://maps.google.com/mapfiles/kml/shapes/placemark_circle.png</href>
                        </Icon>
                    </IconStyle>
                </Style>
                <name>Waypoints</name>
                <Placemark id="42">
                    <name>10k</name>
                    <description><![CDATA[
        <h1>Waypoint</h1>
        <table style="width: 100%;" cellpadding=0 cellspacing=0 border=0>
        <tr><td style="padding: 10px; border: solid 1px black;border-bottom: 0;"><strong>Local Time</strong></td><td style="border: solid 1px black;border-left: 0; border-bottom: 0; padding: 10px;">07:44:11</td></tr>
        <tr><td style="padding: 10px; border: solid 1px black;border-bottom: 0;"><strong>Altitude</strong></td><td style="border: solid 1px black;border-left: 0; border-bottom: 0; padding: 10px;">10,080ft (3,072.4m)</td></tr>
        <tr><td style="padding: 10px; border: solid 1px black;"><strong>Coordinates</strong></td><td style="border: solid 1px black; border-left: 0; padding: 10px;">39.2766, -103.50916667</td></tr>
        </table>
        ]]></description>
                    <styleUrl>#43</styleUrl>
                    <Point id="41">
                        <coordinates>-103.5091666667,39.2766,3072.38</coordinates>
                        <altitudeMode>absolute</altitudeMode>
                    </Point>
                </Placemark>
                <Placemark id="47">
                    <name>20k</name>
                    <description><![CDATA[
        <h1>Waypoint</h1>
        <table style="width: 100%;" cellpadding=0 cellspacing=0 border=0>
        <tr><td style="padding: 10px; border: solid 1px black;border-bottom: 0;"><strong>Local Time</strong></td><td style="border: solid 1px black;border-left: 0; border-bottom: 0; padding: 10px;">07:52:45</td></tr>
        <tr><td style="padding: 10px; border: solid 1px black;border-bottom: 0;"><strong>Altitude</strong></td><td style="border: solid 1px black;border-left: 0; border-bottom: 0; padding: 10px;">19,849ft (6,050.0m)</td></tr>
        <tr><td style="padding: 10px; border: solid 1px black;"><strong>Coordinates</strong></td><td style="border: solid 1px black; border-left: 0; padding: 10px;">39.25566667, -103.51</td></tr>
        </table>
        ]]></description>
                    <styleUrl>#48</styleUrl>
                    <Point id="46">
                        <coordinates>-103.51,39.2556666667,6049.98</coordinates>
                        <altitudeMode>absolute</altitudeMode>
                    </Point>
                </Placemark>
                <Placemark id="52">
                    <name>30k</name>
                    <description><![CDATA[
        <h1>Waypoint</h1>
        <table style="width: 100%;" cellpadding=0 cellspacing=0 border=0>
        <tr><td style="padding: 10px; border: solid 1px black;border-bottom: 0;"><strong>Local Time</strong></td><td style="border: solid 1px black;border-left: 0; border-bottom: 0; padding: 10px;">08:02:11</td></tr>
        <tr><td style="padding: 10px; border: solid 1px black;border-bottom: 0;"><strong>Altitude</strong></td><td style="border: solid 1px black;border-left: 0; border-bottom: 0; padding: 10px;">29,991ft (9,141.3m)</td></tr>
        <tr><td style="padding: 10px; border: solid 1px black;"><strong>Coordinates</strong></td><td style="border: solid 1px black; border-left: 0; padding: 10px;">39.22688333, -103.50386667</td></tr>
        </table>
        ]]></description>
                    <styleUrl>#53</styleUrl>
                    <Point id="51">
                        <coordinates>-103.5038666667,39.2268833333,9141.26</coordinates>
                        <altitudeMode>absolute</altitudeMode>
                    </Point>
                </Placemark>
                <Placemark id="57">
                    <name>40k</name>
                    <description><![CDATA[
        <h1>Waypoint</h1>
        <table style="width: 100%;" cellpadding=0 cellspacing=0 border=0>
        <tr><td style="padding: 10px; border: solid 1px black;border-bottom: 0;"><strong>Local Time</strong></td><td style="border: solid 1px black;border-left: 0; border-bottom: 0; padding: 10px;">08:10:41</td></tr>
        <tr><td style="padding: 10px; border: solid 1px black;border-bottom: 0;"><strong>Altitude</strong></td><td style="border: solid 1px black;border-left: 0; border-bottom: 0; padding: 10px;">40,087ft (12,218.5m)</td></tr>
        <tr><td style="padding: 10px; border: solid 1px black;"><strong>Coordinates</strong></td><td style="border: solid 1px black; border-left: 0; padding: 10px;">39.1949, -103.4738</td></tr>
        </table>
        ]]></description>
                    <styleUrl>#58</styleUrl>
                    <Point id="56">
                        <coordinates>-103.4738,39.1949,12218.52</coordinates>
                        <altitudeMode>absolute</altitudeMode>
                    </Point>
                </Placemark>
                <Placemark id="62">
                    <name>50k</name>
                    <description><![CDATA[
        <h1>Waypoint</h1>
        <table style="width: 100%;" cellpadding=0 cellspacing=0 border=0>
        <tr><td style="padding: 10px; border: solid 1px black;border-bottom: 0;"><strong>Local Time</strong></td><td style="border: solid 1px black;border-left: 0; border-bottom: 0; padding: 10px;">08:18:45</td></tr>
        <tr><td style="padding: 10px; border: solid 1px black;border-bottom: 0;"><strong>Altitude</strong></td><td style="border: solid 1px black;border-left: 0; border-bottom: 0; padding: 10px;">49,761ft (15,167.1m)</td></tr>
        <tr><td style="padding: 10px; border: solid 1px black;"><strong>Coordinates</strong></td><td style="border: solid 1px black; border-left: 0; padding: 10px;">39.16966667, -103.43483333</td></tr>
        </table>
        ]]></description>
                    <styleUrl>#63</styleUrl>
                    <Point id="61">
                        <coordinates>-103.4348333333,39.1696666667,15167.15</coordinates>
                        <altitudeMode>absolute</altitudeMode>
                    </Point>
                </Placemark>
                <Placemark id="67">
                    <name>60k</name>
                    <description><![CDATA[
        <h1>Waypoint</h1>
        <table style="width: 100%;" cellpadding=0 cellspacing=0 border=0>
        <tr><td style="padding: 10px; border: solid 1px black;border-bottom: 0;"><strong>Local Time</strong></td><td style="border: solid 1px black;border-left: 0; border-bottom: 0; padding: 10px;">08:27:45</td></tr>
        <tr><td style="padding: 10px; border: solid 1px black;border-bottom: 0;"><strong>Altitude</strong></td><td style="border: solid 1px black;border-left: 0; border-bottom: 0; padding: 10px;">59,914ft (18,261.8m)</td></tr>
        <tr><td style="padding: 10px; border: solid 1px black;"><strong>Coordinates</strong></td><td style="border: solid 1px black; border-left: 0; padding: 10px;">39.13683333, -103.43216667</td></tr>
        </table>
        ]]></description>
                    <styleUrl>#68</styleUrl>
                    <Point id="66">
                        <coordinates>-103.4321666667,39.1368333333,18261.79</coordinates>
                        <altitudeMode>absolute</altitudeMode>
                    </Point>
                </Placemark>
                <Placemark id="72">
                    <name>70k</name>
                    <description><![CDATA[
        <h1>Waypoint</h1>
        <table style="width: 100%;" cellpadding=0 cellspacing=0 border=0>
        <tr><td style="padding: 10px; border: solid 1px black;border-bottom: 0;"><strong>Local Time</strong></td><td style="border: solid 1px black;border-left: 0; border-bottom: 0; padding: 10px;">08:37:15</td></tr>
        <tr><td style="padding: 10px; border: solid 1px black;border-bottom: 0;"><strong>Altitude</strong></td><td style="border: solid 1px black;border-left: 0; border-bottom: 0; padding: 10px;">69,978ft (21,329.3m)</td></tr>
        <tr><td style="padding: 10px; border: solid 1px black;"><strong>Coordinates</strong></td><td style="border: solid 1px black; border-left: 0; padding: 10px;">39.111, -103.478</td></tr>
        </table>
        ]]></description>
                    <styleUrl>#73</styleUrl>
                    <Point id="71">
                        <coordinates>-103.478,39.111,21329.29</coordinates>
                        <altitudeMode>absolute</altitudeMode>
                    </Point>
                </Placemark>
                <Placemark id="77">
                    <name>80k</name>
                    <description><![CDATA[
        <h1>Waypoint</h1>
        <table style="width: 100%;" cellpadding=0 cellspacing=0 border=0>
        <tr><td style="padding: 10px; border: solid 1px black;border-bottom: 0;"><strong>Local Time</strong></td><td style="border: solid 1px black;border-left: 0; border-bottom: 0; padding: 10px;">08:46:41</td></tr>
        <tr><td style="padding: 10px; border: solid 1px black;border-bottom: 0;"><strong>Altitude</strong></td><td style="border: solid 1px black;border-left: 0; border-bottom: 0; padding: 10px;">80,210ft (24,448.0m)</td></tr>
        <tr><td style="padding: 10px; border: solid 1px black;"><strong>Coordinates</strong></td><td style="border: solid 1px black; border-left: 0; padding: 10px;">39.10605, -103.53413333</td></tr>
        </table>
        ]]></description>
                    <styleUrl>#78</styleUrl>
                    <Point id="76">
                        <coordinates>-103.5341333333,39.10605,24448.01</coordinates>
                        <altitudeMode>absolute</altitudeMode>
                    </Point>
                </Placemark>
                <Placemark id="82">
                    <name>90k</name>
                    <description><![CDATA[
        <h1>Waypoint</h1>
        <table style="width: 100%;" cellpadding=0 cellspacing=0 border=0>
        <tr><td style="padding: 10px; border: solid 1px black;border-bottom: 0;"><strong>Local Time</strong></td><td style="border: solid 1px black;border-left: 0; border-bottom: 0; padding: 10px;">08:55:45</td></tr>
        <tr><td style="padding: 10px; border: solid 1px black;border-bottom: 0;"><strong>Altitude</strong></td><td style="border: solid 1px black;border-left: 0; border-bottom: 0; padding: 10px;">90,008ft (27,434.4m)</td></tr>
        <tr><td style="padding: 10px; border: solid 1px black;"><strong>Coordinates</strong></td><td style="border: solid 1px black; border-left: 0; padding: 10px;">39.10033333, -103.60216667</td></tr>
        </table>
        ]]></description>
                    <styleUrl>#83</styleUrl>
                    <Point id="81">
                        <coordinates>-103.6021666667,39.1003333333,27434.44</coordinates>
                        <altitudeMode>absolute</altitudeMode>
                    </Point>
                </Placemark>
                <Placemark id="87">
                    <name>10k</name>
                    <description><![CDATA[
        <h1>Waypoint</h1>
        <table style="width: 100%;" cellpadding=0 cellspacing=0 border=0>
        <tr><td style="padding: 10px; border: solid 1px black;border-bottom: 0;"><strong>Local Time</strong></td><td style="border: solid 1px black;border-left: 0; border-bottom: 0; padding: 10px;">09:48:45</td></tr>
        <tr><td style="padding: 10px; border: solid 1px black;border-bottom: 0;"><strong>Altitude</strong></td><td style="border: solid 1px black;border-left: 0; border-bottom: 0; padding: 10px;">10,002ft (3,048.6m)</td></tr>
        <tr><td style="padding: 10px; border: solid 1px black;"><strong>Coordinates</strong></td><td style="border: solid 1px black; border-left: 0; padding: 10px;">38.9775, -103.6575</td></tr>
        </table>
        ]]></description>
                    <styleUrl>#88</styleUrl>
                    <Point id="86">
                        <coordinates>-103.6575,38.9775,3048.61</coordinates>
                        <altitudeMode>absolute</altitudeMode>
                    </Point>
                </Placemark>
                <Placemark id="92">
                    <name>20k</name>
                    <description><![CDATA[
        <h1>Waypoint</h1>
        <table style="width: 100%;" cellpadding=0 cellspacing=0 border=0>
        <tr><td style="padding: 10px; border: solid 1px black;border-bottom: 0;"><strong>Local Time</strong></td><td style="border: solid 1px black;border-left: 0; border-bottom: 0; padding: 10px;">09:38:11</td></tr>
        <tr><td style="padding: 10px; border: solid 1px black;border-bottom: 0;"><strong>Altitude</strong></td><td style="border: solid 1px black;border-left: 0; border-bottom: 0; padding: 10px;">19,966ft (6,085.6m)</td></tr>
        <tr><td style="padding: 10px; border: solid 1px black;"><strong>Coordinates</strong></td><td style="border: solid 1px black; border-left: 0; padding: 10px;">39.00228333, -103.65653333</td></tr>
        </table>
        ]]></description>
                    <styleUrl>#93</styleUrl>
                    <Point id="91">
                        <coordinates>-103.6565333333,39.0022833333,6085.64</coordinates>
                        <altitudeMode>absolute</altitudeMode>
                    </Point>
                </Placemark>
                <Placemark id="97">
                    <name>30k</name>
                    <description><![CDATA[
        <h1>Waypoint</h1>
        <table style="width: 100%;" cellpadding=0 cellspacing=0 border=0>
        <tr><td style="padding: 10px; border: solid 1px black;border-bottom: 0;"><strong>Local Time</strong></td><td style="border: solid 1px black;border-left: 0; border-bottom: 0; padding: 10px;">09:29:15</td></tr>
        <tr><td style="padding: 10px; border: solid 1px black;border-bottom: 0;"><strong>Altitude</strong></td><td style="border: solid 1px black;border-left: 0; border-bottom: 0; padding: 10px;">30,166ft (9,194.6m)</td></tr>
        <tr><td style="padding: 10px; border: solid 1px black;"><strong>Coordinates</strong></td><td style="border: solid 1px black; border-left: 0; padding: 10px;">39.02166667, -103.66166667</td></tr>
        </table>
        ]]></description>
                    <styleUrl>#98</styleUrl>
                    <Point id="96">
                        <coordinates>-103.6616666667,39.0216666667,9194.6</coordinates>
                        <altitudeMode>absolute</altitudeMode>
                    </Point>
                </Placemark>
                <Placemark id="102">
                    <name>40k</name>
                    <description><![CDATA[
        <h1>Waypoint</h1>
        <table style="width: 100%;" cellpadding=0 cellspacing=0 border=0>
        <tr><td style="padding: 10px; border: solid 1px black;border-bottom: 0;"><strong>Local Time</strong></td><td style="border: solid 1px black;border-left: 0; border-bottom: 0; padding: 10px;">09:22:15</td></tr>
        <tr><td style="padding: 10px; border: solid 1px black;border-bottom: 0;"><strong>Altitude</strong></td><td style="border: solid 1px black;border-left: 0; border-bottom: 0; padding: 10px;">39,861ft (12,149.6m)</td></tr>
        <tr><td style="padding: 10px; border: solid 1px black;"><strong>Coordinates</strong></td><td style="border: solid 1px black; border-left: 0; padding: 10px;">39.04383333, -103.69066667</td></tr>
        </table>
        ]]></description>
                    <styleUrl>#103</styleUrl>
                    <Point id="101">
                        <coordinates>-103.6906666667,39.0438333333,12149.63</coordinates>
                        <altitudeMode>absolute</altitudeMode>
                    </Point>
                </Placemark>
                <Placemark id="107">
                    <name>50k</name>
                    <description><![CDATA[
        <h1>Waypoint</h1>
        <table style="width: 100%;" cellpadding=0 cellspacing=0 border=0>
        <tr><td style="padding: 10px; border: solid 1px black;border-bottom: 0;"><strong>Local Time</strong></td><td style="border: solid 1px black;border-left: 0; border-bottom: 0; padding: 10px;">09:16:11</td></tr>
        <tr><td style="padding: 10px; border: solid 1px black;border-bottom: 0;"><strong>Altitude</strong></td><td style="border: solid 1px black;border-left: 0; border-bottom: 0; padding: 10px;">49,635ft (15,128.8m)</td></tr>
        <tr><td style="padding: 10px; border: solid 1px black;"><strong>Coordinates</strong></td><td style="border: solid 1px black; border-left: 0; padding: 10px;">39.06548333, -103.72825</td></tr>
        </table>
        ]]></description>
                    <styleUrl>#108</styleUrl>
                    <Point id="106">
                        <coordinates>-103.72825,39.0654833333,15128.75</coordinates>
                        <altitudeMode>absolute</altitudeMode>
                    </Point>
                </Placemark>
                <Placemark id="112">
                    <name>61k</name>
                    <description><![CDATA[
        <h1>Waypoint</h1>
        <table style="width: 100%;" cellpadding=0 cellspacing=0 border=0>
        <tr><td style="padding: 10px; border: solid 1px black;border-bottom: 0;"><strong>Local Time</strong></td><td style="border: solid 1px black;border-left: 0; border-bottom: 0; padding: 10px;">09:11:15</td></tr>
        <tr><td style="padding: 10px; border: solid 1px black;border-bottom: 0;"><strong>Altitude</strong></td><td style="border: solid 1px black;border-left: 0; border-bottom: 0; padding: 10px;">60,538ft (18,452.0m)</td></tr>
        <tr><td style="padding: 10px; border: solid 1px black;"><strong>Coordinates</strong></td><td style="border: solid 1px black; border-left: 0; padding: 10px;">39.08033333, -103.72716667</td></tr>
        </table>
        ]]></description>
                    <styleUrl>#113</styleUrl>
                    <Point id="111">
                        <coordinates>-103.7271666667,39.0803333333,18451.98</coordinates>
                        <altitudeMode>absolute</altitudeMode>
                    </Point>
                </Placemark>
                <Placemark id="117">
                    <name>70k</name>
                    <description><![CDATA[
        <h1>Waypoint</h1>
        <table style="width: 100%;" cellpadding=0 cellspacing=0 border=0>
        <tr><td style="padding: 10px; border: solid 1px black;border-bottom: 0;"><strong>Local Time</strong></td><td style="border: solid 1px black;border-left: 0; border-bottom: 0; padding: 10px;">09:08:11</td></tr>
        <tr><td style="padding: 10px; border: solid 1px black;border-bottom: 0;"><strong>Altitude</strong></td><td style="border: solid 1px black;border-left: 0; border-bottom: 0; padding: 10px;">69,704ft (21,245.8m)</td></tr>
        <tr><td style="padding: 10px; border: solid 1px black;"><strong>Coordinates</strong></td><td style="border: solid 1px black; border-left: 0; padding: 10px;">39.08888333, -103.70878333</td></tr>
        </table>
        ]]></description>
                    <styleUrl>#118</styleUrl>
                    <Point id="116">
                        <coordinates>-103.7087833333,39.0888833333,21245.78</coordinates>
                        <altitudeMode>absolute</altitudeMode>
                    </Point>
                </Placemark>
                <Placemark id="122">
                    <name>80k</name>
                    <description><![CDATA[
        <h1>Waypoint</h1>
        <table style="width: 100%;" cellpadding=0 cellspacing=0 border=0>
        <tr><td style="padding: 10px; border: solid 1px black;border-bottom: 0;"><strong>Local Time</strong></td><td style="border: solid 1px black;border-left: 0; border-bottom: 0; padding: 10px;">09:05:41</td></tr>
        <tr><td style="padding: 10px; border: solid 1px black;border-bottom: 0;"><strong>Altitude</strong></td><td style="border: solid 1px black;border-left: 0; border-bottom: 0; padding: 10px;">79,705ft (24,294.1m)</td></tr>
        <tr><td style="padding: 10px; border: solid 1px black;"><strong>Coordinates</strong></td><td style="border: solid 1px black; border-left: 0; padding: 10px;">39.089, -103.69493333</td></tr>
        </table>
        ]]></description>
                    <styleUrl>#123</styleUrl>
                    <Point id="121">
                        <coordinates>-103.6949333333,39.089,24294.08</coordinates>
                        <altitudeMode>absolute</altitudeMode>
                    </Point>
                </Placemark>
                <Placemark id="127">
                    <name>89k</name>
                    <description><![CDATA[
        <h1>Waypoint</h1>
        <table style="width: 100%;" cellpadding=0 cellspacing=0 border=0>
        <tr><td style="padding: 10px; border: solid 1px black;border-bottom: 0;"><strong>Local Time</strong></td><td style="border: solid 1px black;border-left: 0; border-bottom: 0; padding: 10px;">09:03:41</td></tr>
        <tr><td style="padding: 10px; border: solid 1px black;border-bottom: 0;"><strong>Altitude</strong></td><td style="border: solid 1px black;border-left: 0; border-bottom: 0; padding: 10px;">89,496ft (27,278.4m)</td></tr>
        <tr><td style="padding: 10px; border: solid 1px black;"><strong>Coordinates</strong></td><td style="border: solid 1px black; border-left: 0; padding: 10px;">39.09115, -103.6793</td></tr>
        </table>
        ]]></description>
                    <styleUrl>#128</styleUrl>
                    <Point id="126">
                        <coordinates>-103.6793,39.09115,27278.38</coordinates>
                        <altitudeMode>absolute</altitudeMode>
                    </Point>
                </Placemark>
            </Folder>
            <Folder id="5">
                <Style id="16">
                    <IconStyle id="17">
                        <color>ff008cff</color>
                        <colorMode>normal</colorMode>
                        <scale>1</scale>
                        <heading>0</heading>
                        <Icon id="18">
                            <href>https://maps.google.com/mapfiles/kml/shapes/placemark_circle.png</href>
                        </Icon>
                    </IconStyle>
                </Style>
                <Style id="21">
                    <IconStyle id="22">
                        <color>ff008cff</color>
                        <colorMode>normal</colorMode>
                        <scale>1</scale>
                        <heading>0</heading>
                        <Icon id="23">
                            <href>https://maps.google.com/mapfiles/kml/shapes/placemark_circle.png</href>
                        </Icon>
                    </IconStyle>
                </Style>
                <Style id="26">
                    <IconStyle id="27">
                        <color>ff00ffff</color>
                        <colorMode>normal</colorMode>
                        <scale>1</scale>
                        <heading>0</heading>
                        <Icon id="28">
                            <href>https://maps.google.com/mapfiles/kml/shapes/placemark_circle.png</href>
                        </Icon>
                    </IconStyle>
                </Style>
                <Style id="31">
                    <IconStyle id="32">
                        <color>ff006400</color>
                        <colorMode>normal</colorMode>
                        <scale>1</scale>
                        <heading>0</heading>
                        <Icon id="33">
                            <href>https://maps.google.com/mapfiles/kml/shapes/placemark_circle.png</href>
                        </Icon>
                    </IconStyle>
                    <LabelStyle id="34">
                        <color>ff006400</color>
                        <colorMode>normal</colorMode>
                        <scale>1</scale>
                    </LabelStyle>
                </Style>
                <Style id="37">
                    <IconStyle id="38">
                        <color>ff006400</color>
                        <colorMode>normal</colorMode>
                        <scale>1</scale>
                        <heading>0</heading>
                        <Icon id="39">
                            <href>https://maps.google.com/mapfiles/kml/shapes/placemark_circle.png</href>
                        </Icon>
                    </IconStyle>
                    <LabelStyle id="40">
                        <color>ff006400</color>
                        <colorMode>normal</colorMode>
                        <scale>1</scale>
                    </LabelStyle>
                </Style>
                <name>Points of Interest</name>
                <Placemark id="15">
                    <name>Launch</name>
                    <description><![CDATA[
    <h1>Launch</h1>
    <table style="width: 100%;" cellpadding=0 cellspacing=0 border=0>
    <tr><td style="padding: 10px; border: solid 1px black;border-bottom: 0;"><strong>Local Time</strong></td><td style="border: solid 1px black;border-bottom: 0; border-left: 0; padding: 10px;">07:39:45</td></tr>
    <tr><td style="padding: 10px; border: solid 1px black;border-bottom: 0;"><strong>Altitude</strong></td><td style="border: solid 1px black;border-left: 0; border-bottom: 0; padding: 10px;">5,606ft (1,708.7m)</td></tr>
    <tr><td style="padding: 10px; border: solid 1px black;"><strong>Coordinates</strong></td><td style="border: solid 1px black; border-left: 0; padding: 10px;">39.27833333, -103.49533333</td></tr>
    </table>
    ]]></description>
                    <styleUrl>#16</styleUrl>
                    <Point id="14">
                        <coordinates>-103.4953333333,39.2783333333,1708.71</coordinates>
                        <altitudeMode>absolute</altitudeMode>
                    </Point>
                </Placemark>
                <Placemark id="20">
                    <name>Landing</name>
                    <description><![CDATA[
    <h1>Landing</h1>
    <table style="width: 100%;" cellpadding=0 cellspacing=0 border=0>
    <tr><td style="padding: 10px; border: solid 1px black;border-bottom: 0;"><strong>Local Time</strong></td><td style="border: solid 1px black;border-left: 0; border-bottom: 0; padding: 10px;">09:53:45</td></tr>
    <tr><td style="padding: 10px; border: solid 1px black;border-bottom: 0;"><strong>Altitude</strong></td><td style="border: solid 1px black;border-bottom: 0; border-left: 0; padding: 10px;">5,501ft (1,676.7m)</td></tr>
    <tr><td style="padding: 10px; border: solid 1px black;"><strong>Coordinates</strong></td><td style="border: solid 1px black; border-left: 0; padding: 10px;">38.9785, -103.66983333</td></tr>
    </table>
    ]]></description>
                    <styleUrl>#21</styleUrl>
                    <Point id="19">
                        <coordinates>-103.6698333333,38.9785,1676.7</coordinates>
                        <altitudeMode>absolute</altitudeMode>
                    </Point>
                </Placemark>
                <Placemark id="25">
                    <name>Burst 97,198ft</name>
                    <description><![CDATA[
    <h1>Burst: 97,198ft</h1>
    <table style="width: 100%;" cellpadding=0 cellspacing=0 border=0>
    <tr><td style="padding: 10px; border: solid 1px black;border-bottom: 0;"><strong>Local Time</strong></td><td style="border: solid 1px black;border-left: 0; border-bottom: 0; padding: 10px;">09:02:15</td></tr>
    <tr><td style="padding: 10px; border: solid 1px black;border-bottom: 0;"><strong>Altitude</strong></td><td style="border: solid 1px black;border-left: 0; border-bottom: 0; padding: 10px;">97,198ft (29,626.0m)</td></tr>
    <tr><td style="padding: 10px; border: solid 1px black;"><strong>Coordinates</strong></td><td style="border: solid 1px black; border-left: 0; padding: 10px;">39.093, -103.666</td></tr>
    </table>
    ]]></description>
                    <styleUrl>#26</styleUrl>
                    <Point id="24">
                        <coordinates>-103.666,39.093,29625.95</coordinates>
                        <altitudeMode>absolute</altitudeMode>
                    </Point>
                </Placemark>
                <Placemark id="30">
                    <name>27k, Laminar-to-Turbulent</name>
                    <description><![CDATA[
        <h1>Airflow Transitioning from Laminar-to-Turbulent</h1>
        <table style="width: 100%;" cellpadding=0 cellspacing=0 border=0>
        <tr><td style="padding: 10px; border: solid 1px black;border-bottom: 0;"><strong>Local Time</strong></td><td style="border: solid 1px black;border-left: 0; border-bottom: 0; padding: 10px;">07:59:41</td></tr>
        <tr><td style="padding: 10px; border: solid 1px black;border-bottom: 0;"><strong>Altitude</strong></td><td style="border: solid 1px black;border-left: 0; border-bottom: 0; padding: 10px;">27,080ft (8,254.0m)</td></tr>
        <tr><td style="padding: 10px; border: solid 1px black;"><strong>Coordinates</strong></td><td style="border: solid 1px black; border-left: 0; padding: 10px;">39.23558333, -103.50816667</td></tr>
        </table>
        ]]></description>
                    <styleUrl>#31</styleUrl>
                    <Point id="29">
                        <coordinates>-103.5081666667,39.2355833333,8253.98</coordinates>
                        <altitudeMode>absolute</altitudeMode>
                    </Point>
                </Placemark>
                <Placemark id="36">
                    <name>61k, Turbulent-to-Laminar</name>
                    <description><![CDATA[
        <h1>Airflow Transitioning from Turbulent-to-Laminar</h1>
        <table style="width: 100%;" cellpadding=0 cellspacing=0 border=0>
        <tr><td style="padding: 10px; border: solid 1px black;border-bottom: 0;"><strong>Local Time</strong></td><td style="border: solid 1px black;border-left: 0; border-bottom: 0; padding: 10px;">08:28:15</td></tr>
        <tr><td style="padding: 10px; border: solid 1px black;border-bottom: 0;"><strong>Altitude</strong></td><td style="border: solid 1px black;border-left: 0; border-bottom: 0; padding: 10px;">60,531ft (18,449.8m)</td></tr>
        <tr><td style="padding: 10px; border: solid 1px black;"><strong>Coordinates</strong></td><td style="border: solid 1px black; border-left: 0; padding: 10px;">39.13466667, -103.43366667</td></tr>
        </table>
        ]]></description>
                    <styleUrl>#37</styleUrl>
                    <Point id="35">
                        <coordinates>-103.4336666667,39.1346666667,18449.85</coordinates>
                        <altitudeMode>absolute</altitudeMode>
                    </Point>
                </Placemark>
            </Folder>
        </Document>
    </Document>
</kml>
