<?xml version="1.0" encoding="UTF-8"?>
<kml xmlns="http://www.opengis.net/kml/2.2" xmlns:gx="http://www.google.com/kml/ext/2.2">
    <Document id="1">
        <Document id="2">
            <name>EOSS-368</name>
            <description><![CDATA[
    <h1>EOSS-368</h1>
    <table style="width: 100%;" cellpadding=0 cellspacing=0 border=0>
    <tr><td style="border: solid 1px black;border-bottom: 0; padding: 10px;"><strong>Launch Local Date/Time</strong></td><td style=" padding: 10px;border: solid 1px black;border-bottom: 0; border-left: 0;">2025-02-01 07:33:30</td></tr>
    <tr><td style="border: solid 1px black;border-bottom: 0; padding: 10px;"><strong>Flight Duration</strong></td><td style=" padding: 10px;border: solid 1px black;border-bottom: 0; border-left: 0; ">2hrs 9mins 30secs</td></tr>
    <tr><td style="border: solid 1px black;border-bottom: 0; padding: 10px;"><strong>Down Range Distance</strong></td><td style=" padding: 10px;border: solid 1px black;border-bottom: 0; border-left: 0; ">87.3mi (140.4km)</td></tr>
    <tr><td style="border: solid 1px black; padding: 10px;"><strong>Approx. Burst Altitude</strong></td><td style=" padding: 10px;border: solid 1px black; border-left: 0; ">91,544ft (27,902.6m)</td></tr>
    </table>
    ]]></description>
            <Folder id="3">
                <Style id="8">
                    <LineStyle id="9">
                        <color>ff0000ff</color>
                        <colorMode>normal</colorMode>
                        <width>3</width>
                    </LineStyle>
                </Style>
                <Style id="12">
                    <LineStyle id="13">
                        <color>ffff0000</color>
                        <colorMode>normal</colorMode>
                        <width>3</width>
                    </LineStyle>
                </Style>
                <name>Paths</name>
                <Placemark id="7">
                    <name>EOSS-368 Ascent</name>
                    <styleUrl>#8</styleUrl>
                    <LineString id="6">
                        <extrude>0</extrude>
                        <altitudeMode>absolute</altitudeMode>
                        <coordinates>-104.0421666667,39.608,1588.62 -104.0421666667,39.6083333333,1652.93 -104.042,39.6085,1729.74 -104.0423333333,39.6081666667,1840.69 -104.0428333333,39.6081666667,1916.89 -104.0428333333,39.6078333333,2023.26 -104.0425,39.6078333333,2097.02 -104.0418333333,39.6076666667,2214.68 -104.0413333333,39.6075,2281.12 -104.0405,39.6068333333,2393.29 -104.04,39.6066666667,2464.61 -104.039,39.6056666667,2572.51 -104.0385,39.6055,2643.53 -104.0373333333,39.6046666667,2759.66 -104.0366666667,39.6043333333,2835.86 -104.035,39.6035,2959.0 -104.0341666667,39.6035,3040.08 -104.0316666667,39.6028333333,3160.17 -104.0301666667,39.6025,3238.5 -104.0268333333,39.6016666667,3366.52 -104.0253333333,39.6013333333,3443.33 -104.0225,39.6001666667,3557.02 -104.0211666667,39.5996666667,3639.01 -104.018,39.5983333333,3770.07 -104.0166666667,39.598,3858.46 -104.0138333333,39.5971666667,4001.41 -104.0125,39.5966666667,4081.58 -104.0103333333,39.5956666667,4204.72 -104.0091666667,39.5955,4294.94 -104.0068333333,39.595,4419.6 -104.0056666667,39.5948333333,4497.02 -104.003,39.5943333333,4608.58 -104.0011666667,39.5941666667,4688.74 -103.9965,39.5933333333,4798.47 -103.9935,39.5931666667,4875.58 -103.9871666667,39.5921666667,4988.05 -103.9845,39.5918333333,5057.85 -103.978,39.5908333333,5175.2 -103.9746666667,39.5903333333,5251.09 -103.9673333333,39.5893333333,5355.34 -103.964,39.5888333333,5427.27 -103.9576666667,39.5881666667,5552.54 -103.9548333333,39.5883333333,5628.13 -103.9488333333,39.5875,5752.49 -103.946,39.5875,5843.32 -103.9393333333,39.5875,5961.28 -103.9361666667,39.5876666667,6039.61 -103.9298333333,39.588,6173.42 -103.9266666667,39.5878333333,6249.31 -103.9198333333,39.5878333333,6356.6 -103.9166666667,39.5876666667,6435.85 -103.9103333333,39.5876666667,6556.55 -103.9068333333,39.5876666667,6640.37 -103.9005,39.5875,6749.19 -103.8971666667,39.5873333333,6824.17 -103.8906666667,39.5868333333,6942.12 -103.8876666667,39.5865,7015.28 -103.8816666667,39.5861666667,7117.08 -103.8785,39.586,7185.05 -103.872,39.5853333333,7313.37 -103.8691666667,39.585,7377.99 -103.8626666667,39.5843333333,7487.11 -103.86,39.584,7565.75 -103.8531666667,39.5835,7671.51 -103.85,39.5833333333,7736.74 -103.8433333333,39.5826666667,7852.56 -103.8401666667,39.5825,7924.8 -103.8336666667,39.5816666667,8032.09 -103.8301666667,39.5815,8104.94 -103.8231666667,39.5805,8206.13 -103.8196666667,39.58,8271.36 -103.8136666667,39.5786666667,8376.51 -103.8105,39.5778333333,8453.63 -103.8036666667,39.5761666667,8595.66 -103.8001666667,39.5755,8654.49 -103.7936666667,39.5736666667,8742.27 -103.7908333333,39.5733333333,8800.8 -103.7841666667,39.572,8930.03 -103.781,39.572,9008.97 -103.7746666667,39.571,9116.57 -103.7711666667,39.5708333333,9196.12 -103.7638333333,39.57,9342.12 -103.7605,39.5695,9433.56 -103.7525,39.5685,9555.78 -103.7488333333,39.5678333333,9626.5 -103.7403333333,39.5661666667,9706.36 -103.7361666667,39.5655,9761.52 -103.7285,39.5631666667,9841.69 -103.7243333333,39.5621666667,9905.09 -103.7165,39.5605,9999.27 -103.713,39.5596666667,10058.1 -103.7045,39.5578333333,10140.39 -103.7003333333,39.5566666667,10200.44 -103.6923333333,39.5543333333,10326.01 -103.6878333333,39.5531666667,10398.56 -103.6796666667,39.5505,10517.43 -103.6755,39.5493333333,10603.38 -103.6668333333,39.547,10707.01 -103.663,39.5456666667,10763.4 -103.6545,39.5433333333,10848.75 -103.6501666667,39.5421666667,10911.54 -103.6421666667,39.5396666667,11017.0 -103.6381666667,39.5385,11093.2 -103.6293333333,39.5351666667,11199.27 -103.6251666667,39.5331666667,11275.47 -103.6158333333,39.5295,11369.95 -103.6108333333,39.5276666667,11437.62 -103.6015,39.5243333333,11533.02 -103.597,39.5228333333,11600.99 -103.5875,39.5186666667,11703.1 -103.5828333333,39.5171666667,11779.0 -103.5735,39.5146666667,11882.32 -103.569,39.5136666667,11947.55 -103.56,39.5113333333,12062.16 -103.5561666667,39.5106666667,12130.43 -103.5475,39.5093333333,12214.56 -103.5426666667,39.5085,12291.97 -103.5328333333,39.5065,12367.87 -103.5285,39.5055,12437.06 -103.5196666667,39.5031666667,12544.04 -103.5155,39.5018333333,12612.01 -103.5076666667,39.4985,12716.87 -103.5045,39.4973333333,12786.36 -103.4975,39.495,12878.1 -103.494,39.494,12941.81 -103.4866666667,39.492,13065.86 -103.4826666667,39.4916666667,13150.9 -103.4751666667,39.4905,13268.25 -103.4721666667,39.4903333333,13338.05 -103.4661666667,39.4898333333,13460.88 -103.4625,39.4901666667,13557.2 -103.4548333333,39.4906666667,13649.86 -103.4508333333,39.4908333333,13702.28 -103.4428333333,39.4903333333,13767.82 -103.439,39.4903333333,13826.03 -103.4308333333,39.4901666667,13907.41 -103.4271666667,39.4901666667,13970.51 -103.4198333333,39.4891666667,14044.88 -103.4166666667,39.4885,14100.05 -103.4103333333,39.4873333333,14172.29 -103.4071666667,39.487,14226.24 -103.4,39.4863333333,14301.83 -103.3968333333,39.4861666667,14361.26 -103.39,39.486,14430.45 -103.3866666667,39.486,14480.44 -103.3798333333,39.4858333333,14534.39 -103.3766666667,39.4858333333,14580.72 -103.3701666667,39.4853333333,14637.11 -103.3673333333,39.4851666667,14697.76 -103.3628333333,39.4843333333,14814.5 -103.3608333333,39.484,14894.66 -103.3571666667,39.4828333333,15011.1 -103.3556666667,39.4821666667,15096.74 -103.3525,39.4815,15205.25 -103.3511666667,39.4813333333,15264.69 -103.3483333333,39.481,15340.58 -103.3471666667,39.4808333333,15400.93 -103.3445,39.4805,15490.24 -103.343,39.4803333333,15557.3 -103.3396666667,39.48,15673.12 -103.338,39.4801666667,15758.46 -103.3338333333,39.4806666667,15864.23 -103.3316666667,39.4808333333,15929.76 -103.3268333333,39.4808333333,16011.75 -103.3245,39.481,16074.85 -103.3176666667,39.4808333333,16232.73 -103.3141666667,39.481,16334.84 -103.3125,39.4813333333,16403.42 -103.3085,39.4818333333,16507.97 -103.3065,39.4825,16590.26 -103.302,39.4833333333,16689.32 -103.2998333333,39.484,16754.25 -103.2948333333,39.4845,16844.16 -103.2928333333,39.4846666667,16899.33 -103.2881666667,39.4851666667,16977.36 -103.2858333333,39.4855,17036.19 -103.281,39.4868333333,17111.17 -103.2786666667,39.4876666667,17166.95 -103.2741666667,39.4893333333,17236.14 -103.2718333333,39.4901666667,17291.61 -103.2671666667,39.4915,17362.32 -103.265,39.4923333333,17420.54 -103.26,39.4933333333,17495.52 -103.2576666667,39.4938333333,17551.3 -103.2526666667,39.4943333333,17632.07 -103.2503333333,39.4948333333,17693.94 -103.245,39.4955,17780.81 -103.2423333333,39.4961666667,17844.21 -103.2366666667,39.4971666667,17930.16 -103.2338333333,39.4978333333,17991.12 -103.2278333333,39.4986666667,18070.98 -103.225,39.4988333333,18140.17 -103.2195,39.4985,18242.28 -103.2171666667,39.498,18328.54 -103.213,39.4971666667,18428.82 -103.211,39.4968333333,18494.65 -103.2073333333,39.4963333333,18579.08 -103.2056666667,39.496,18672.66 -103.2036666667,39.4956666667,18769.28 -103.2025,39.4953333333,18827.8 -103.1996666667,39.4945,18904.0 -103.1983333333,39.4941666667,18961.3 -103.1951666667,39.493,19038.11 -103.1938333333,39.4926666667,19100.6 -103.191,39.492,19188.99 -103.1896666667,39.4918333333,19249.64 -103.1863333333,39.4911666667,19326.45 -103.1846666667,39.4908333333,19386.19 -103.1813333333,39.49,19473.37 -103.18,39.4898333333,19534.02 -103.1765,39.4885,19698.0 -103.1745,39.4871666667,19780.3 -103.1736666667,39.4866666667,19846.14 -103.172,39.4853333333,19930.57 -103.1708333333,39.4846666667,19999.76 -103.169,39.4831666667,20095.16 -103.1683333333,39.4828333333,20166.18 -103.1668333333,39.482,20256.09 -103.1663333333,39.4818333333,20321.32 -103.165,39.4815,20401.48 -103.1645,39.4813333333,20461.53 -103.1636666667,39.4806666667,20551.14 -103.1635,39.4803333333,20615.76 -103.1633333333,39.4796666667,20697.14 -103.1633333333,39.4795,20763.89 -103.1628333333,39.4788333333,20854.42 -103.1628333333,39.4785,20916.6 -103.1625,39.4783333333,21003.46 -103.1623333333,39.4783333333,21067.17 -103.1613333333,39.4783333333,21156.78 -103.1608333333,39.4785,21215.3 -103.1598333333,39.479,21304.61 -103.159,39.4793333333,21367.09 -103.1571666667,39.4798333333,21450.91 -103.1561666667,39.4801666667,21514.61 -103.154,39.4801666667,21600.26 -103.1526666667,39.4803333333,21665.79 -103.1501666667,39.4805,21759.37 -103.149,39.4806666667,21822.77 -103.1465,39.4806666667,21920.0 -103.1453333333,39.4808333333,21988.27 -103.1428333333,39.4806666667,22086.11 -103.1416666667,39.4805,22156.22 -103.1391666667,39.4801666667,22254.06 -103.138,39.48,22320.5 -103.1358333333,39.479,22412.25 -103.1353333333,39.4785,22473.82 -103.1335,39.4768333333,22615.55 -103.1328333333,39.4758333333,22693.88 -103.133,39.4755,22754.54 -103.133,39.4746666667,22839.58 -103.1335,39.4741666667,22900.54 -103.1338333333,39.4735,22986.8 -103.134,39.4733333333,23052.94 -103.1338333333,39.4731666667,23136.76 -103.134,39.4731666667,23198.94 -103.1335,39.4726666667,23283.06 -103.1331666667,39.4723333333,23346.16 -103.1323333333,39.4715,23425.71 -103.132,39.4711666667,23487.89 -103.1306666667,39.4705,23560.43 -103.1301666667,39.4701666667,23623.52 -103.1293333333,39.4693333333,23710.39 -103.1288333333,39.4688333333,23771.66 -103.1273333333,39.468,23858.22 -103.1268333333,39.4678333333,23921.31 -103.1251666667,39.4673333333,24010.32 -103.1243333333,39.4671666667,24070.97 -103.1226666667,39.4666666667,24158.75 -103.1221666667,39.4666666667,24224.59 -103.1206666667,39.4661666667,24311.76 -103.1203333333,39.4661666667,24382.17 -103.1198333333,39.4666666667,24473.0 -103.1196666667,39.467,24538.84 -103.1191666667,39.4675,24629.97 -103.119,39.4675,24692.46 -103.1188333333,39.4675,24782.98 -103.119,39.4673333333,24851.26 -103.1186666667,39.4666666667,24941.17 -103.1188333333,39.4665,25007.32 -103.119,39.4661666667,25095.4 -103.1191666667,39.4658333333,25160.63 -103.1195,39.4655,25246.89 -103.1196666667,39.4655,25311.51 -103.1196666667,39.4646666667,25402.95 -103.1196666667,39.4643333333,25466.34 -103.1193333333,39.4628333333,25554.43 -103.1193333333,39.4623333333,25617.53 -103.119,39.4615,25705.31 -103.1188333333,39.4611666667,25773.58 -103.1183333333,39.4608333333,25864.11 -103.1183333333,39.4606666667,25927.81 -103.118,39.4601666667,26017.42 -103.118,39.4598333333,26081.43 -103.1173333333,39.4591666667,26175.92 -103.1168333333,39.459,26242.67 -103.116,39.4585,26339.29 -103.1156666667,39.4586666667,26406.35 -103.114,39.4581666667,26506.63 -103.1131666667,39.4583333333,26572.46 -103.111,39.4588333333,26731.87 -103.1096666667,39.4588333333,26825.14 -103.1088333333,39.4588333333,26891.89 -103.1076666667,39.458,26982.72 -103.1075,39.4576666667,27049.78 -103.1066666667,39.4568333333,27143.05 -103.1063333333,39.4566666667,27207.97 -103.1058333333,39.4556666667,27298.19 -103.1055,39.455,27363.42 -103.1045,39.4526666667,27521.0 -103.1038333333,39.4508333333,27604.82 -103.1036666667,39.4501666667,27669.13 -103.1025,39.4488333333,27759.36 -103.1021666667,39.4481666667,27822.45 -103.1013333333,39.4463333333,27902.61</coordinates>
                    </LineString>
                </Placemark>
                <Placemark id="11">
                    <name>EOSS-368 Descent</name>
                    <styleUrl>#12</styleUrl>
                    <LineString id="10">
                        <extrude>0</extrude>
                        <altitudeMode>absolute</altitudeMode>
                        <coordinates>-103.1013333333,39.4463333333,27902.61 -103.0996666667,39.444,27141.53 -103.0993333333,39.4436666667,26837.64 -103.098,39.4431666667,25910.44 -103.0976666667,39.4421666667,25084.74 -103.0975,39.442,24539.75 -103.097,39.4426666667,24301.7 -103.096,39.4428333333,23818.6 -103.0953333333,39.4426666667,23602.19 -103.0953333333,39.442,22930.1 -103.0943333333,39.4401666667,22296.12 -103.0918333333,39.4395,21866.35 -103.0903333333,39.4395,21672.5 -103.0873333333,39.4401666667,21108.62 -103.0868333333,39.4395,20531.33 -103.0851666667,39.4386666667,19979.03 -103.0838333333,39.4376666667,19600.16 -103.0825,39.4376666667,19439.84 -103.0791666667,39.4373333333,19084.44 -103.078,39.4371666667,18942.1 -103.0743333333,39.4366666667,18491.0 -103.0696666667,39.4358333333,18186.2 -103.0668333333,39.436,18045.38 -103.0606666667,39.4366666667,17733.26 -103.0581666667,39.4368333333,17600.07 -103.053,39.4376666667,17301.97 -103.0508333333,39.4383333333,17174.57 -103.0458333333,39.4393333333,16906.65 -103.044,39.4396666667,16790.82 -103.0393333333,39.44,16529.61 -103.0375,39.4406666667,16418.36 -103.0338333333,39.4411666667,16166.9 -103.032,39.4416666667,16066.01 -103.028,39.442,15830.7 -103.0268333333,39.4425,15735.3 -103.0243333333,39.4428333333,15492.68 -103.023,39.443,15398.19 -103.0201666667,39.443,15173.55 -103.019,39.4423333333,15084.86 -103.0153333333,39.4408333333,14858.09 -103.013,39.4403333333,14759.94 -103.0066666667,39.4393333333,14539.57 -103.0036666667,39.4386666667,14456.97 -102.9976666667,39.4386666667,14251.53 -102.9936666667,39.4388333333,14170.46 -102.9828333333,39.4371666667,13880.29 -102.9745,39.4365,13677.6 -102.9701666667,39.4363333333,13604.44 -102.9628333333,39.4363333333,13413.94 -102.9588333333,39.4363333333,13338.35 -102.9513333333,39.4351666667,13148.46 -102.947,39.4348333333,13077.44 -102.9391666667,39.4331666667,12893.34 -102.9346666667,39.4321666667,12820.5 -102.9265,39.4298333333,12638.23 -102.9215,39.4286666667,12569.65 -102.9111666667,39.4255,12384.63 -102.9066666667,39.4246666667,12313.01 -102.896,39.4235,12138.05 -102.891,39.4223333333,12071.91 -102.8818333333,39.4198333333,11899.39 -102.8765,39.4185,11836.91 -102.8666666667,39.4148333333,11672.32 -102.8613333333,39.4131666667,11608.31 -102.851,39.4083333333,11443.72 -102.8466666667,39.4061666667,11382.76 -102.8366666667,39.4023333333,11222.13 -102.8321666667,39.4003333333,11157.51 -102.8235,39.3966666667,10992.61 -102.819,39.3953333333,10931.35 -102.8106666667,39.3921666667,10771.33 -102.8066666667,39.3911666667,10700.61 -102.7991666667,39.3895,10545.47 -102.7951666667,39.3886666667,10492.13 -102.787,39.3861666667,10332.42 -102.7835,39.3855,10272.98 -102.7755,39.3833333333,10123.32 -102.7723333333,39.3821666667,10068.76 -102.7655,39.3806666667,9913.32 -102.7616666667,39.38,9852.36 -102.7548333333,39.3781666667,9692.34 -102.7516666667,39.3778333333,9632.9 -102.7443333333,39.3771666667,9470.75 -102.7411666667,39.3768333333,9417.1 -102.7345,39.3763333333,9264.4 -102.7308333333,39.376,9215.02 -102.724,39.3755,9066.89 -102.7208333333,39.376,9008.36 -102.7138333333,39.376,8858.4 -102.7106666667,39.3763333333,8805.37 -102.7033333333,39.3763333333,8656.62 -102.7003333333,39.3768333333,8604.81 -102.6936666667,39.3773333333,8464.91 -102.6903333333,39.378,8414.92 -102.684,39.3781666667,8279.89 -102.681,39.3788333333,8234.78 -102.6748333333,39.3795,8100.36 -102.6715,39.3796666667,8052.82 -102.665,39.3801666667,7924.8 -102.662,39.3803333333,7876.95 -102.6561666667,39.3806666667,7745.88 -102.653,39.3805,7694.98 -102.6468333333,39.3808333333,7566.36 -102.6433333333,39.3808333333,7522.46 -102.6373333333,39.3805,7390.49 -102.6341666667,39.3806666667,7345.07 -102.6275,39.3805,7209.13 -102.624,39.3806666667,7165.54 -102.6181666667,39.381,7040.88 -102.6141666667,39.3811666667,6990.59 -102.6085,39.3815,6868.36 -102.605,39.3823333333,6815.63 -102.5978333333,39.383,6687.01 -102.5946666667,39.383,6644.03 -102.5885,39.383,6520.28 -102.5851666667,39.3833333333,6477.0 -102.5778333333,39.3833333333,6352.03 -102.5746666667,39.3831666667,6309.36 -102.568,39.3833333333,6185.0 -102.5643333333,39.3835,6142.02 -102.5576666667,39.3825,6014.31 -102.5546666667,39.3825,5967.37 -102.548,39.3815,5838.14 -102.5455,39.3813333333,5793.03 -102.5403333333,39.3811666667,5668.06 -102.5378333333,39.3811666667,5627.83 -102.5325,39.3806666667,5508.35 -102.5305,39.3805,5469.64 -102.5258333333,39.3801666667,5347.72 -102.5231666667,39.3796666667,5308.7 -102.5176666667,39.3786666667,5191.05 -102.5153333333,39.3783333333,5156.3 -102.511,39.3773333333,5056.33 -102.509,39.3773333333,5023.41 -102.5038333333,39.3763333333,4916.42 -102.5016666667,39.3758333333,4880.46 -102.4975,39.3753333333,4755.49 -102.495,39.3751666667,4711.29 -102.4903333333,39.374,4587.24 -102.4885,39.374,4546.09 -102.4836666667,39.3738333333,4426.31 -102.482,39.3736666667,4387.6 -102.478,39.374,4280.31 -102.476,39.3745,4247.69 -102.4723333333,39.3748333333,4145.58 -102.471,39.3753333333,4113.28 -102.4676666667,39.3763333333,4007.21 -102.4666666667,39.3771666667,3974.29 -102.4631666667,39.3785,3859.99 -102.4618333333,39.3788333333,3820.67 -102.4598333333,39.3795,3702.41 -102.4588333333,39.3801666667,3658.82 -102.4576666667,39.3808333333,3539.03 -102.4573333333,39.3815,3500.63 -102.4556666667,39.382,3385.72 -102.4548333333,39.3823333333,3351.28 -102.4536666667,39.3825,3240.33 -102.4533333333,39.383,3205.28 -102.4516666667,39.3825,3099.82 -102.4513333333,39.3825,3066.9 -102.4503333333,39.3828333333,2960.52 -102.4498333333,39.383,2928.21 -102.4496666667,39.3828333333,2817.57 -102.45,39.3831666667,2784.04 -102.4496666667,39.383,2677.36 -102.4495,39.3828333333,2646.88 -102.4495,39.3818333333,2538.37 -102.4498333333,39.3816666667,2508.5 -102.4491666667,39.381,2405.79 -102.4488333333,39.3803333333,2372.56 -102.448,39.3788333333,2270.76 -102.4476666667,39.3776666667,2239.06 -102.447,39.3755,2143.66 -102.4463333333,39.3743333333,2117.14 -102.4451666667,39.3715,2024.48 -102.4441666667,39.3701666667,1998.57 -102.4423333333,39.3668333333,1909.27 -102.442,39.3655,1879.4 -102.4403333333,39.3626666667,1782.78 -102.4401666667,39.3615,1751.38 -102.4396666667,39.3595,1652.02 -102.4391666667,39.3585,1616.05 -102.4388333333,39.357,1515.77 -102.4386666667,39.3566666667,1482.55 -102.4381666667,39.3553333333,1378.92 -102.4383333333,39.3553333333,1346.3 -102.4378333333,39.3553333333,1270.41 -102.4378333333,39.3553333333,1274.37 -102.4376666667,39.3553333333,1270.41</coordinates>
                    </LineString>
                </Placemark>
            </Folder>
            <Folder id="4">
                <Style id="37">
                    <IconStyle id="38">
                        <color>ff0000ff</color>
                        <colorMode>normal</colorMode>
                        <scale>1</scale>
                        <heading>0</heading>
                        <Icon id="39">
                            <href>https://maps.google.com/mapfiles/kml/shapes/placemark_circle.png</href>
                        </Icon>
                    </IconStyle>
                </Style>
                <Style id="42">
                    <IconStyle id="43">
                        <color>ff0000ff</color>
                        <colorMode>normal</colorMode>
                        <scale>1</scale>
                        <heading>0</heading>
                        <Icon id="44">
                            <href>https://maps.google.com/mapfiles/kml/shapes/placemark_circle.png</href>
                        </Icon>
                    </IconStyle>
                </Style>
                <Style id="47">
                    <IconStyle id="48">
                        <color>ff0000ff</color>
                        <colorMode>normal</colorMode>
                        <scale>1</scale>
                        <heading>0</heading>
                        <Icon id="49">
                            <href>https://maps.google.com/mapfiles/kml/shapes/placemark_circle.png</href>
                        </Icon>
                    </IconStyle>
                </Style>
                <Style id="52">
                    <IconStyle id="53">
                        <color>ff0000ff</color>
                        <colorMode>normal</colorMode>
                        <scale>1</scale>
                        <heading>0</heading>
                        <Icon id="54">
                            <href>https://maps.google.com/mapfiles/kml/shapes/placemark_circle.png</href>
                        </Icon>
                    </IconStyle>
                </Style>
                <Style id="57">
                    <IconStyle id="58">
                        <color>ff0000ff</color>
                        <colorMode>normal</colorMode>
                        <scale>1</scale>
                        <heading>0</heading>
                        <Icon id="59">
                            <href>https://maps.google.com/mapfiles/kml/shapes/placemark_circle.png</href>
                        </Icon>
                    </IconStyle>
                </Style>
                <Style id="62">
                    <IconStyle id="63">
                        <color>ff0000ff</color>
                        <colorMode>normal</colorMode>
                        <scale>1</scale>
                        <heading>0</heading>
                        <Icon id="64">
                            <href>https://maps.google.com/mapfiles/kml/shapes/placemark_circle.png</href>
                        </Icon>
                    </IconStyle>
                </Style>
                <Style id="67">
                    <IconStyle id="68">
                        <color>ff0000ff</color>
                        <colorMode>normal</colorMode>
                        <scale>1</scale>
                        <heading>0</heading>
                        <Icon id="69">
                            <href>https://maps.google.com/mapfiles/kml/shapes/placemark_circle.png</href>
                        </Icon>
                    </IconStyle>
                </Style>
                <Style id="72">
                    <IconStyle id="73">
                        <color>ff0000ff</color>
                        <colorMode>normal</colorMode>
                        <scale>1</scale>
                        <heading>0</heading>
                        <Icon id="74">
                            <href>https://maps.google.com/mapfiles/kml/shapes/placemark_circle.png</href>
                        </Icon>
                    </IconStyle>
                </Style>
                <Style id="77">
                    <IconStyle id="78">
                        <color>ff0000ff</color>
                        <colorMode>normal</colorMode>
                        <scale>1</scale>
                        <heading>0</heading>
                        <Icon id="79">
                            <href>https://maps.google.com/mapfiles/kml/shapes/placemark_circle.png</href>
                        </Icon>
                    </IconStyle>
                </Style>
                <Style id="82">
                    <IconStyle id="83">
                        <color>ffff0000</color>
                        <colorMode>normal</colorMode>
                        <scale>1</scale>
                        <heading>0</heading>
                        <Icon id="84">
                            <href>https://maps.google.com/mapfiles/kml/shapes/placemark_circle.png</href>
                        </Icon>
                    </IconStyle>
                </Style>
                <Style id="87">
                    <IconStyle id="88">
                        <color>ffff0000</color>
                        <colorMode>normal</colorMode>
                        <scale>1</scale>
                        <heading>0</heading>
                        <Icon id="89">
                            <href>https://maps.google.com/mapfiles/kml/shapes/placemark_circle.png</href>
                        </Icon>
                    </IconStyle>
                </Style>
                <Style id="92">
                    <IconStyle id="93">
                        <color>ffff0000</color>
                        <colorMode>normal</colorMode>
                        <scale>1</scale>
                        <heading>0</heading>
                        <Icon id="94">
                            <href>https://maps.google.com/mapfiles/kml/shapes/placemark_circle.png</href>
                        </Icon>
                    </IconStyle>
                </Style>
                <Style id="97">
                    <IconStyle id="98">
                        <color>ffff0000</color>
                        <colorMode>normal</colorMode>
                        <scale>1</scale>
                        <heading>0</heading>
                        <Icon id="99">
                            <href>https://maps.google.com/mapfiles/kml/shapes/placemark_circle.png</href>
                        </Icon>
                    </IconStyle>
                </Style>
                <Style id="102">
                    <IconStyle id="103">
                        <color>ffff0000</color>
                        <colorMode>normal</colorMode>
                        <scale>1</scale>
                        <heading>0</heading>
                        <Icon id="104">
                            <href>https://maps.google.com/mapfiles/kml/shapes/placemark_circle.png</href>
                        </Icon>
                    </IconStyle>
                </Style>
                <Style id="107">
                    <IconStyle id="108">
                        <color>ffff0000</color>
                        <colorMode>normal</colorMode>
                        <scale>1</scale>
                        <heading>0</heading>
                        <Icon id="109">
                            <href>https://maps.google.com/mapfiles/kml/shapes/placemark_circle.png</href>
                        </Icon>
                    </IconStyle>
                </Style>
                <Style id="112">
                    <IconStyle id="113">
                        <color>ffff0000</color>
                        <colorMode>normal</colorMode>
                        <scale>1</scale>
                        <heading>0</heading>
                        <Icon id="114">
                            <href>https://maps.google.com/mapfiles/kml/shapes/placemark_circle.png</href>
                        </Icon>
                    </IconStyle>
                </Style>
                <Style id="117">
                    <IconStyle id="118">
                        <color>ffff0000</color>
                        <colorMode>normal</colorMode>
                        <scale>1</scale>
                        <heading>0</heading>
                        <Icon id="119">
                            <href>https://maps.google.com/mapfiles/kml/shapes/placemark_circle.png</href>
                        </Icon>
                    </IconStyle>
                </Style>
                <name>Waypoints</name>
                <Placemark id="36">
                    <name>10k</name>
                    <description><![CDATA[
        <h1>Waypoint</h1>
        <table style="width: 100%;" cellpadding=0 cellspacing=0 border=0>
        <tr><td style="padding: 10px; border: solid 1px black;border-bottom: 0;"><strong>Local Time</strong></td><td style="border: solid 1px black;border-left: 0; border-bottom: 0; padding: 10px;">07:37:30</td></tr>
        <tr><td style="padding: 10px; border: solid 1px black;border-bottom: 0;"><strong>Altitude</strong></td><td style="border: solid 1px black;border-left: 0; border-bottom: 0; padding: 10px;">9,974ft (3,040.1m)</td></tr>
        <tr><td style="padding: 10px; border: solid 1px black;"><strong>Coordinates</strong></td><td style="border: solid 1px black; border-left: 0; padding: 10px;">39.6035, -104.03416667</td></tr>
        </table>
        ]]></description>
                    <styleUrl>#37</styleUrl>
                    <Point id="35">
                        <coordinates>-104.0341666667,39.6035,3040.08</coordinates>
                        <altitudeMode>absolute</altitudeMode>
                    </Point>
                </Placemark>
                <Placemark id="41">
                    <name>20k</name>
                    <description><![CDATA[
        <h1>Waypoint</h1>
        <table style="width: 100%;" cellpadding=0 cellspacing=0 border=0>
        <tr><td style="padding: 10px; border: solid 1px black;border-bottom: 0;"><strong>Local Time</strong></td><td style="border: solid 1px black;border-left: 0; border-bottom: 0; padding: 10px;">07:45:00</td></tr>
        <tr><td style="padding: 10px; border: solid 1px black;border-bottom: 0;"><strong>Altitude</strong></td><td style="border: solid 1px black;border-left: 0; border-bottom: 0; padding: 10px;">19,815ft (6,039.6m)</td></tr>
        <tr><td style="padding: 10px; border: solid 1px black;"><strong>Coordinates</strong></td><td style="border: solid 1px black; border-left: 0; padding: 10px;">39.58766667, -103.93616667</td></tr>
        </table>
        ]]></description>
                    <styleUrl>#42</styleUrl>
                    <Point id="40">
                        <coordinates>-103.9361666667,39.5876666667,6039.61</coordinates>
                        <altitudeMode>absolute</altitudeMode>
                    </Point>
                </Placemark>
                <Placemark id="46">
                    <name>30k</name>
                    <description><![CDATA[
        <h1>Waypoint</h1>
        <table style="width: 100%;" cellpadding=0 cellspacing=0 border=0>
        <tr><td style="padding: 10px; border: solid 1px black;border-bottom: 0;"><strong>Local Time</strong></td><td style="border: solid 1px black;border-left: 0; border-bottom: 0; padding: 10px;">07:53:20</td></tr>
        <tr><td style="padding: 10px; border: solid 1px black;border-bottom: 0;"><strong>Altitude</strong></td><td style="border: solid 1px black;border-left: 0; border-bottom: 0; padding: 10px;">29,910ft (9,116.6m)</td></tr>
        <tr><td style="padding: 10px; border: solid 1px black;"><strong>Coordinates</strong></td><td style="border: solid 1px black; border-left: 0; padding: 10px;">39.571, -103.77466667</td></tr>
        </table>
        ]]></description>
                    <styleUrl>#47</styleUrl>
                    <Point id="45">
                        <coordinates>-103.7746666667,39.571,9116.57</coordinates>
                        <altitudeMode>absolute</altitudeMode>
                    </Point>
                </Placemark>
                <Placemark id="51">
                    <name>40k</name>
                    <description><![CDATA[
        <h1>Waypoint</h1>
        <table style="width: 100%;" cellpadding=0 cellspacing=0 border=0>
        <tr><td style="padding: 10px; border: solid 1px black;border-bottom: 0;"><strong>Local Time</strong></td><td style="border: solid 1px black;border-left: 0; border-bottom: 0; padding: 10px;">08:02:20</td></tr>
        <tr><td style="padding: 10px; border: solid 1px black;border-bottom: 0;"><strong>Altitude</strong></td><td style="border: solid 1px black;border-left: 0; border-bottom: 0; padding: 10px;">40,074ft (12,214.6m)</td></tr>
        <tr><td style="padding: 10px; border: solid 1px black;"><strong>Coordinates</strong></td><td style="border: solid 1px black; border-left: 0; padding: 10px;">39.50933333, -103.5475</td></tr>
        </table>
        ]]></description>
                    <styleUrl>#52</styleUrl>
                    <Point id="50">
                        <coordinates>-103.5475,39.5093333333,12214.56</coordinates>
                        <altitudeMode>absolute</altitudeMode>
                    </Point>
                </Placemark>
                <Placemark id="56">
                    <name>50k</name>
                    <description><![CDATA[
        <h1>Waypoint</h1>
        <table style="width: 100%;" cellpadding=0 cellspacing=0 border=0>
        <tr><td style="padding: 10px; border: solid 1px black;border-bottom: 0;"><strong>Local Time</strong></td><td style="border: solid 1px black;border-left: 0; border-bottom: 0; padding: 10px;">08:12:00</td></tr>
        <tr><td style="padding: 10px; border: solid 1px black;border-bottom: 0;"><strong>Altitude</strong></td><td style="border: solid 1px black;border-left: 0; border-bottom: 0; padding: 10px;">50,081ft (15,264.7m)</td></tr>
        <tr><td style="padding: 10px; border: solid 1px black;"><strong>Coordinates</strong></td><td style="border: solid 1px black; border-left: 0; padding: 10px;">39.48133333, -103.35116667</td></tr>
        </table>
        ]]></description>
                    <styleUrl>#57</styleUrl>
                    <Point id="55">
                        <coordinates>-103.3511666667,39.4813333333,15264.69</coordinates>
                        <altitudeMode>absolute</altitudeMode>
                    </Point>
                </Placemark>
                <Placemark id="61">
                    <name>60k</name>
                    <description><![CDATA[
        <h1>Waypoint</h1>
        <table style="width: 100%;" cellpadding=0 cellspacing=0 border=0>
        <tr><td style="padding: 10px; border: solid 1px black;border-bottom: 0;"><strong>Local Time</strong></td><td style="border: solid 1px black;border-left: 0; border-bottom: 0; padding: 10px;">08:22:00</td></tr>
        <tr><td style="padding: 10px; border: solid 1px black;border-bottom: 0;"><strong>Altitude</strong></td><td style="border: solid 1px black;border-left: 0; border-bottom: 0; padding: 10px;">60,133ft (18,328.5m)</td></tr>
        <tr><td style="padding: 10px; border: solid 1px black;"><strong>Coordinates</strong></td><td style="border: solid 1px black; border-left: 0; padding: 10px;">39.498, -103.21716667</td></tr>
        </table>
        ]]></description>
                    <styleUrl>#62</styleUrl>
                    <Point id="60">
                        <coordinates>-103.2171666667,39.498,18328.54</coordinates>
                        <altitudeMode>absolute</altitudeMode>
                    </Point>
                </Placemark>
                <Placemark id="66">
                    <name>70k</name>
                    <description><![CDATA[
        <h1>Waypoint</h1>
        <table style="width: 100%;" cellpadding=0 cellspacing=0 border=0>
        <tr><td style="padding: 10px; border: solid 1px black;border-bottom: 0;"><strong>Local Time</strong></td><td style="border: solid 1px black;border-left: 0; border-bottom: 0; padding: 10px;">08:32:00</td></tr>
        <tr><td style="padding: 10px; border: solid 1px black;border-bottom: 0;"><strong>Altitude</strong></td><td style="border: solid 1px black;border-left: 0; border-bottom: 0; padding: 10px;">70,102ft (21,367.1m)</td></tr>
        <tr><td style="padding: 10px; border: solid 1px black;"><strong>Coordinates</strong></td><td style="border: solid 1px black; border-left: 0; padding: 10px;">39.47933333, -103.159</td></tr>
        </table>
        ]]></description>
                    <styleUrl>#67</styleUrl>
                    <Point id="65">
                        <coordinates>-103.159,39.4793333333,21367.09</coordinates>
                        <altitudeMode>absolute</altitudeMode>
                    </Point>
                </Placemark>
                <Placemark id="71">
                    <name>80k</name>
                    <description><![CDATA[
        <h1>Waypoint</h1>
        <table style="width: 100%;" cellpadding=0 cellspacing=0 border=0>
        <tr><td style="padding: 10px; border: solid 1px black;border-bottom: 0;"><strong>Local Time</strong></td><td style="border: solid 1px black;border-left: 0; border-bottom: 0; padding: 10px;">08:42:00</td></tr>
        <tr><td style="padding: 10px; border: solid 1px black;border-bottom: 0;"><strong>Altitude</strong></td><td style="border: solid 1px black;border-left: 0; border-bottom: 0; padding: 10px;">79,994ft (24,382.2m)</td></tr>
        <tr><td style="padding: 10px; border: solid 1px black;"><strong>Coordinates</strong></td><td style="border: solid 1px black; border-left: 0; padding: 10px;">39.46616667, -103.12033333</td></tr>
        </table>
        ]]></description>
                    <styleUrl>#72</styleUrl>
                    <Point id="70">
                        <coordinates>-103.1203333333,39.4661666667,24382.17</coordinates>
                        <altitudeMode>absolute</altitudeMode>
                    </Point>
                </Placemark>
                <Placemark id="76">
                    <name>90k</name>
                    <description><![CDATA[
        <h1>Waypoint</h1>
        <table style="width: 100%;" cellpadding=0 cellspacing=0 border=0>
        <tr><td style="padding: 10px; border: solid 1px black;border-bottom: 0;"><strong>Local Time</strong></td><td style="border: solid 1px black;border-left: 0; border-bottom: 0; padding: 10px;">08:51:30</td></tr>
        <tr><td style="padding: 10px; border: solid 1px black;border-bottom: 0;"><strong>Altitude</strong></td><td style="border: solid 1px black;border-left: 0; border-bottom: 0; padding: 10px;">89,775ft (27,363.4m)</td></tr>
        <tr><td style="padding: 10px; border: solid 1px black;"><strong>Coordinates</strong></td><td style="border: solid 1px black; border-left: 0; padding: 10px;">39.455, -103.1055</td></tr>
        </table>
        ]]></description>
                    <styleUrl>#77</styleUrl>
                    <Point id="75">
                        <coordinates>-103.1055,39.455,27363.42</coordinates>
                        <altitudeMode>absolute</altitudeMode>
                    </Point>
                </Placemark>
                <Placemark id="81">
                    <name>10k</name>
                    <description><![CDATA[
        <h1>Waypoint</h1>
        <table style="width: 100%;" cellpadding=0 cellspacing=0 border=0>
        <tr><td style="padding: 10px; border: solid 1px black;border-bottom: 0;"><strong>Local Time</strong></td><td style="border: solid 1px black;border-left: 0; border-bottom: 0; padding: 10px;">09:35:30</td></tr>
        <tr><td style="padding: 10px; border: solid 1px black;border-bottom: 0;"><strong>Altitude</strong></td><td style="border: solid 1px black;border-left: 0; border-bottom: 0; padding: 10px;">10,062ft (3,066.9m)</td></tr>
        <tr><td style="padding: 10px; border: solid 1px black;"><strong>Coordinates</strong></td><td style="border: solid 1px black; border-left: 0; padding: 10px;">39.3825, -102.45133333</td></tr>
        </table>
        ]]></description>
                    <styleUrl>#82</styleUrl>
                    <Point id="80">
                        <coordinates>-102.4513333333,39.3825,3066.9</coordinates>
                        <altitudeMode>absolute</altitudeMode>
                    </Point>
                </Placemark>
                <Placemark id="86">
                    <name>20k</name>
                    <description><![CDATA[
        <h1>Waypoint</h1>
        <table style="width: 100%;" cellpadding=0 cellspacing=0 border=0>
        <tr><td style="padding: 10px; border: solid 1px black;border-bottom: 0;"><strong>Local Time</strong></td><td style="border: solid 1px black;border-left: 0; border-bottom: 0; padding: 10px;">09:25:30</td></tr>
        <tr><td style="padding: 10px; border: solid 1px black;border-bottom: 0;"><strong>Altitude</strong></td><td style="border: solid 1px black;border-left: 0; border-bottom: 0; padding: 10px;">20,151ft (6,142.0m)</td></tr>
        <tr><td style="padding: 10px; border: solid 1px black;"><strong>Coordinates</strong></td><td style="border: solid 1px black; border-left: 0; padding: 10px;">39.3835, -102.56433333</td></tr>
        </table>
        ]]></description>
                    <styleUrl>#87</styleUrl>
                    <Point id="85">
                        <coordinates>-102.5643333333,39.3835,6142.02</coordinates>
                        <altitudeMode>absolute</altitudeMode>
                    </Point>
                </Placemark>
                <Placemark id="91">
                    <name>30k</name>
                    <description><![CDATA[
        <h1>Waypoint</h1>
        <table style="width: 100%;" cellpadding=0 cellspacing=0 border=0>
        <tr><td style="padding: 10px; border: solid 1px black;border-bottom: 0;"><strong>Local Time</strong></td><td style="border: solid 1px black;border-left: 0; border-bottom: 0; padding: 10px;">09:17:00</td></tr>
        <tr><td style="padding: 10px; border: solid 1px black;border-bottom: 0;"><strong>Altitude</strong></td><td style="border: solid 1px black;border-left: 0; border-bottom: 0; padding: 10px;">30,233ft (9,215.0m)</td></tr>
        <tr><td style="padding: 10px; border: solid 1px black;"><strong>Coordinates</strong></td><td style="border: solid 1px black; border-left: 0; padding: 10px;">39.376, -102.73083333</td></tr>
        </table>
        ]]></description>
                    <styleUrl>#92</styleUrl>
                    <Point id="90">
                        <coordinates>-102.7308333333,39.376,9215.02</coordinates>
                        <altitudeMode>absolute</altitudeMode>
                    </Point>
                </Placemark>
                <Placemark id="96">
                    <name>40k</name>
                    <description><![CDATA[
        <h1>Waypoint</h1>
        <table style="width: 100%;" cellpadding=0 cellspacing=0 border=0>
        <tr><td style="padding: 10px; border: solid 1px black;border-bottom: 0;"><strong>Local Time</strong></td><td style="border: solid 1px black;border-left: 0; border-bottom: 0; padding: 10px;">09:10:20</td></tr>
        <tr><td style="padding: 10px; border: solid 1px black;border-bottom: 0;"><strong>Altitude</strong></td><td style="border: solid 1px black;border-left: 0; border-bottom: 0; padding: 10px;">39,823ft (12,138.0m)</td></tr>
        <tr><td style="padding: 10px; border: solid 1px black;"><strong>Coordinates</strong></td><td style="border: solid 1px black; border-left: 0; padding: 10px;">39.4235, -102.896</td></tr>
        </table>
        ]]></description>
                    <styleUrl>#97</styleUrl>
                    <Point id="95">
                        <coordinates>-102.896,39.4235,12138.05</coordinates>
                        <altitudeMode>absolute</altitudeMode>
                    </Point>
                </Placemark>
                <Placemark id="101">
                    <name>50k</name>
                    <description><![CDATA[
        <h1>Waypoint</h1>
        <table style="width: 100%;" cellpadding=0 cellspacing=0 border=0>
        <tr><td style="padding: 10px; border: solid 1px black;border-bottom: 0;"><strong>Local Time</strong></td><td style="border: solid 1px black;border-left: 0; border-bottom: 0; padding: 10px;">09:04:50</td></tr>
        <tr><td style="padding: 10px; border: solid 1px black;border-bottom: 0;"><strong>Altitude</strong></td><td style="border: solid 1px black;border-left: 0; border-bottom: 0; padding: 10px;">49,782ft (15,173.5m)</td></tr>
        <tr><td style="padding: 10px; border: solid 1px black;"><strong>Coordinates</strong></td><td style="border: solid 1px black; border-left: 0; padding: 10px;">39.443, -103.02016667</td></tr>
        </table>
        ]]></description>
                    <styleUrl>#102</styleUrl>
                    <Point id="100">
                        <coordinates>-103.0201666667,39.443,15173.55</coordinates>
                        <altitudeMode>absolute</altitudeMode>
                    </Point>
                </Placemark>
                <Placemark id="106">
                    <name>60k</name>
                    <description><![CDATA[
        <h1>Waypoint</h1>
        <table style="width: 100%;" cellpadding=0 cellspacing=0 border=0>
        <tr><td style="padding: 10px; border: solid 1px black;border-bottom: 0;"><strong>Local Time</strong></td><td style="border: solid 1px black;border-left: 0; border-bottom: 0; padding: 10px;">09:00:50</td></tr>
        <tr><td style="padding: 10px; border: solid 1px black;border-bottom: 0;"><strong>Altitude</strong></td><td style="border: solid 1px black;border-left: 0; border-bottom: 0; padding: 10px;">59,666ft (18,186.2m)</td></tr>
        <tr><td style="padding: 10px; border: solid 1px black;"><strong>Coordinates</strong></td><td style="border: solid 1px black; border-left: 0; padding: 10px;">39.43583333, -103.06966667</td></tr>
        </table>
        ]]></description>
                    <styleUrl>#107</styleUrl>
                    <Point id="105">
                        <coordinates>-103.0696666667,39.4358333333,18186.2</coordinates>
                        <altitudeMode>absolute</altitudeMode>
                    </Point>
                </Placemark>
                <Placemark id="111">
                    <name>69k</name>
                    <description><![CDATA[
        <h1>Waypoint</h1>
        <table style="width: 100%;" cellpadding=0 cellspacing=0 border=0>
        <tr><td style="padding: 10px; border: solid 1px black;border-bottom: 0;"><strong>Local Time</strong></td><td style="border: solid 1px black;border-left: 0; border-bottom: 0; padding: 10px;">08:58:00</td></tr>
        <tr><td style="padding: 10px; border: solid 1px black;border-bottom: 0;"><strong>Altitude</strong></td><td style="border: solid 1px black;border-left: 0; border-bottom: 0; padding: 10px;">69,254ft (21,108.6m)</td></tr>
        <tr><td style="padding: 10px; border: solid 1px black;"><strong>Coordinates</strong></td><td style="border: solid 1px black; border-left: 0; padding: 10px;">39.44016667, -103.08733333</td></tr>
        </table>
        ]]></description>
                    <styleUrl>#112</styleUrl>
                    <Point id="110">
                        <coordinates>-103.0873333333,39.4401666667,21108.62</coordinates>
                        <altitudeMode>absolute</altitudeMode>
                    </Point>
                </Placemark>
                <Placemark id="116">
                    <name>80k</name>
                    <description><![CDATA[
        <h1>Waypoint</h1>
        <table style="width: 100%;" cellpadding=0 cellspacing=0 border=0>
        <tr><td style="padding: 10px; border: solid 1px black;border-bottom: 0;"><strong>Local Time</strong></td><td style="border: solid 1px black;border-left: 0; border-bottom: 0; padding: 10px;">08:55:30</td></tr>
        <tr><td style="padding: 10px; border: solid 1px black;border-bottom: 0;"><strong>Altitude</strong></td><td style="border: solid 1px black;border-left: 0; border-bottom: 0; padding: 10px;">79,730ft (24,301.7m)</td></tr>
        <tr><td style="padding: 10px; border: solid 1px black;"><strong>Coordinates</strong></td><td style="border: solid 1px black; border-left: 0; padding: 10px;">39.44266667, -103.097</td></tr>
        </table>
        ]]></description>
                    <styleUrl>#117</styleUrl>
                    <Point id="115">
                        <coordinates>-103.097,39.4426666667,24301.7</coordinates>
                        <altitudeMode>absolute</altitudeMode>
                    </Point>
                </Placemark>
            </Folder>
            <Folder id="5">
                <Style id="16">
                    <IconStyle id="17">
                        <color>ff008cff</color>
                        <colorMode>normal</colorMode>
                        <scale>1</scale>
                        <heading>0</heading>
                        <Icon id="18">
                            <href>https://maps.google.com/mapfiles/kml/shapes/placemark_circle.png</href>
                        </Icon>
                    </IconStyle>
                </Style>
                <Style id="21">
                    <IconStyle id="22">
                        <color>ff008cff</color>
                        <colorMode>normal</colorMode>
                        <scale>1</scale>
                        <heading>0</heading>
                        <Icon id="23">
                            <href>https://maps.google.com/mapfiles/kml/shapes/placemark_circle.png</href>
                        </Icon>
                    </IconStyle>
                </Style>
                <Style id="26">
                    <IconStyle id="27">
                        <color>ff00ffff</color>
                        <colorMode>normal</colorMode>
                        <scale>1</scale>
                        <heading>0</heading>
                        <Icon id="28">
                            <href>https://maps.google.com/mapfiles/kml/shapes/placemark_circle.png</href>
                        </Icon>
                    </IconStyle>
                </Style>
                <Style id="31">
                    <IconStyle id="32">
                        <color>ff006400</color>
                        <colorMode>normal</colorMode>
                        <scale>1</scale>
                        <heading>0</heading>
                        <Icon id="33">
                            <href>https://maps.google.com/mapfiles/kml/shapes/placemark_circle.png</href>
                        </Icon>
                    </IconStyle>
                    <LabelStyle id="34">
                        <color>ff006400</color>
                        <colorMode>normal</colorMode>
                        <scale>1</scale>
                    </LabelStyle>
                </Style>
                <name>Points of Interest</name>
                <Placemark id="15">
                    <name>Launch</name>
                    <description><![CDATA[
    <h1>Launch</h1>
    <table style="width: 100%;" cellpadding=0 cellspacing=0 border=0>
    <tr><td style="padding: 10px; border: solid 1px black;border-bottom: 0;"><strong>Local Time</strong></td><td style="border: solid 1px black;border-bottom: 0; border-left: 0; padding: 10px;">07:33:30</td></tr>
    <tr><td style="padding: 10px; border: solid 1px black;border-bottom: 0;"><strong>Altitude</strong></td><td style="border: solid 1px black;border-left: 0; border-bottom: 0; padding: 10px;">5,212ft (1,588.6m)</td></tr>
    <tr><td style="padding: 10px; border: solid 1px black;"><strong>Coordinates</strong></td><td style="border: solid 1px black; border-left: 0; padding: 10px;">39.608, -104.04216667</td></tr>
    </table>
    ]]></description>
                    <styleUrl>#16</styleUrl>
                    <Point id="14">
                        <coordinates>-104.0421666667,39.608,1588.62</coordinates>
                        <altitudeMode>absolute</altitudeMode>
                    </Point>
                </Placemark>
                <Placemark id="20">
                    <name>Landing</name>
                    <description><![CDATA[
    <h1>Landing</h1>
    <table style="width: 100%;" cellpadding=0 cellspacing=0 border=0>
    <tr><td style="padding: 10px; border: solid 1px black;border-bottom: 0;"><strong>Local Time</strong></td><td style="border: solid 1px black;border-left: 0; border-bottom: 0; padding: 10px;">09:43:00</td></tr>
    <tr><td style="padding: 10px; border: solid 1px black;border-bottom: 0;"><strong>Altitude</strong></td><td style="border: solid 1px black;border-bottom: 0; border-left: 0; padding: 10px;">4,168ft (1,270.4m)</td></tr>
    <tr><td style="padding: 10px; border: solid 1px black;"><strong>Coordinates</strong></td><td style="border: solid 1px black; border-left: 0; padding: 10px;">39.35533333, -102.43766667</td></tr>
    </table>
    ]]></description>
                    <styleUrl>#21</styleUrl>
                    <Point id="19">
                        <coordinates>-102.4376666667,39.3553333333,1270.41</coordinates>
                        <altitudeMode>absolute</altitudeMode>
                    </Point>
                </Placemark>
                <Placemark id="25">
                    <name>Burst 91,544ft</name>
                    <description><![CDATA[
    <h1>Burst: 91,544ft</h1>
    <table style="width: 100%;" cellpadding=0 cellspacing=0 border=0>
    <tr><td style="padding: 10px; border: solid 1px black;border-bottom: 0;"><strong>Local Time</strong></td><td style="border: solid 1px black;border-left: 0; border-bottom: 0; padding: 10px;">08:53:20</td></tr>
    <tr><td style="padding: 10px; border: solid 1px black;border-bottom: 0;"><strong>Altitude</strong></td><td style="border: solid 1px black;border-left: 0; border-bottom: 0; padding: 10px;">91,544ft (27,902.6m)</td></tr>
    <tr><td style="padding: 10px; border: solid 1px black;"><strong>Coordinates</strong></td><td style="border: solid 1px black; border-left: 0; padding: 10px;">39.44633333, -103.10133333</td></tr>
    </table>
    ]]></description>
                    <styleUrl>#26</styleUrl>
                    <Point id="24">
                        <coordinates>-103.1013333333,39.4463333333,27902.61</coordinates>
                        <altitudeMode>absolute</altitudeMode>
                    </Point>
                </Placemark>
                <Placemark id="30">
                    <name>44k, Turbulent-to-Laminar</name>
                    <description><![CDATA[
        <h1>Airflow Transitioning from Turbulent-to-Laminar</h1>
        <table style="width: 100%;" cellpadding=0 cellspacing=0 border=0>
        <tr><td style="padding: 10px; border: solid 1px black;border-bottom: 0;"><strong>Local Time</strong></td><td style="border: solid 1px black;border-left: 0; border-bottom: 0; padding: 10px;">08:06:00</td></tr>
        <tr><td style="padding: 10px; border: solid 1px black;border-bottom: 0;"><strong>Altitude</strong></td><td style="border: solid 1px black;border-left: 0; border-bottom: 0; padding: 10px;">44,479ft (13,557.2m)</td></tr>
        <tr><td style="padding: 10px; border: solid 1px black;"><strong>Coordinates</strong></td><td style="border: solid 1px black; border-left: 0; padding: 10px;">39.49016667, -103.4625</td></tr>
        </table>
        ]]></description>
                    <styleUrl>#31</styleUrl>
                    <Point id="29">
                        <coordinates>-103.4625,39.4901666667,13557.2</coordinates>
                        <altitudeMode>absolute</altitudeMode>
                    </Point>
                </Placemark>
            </Folder>
        </Document>
    </Document>
</kml>
