<?xml version="1.0" encoding="UTF-8"?>
<kml xmlns="http://www.opengis.net/kml/2.2" xmlns:gx="http://www.google.com/kml/ext/2.2">
    <Document id="1">
        <Document id="2">
            <name>EOSS-321</name>
            <description><![CDATA[
    <h1>EOSS-321</h1>
    <table style="width: 100%;" cellpadding=0 cellspacing=0 border=0>
    <tr><td style="border: solid 1px black;border-bottom: 0; padding: 10px;"><strong>Launch Local Date/Time</strong></td><td style=" padding: 10px;border: solid 1px black;border-bottom: 0; border-left: 0;">2022-04-02 07:17:45</td></tr>
    <tr><td style="border: solid 1px black;border-bottom: 0; padding: 10px;"><strong>Flight Duration</strong></td><td style=" padding: 10px;border: solid 1px black;border-bottom: 0; border-left: 0; ">1hrs 38mins 0secs</td></tr>
    <tr><td style="border: solid 1px black;border-bottom: 0; padding: 10px;"><strong>Down Range Distance</strong></td><td style=" padding: 10px;border: solid 1px black;border-bottom: 0; border-left: 0; ">39.3mi (63.3km)</td></tr>
    <tr><td style="border: solid 1px black; padding: 10px;"><strong>Approx. Burst Altitude</strong></td><td style=" padding: 10px;border: solid 1px black; border-left: 0; ">94,959ft (28,943.5m)</td></tr>
    </table>
    ]]></description>
            <Folder id="3">
                <Style id="8">
                    <LineStyle id="9">
                        <color>ff0000ff</color>
                        <colorMode>normal</colorMode>
                        <width>3</width>
                    </LineStyle>
                </Style>
                <Style id="12">
                    <LineStyle id="13">
                        <color>ffff0000</color>
                        <colorMode>normal</colorMode>
                        <width>3</width>
                    </LineStyle>
                </Style>
                <name>Paths</name>
                <Placemark id="7">
                    <name>EOSS-321 Ascent</name>
                    <styleUrl>#8</styleUrl>
                    <LineString id="6">
                        <extrude>0</extrude>
                        <altitudeMode>absolute</altitudeMode>
                        <coordinates>-104.0421666667,39.6081666667,1588.31 -104.0423166667,39.60815,1591.67 -104.0423,39.6084,1597.15 -104.042,39.6091666667,1720.9 -104.0421166667,39.6092,1730.04 -104.0415833333,39.6096333333,1761.13 -104.0408333333,39.6096666667,1914.75 -104.0408333333,39.6097166667,1923.29 -104.0401833333,39.6098,1951.33 -104.0396666667,39.6098333333,2113.48 -104.0397333333,39.6099166667,2122.02 -104.0394333333,39.6098333333,2154.33 -104.0387166667,39.6093,2321.66 -104.0386666667,39.6091666667,2311.91 -104.0382333333,39.6089333333,2352.45 -104.0371666667,39.6083333333,2516.73 -104.0371833333,39.6084,2526.18 -104.0363333333,39.6081833333,2559.41 -104.0346666667,39.6078333333,2722.47 -104.0337666667,39.6077333333,2767.28 -104.0319,39.60755,2935.22 -104.0318333333,39.6075,2925.78 -104.03055,39.6071333333,2970.28 -104.0289333333,39.60665,3141.88 -104.0288333333,39.6066666667,3132.12 -104.0277833333,39.6063333333,3175.41 -104.0259666667,39.6058166667,3346.7 -104.0258333333,39.6058333333,3336.65 -104.0245,39.6054833333,3377.49 -104.02205,39.6048333333,3548.79 -104.022,39.6046666667,3539.95 -104.0171666667,39.6033333333,3743.86 -104.01515,39.6029833333,3776.47 -104.0121666667,39.602,3944.11 -104.0103333333,39.6017166667,3983.43 -104.0078333333,39.601,4143.45 -104.0078333333,39.6010666667,4154.42 -104.00585,39.60055,4188.56 -104.0026666667,39.5996666667,4349.8 -104.0002,39.5989666667,4389.42 -103.9966666667,39.5978333333,4552.19 -103.9967,39.5978333333,4561.03 -103.9944,39.5971,4592.73 -103.9909666667,39.59565,4765.85 -103.9908333333,39.5955,4756.1 -103.9889333333,39.5947166667,4803.65 -103.9855,39.5933333333,4960.32 -103.9855333333,39.5934666667,4970.68 -103.9834666667,39.5924833333,5007.56 -103.9805333333,39.5912666667,5181.3 -103.9805,39.5911666667,5171.85 -103.9787333333,39.59045,5218.79 -103.9755833333,39.5891333333,5402.28 -103.9755,39.589,5393.44 -103.9733333333,39.5884333333,5444.64 -103.9700833333,39.5872333333,5622.65 -103.97,39.5871666667,5612.59 -103.9675,39.5863166667,5658.61 -103.9631666667,39.585,5830.82 -103.9632833333,39.58505,5839.36 -103.96075,39.5843166667,5881.73 -103.9564833333,39.5831666667,6058.2 -103.9563333333,39.5831666667,6049.67 -103.9540666667,39.5821166667,6094.78 -103.9495,39.5803333333,6265.16 -103.9496166667,39.58035,6274.31 -103.9421666667,39.5778333333,6485.23 -103.94225,39.5778333333,6494.07 -103.9390166667,39.5766666667,6532.78 -103.9344,39.5754,6713.22 -103.9343333333,39.5753333333,6704.08 -103.9312833333,39.5743,6752.84 -103.9261833333,39.5729666667,6930.54 -103.9261666667,39.5728333333,6922.92 -103.9230666667,39.5719833333,6969.86 -103.918,39.5706666667,7143.6 -103.9180166667,39.5707833333,7153.05 -103.9144833333,39.5700833333,7196.02 -103.9095,39.569,7369.45 -103.90955,39.5690166667,7378.9 -103.9057666667,39.5680833333,7417.92 -103.9005,39.567,7590.74 -103.9006333333,39.5671333333,7600.8 -103.8973833333,39.5662,7637.98 -103.8923333333,39.5646666667,7810.5 -103.89235,39.5648166667,7819.64 -103.8892833333,39.5638166667,7863.84 -103.884,39.5616666667,8038.19 -103.88415,39.56175,8047.94 -103.88115,39.5604166667,8086.95 -103.8761666667,39.558,8253.98 -103.8762,39.5580833333,8262.82 -103.8728666667,39.5565833333,8306.1 -103.8679,39.5543333333,8487.46 -103.8678333333,39.5543333333,8478.01 -103.86435,39.5526333333,8531.05 -103.8586666667,39.5496666667,8706.31 -103.8588,39.54975,8714.54 -103.8548666667,39.5480333333,8755.99 -103.8493333333,39.545,8929.42 -103.8494333333,39.5450333333,8937.65 -103.84515,39.5429666667,8979.1 -103.83935,39.5400333333,9160.15 -103.8393333333,39.54,9151.92 -103.829,39.535,9379.31 -103.8291,39.5350166667,9388.45 -103.8246333333,39.53295,9431.12 -103.8182333333,39.5295,9624.06 -103.8181666667,39.5293333333,9614.92 -103.81385,39.52735,9669.17 -103.8071666667,39.5235,9856.32 -103.8071666667,39.52355,9865.46 -103.8024166667,39.5209833333,9913.32 -103.7953166667,39.5179666667,10110.83 -103.7951666667,39.5178333333,10102.29 -103.7904333333,39.5156666667,10158.37 -103.7830666667,39.5129833333,10359.54 -103.783,39.5128333333,10351.92 -103.7787833333,39.5113,10415.32 -103.7721666667,39.5081666667,10597.59 -103.7722833333,39.50825,10605.21 -103.76755,39.5062666667,10652.46 -103.761,39.5035,10844.78 -103.7611333333,39.5035,10851.49 -103.7564666667,39.5018833333,10911.23 -103.749,39.4992666667,11102.04 -103.749,39.4991666667,11094.11 -103.7438,39.4978166667,11152.33 -103.7363333333,39.495,11332.46 -103.7365,39.4950666667,11341.3 -103.7314166667,39.493,11383.37 -103.72475,39.4901166667,11570.51 -103.7246666667,39.49,11561.06 -103.7209666667,39.4882666667,11615.32 -103.7148333333,39.4856666667,11814.05 -103.7149833333,39.4856833333,11823.5 -103.71045,39.4841,11879.58 -103.7045333333,39.4818,12078.0 -103.7045,39.4816666667,12068.86 -103.70045,39.48,12134.39 -103.6943333333,39.4769333333,12330.99 -103.6943333333,39.4768333333,12322.76 -103.684,39.4711666667,12596.47 -103.6841333333,39.47125,12604.7 -103.6808166667,39.4688833333,12656.52 -103.6753666667,39.4662666667,12846.41 -103.6753333333,39.4661666667,12838.48 -103.6719666667,39.46425,12909.5 -103.6663,39.4612166667,13115.24 -103.6661666667,39.4611666667,13107.31 -103.6632,39.4591166667,13165.53 -103.6586666667,39.4561666667,13364.26 -103.6587333333,39.45625,13372.8 -103.6556,39.4541333333,13416.69 -103.6509333333,39.4514166667,13616.94 -103.6508333333,39.4513333333,13608.71 -103.6481,39.4495166667,13671.8 -103.6443333333,39.446,13869.31 -103.6443833333,39.4460833333,13878.76 -103.6417333333,39.4439166667,13936.68 -103.6383333333,39.4411666667,14119.25 -103.63845,39.4412333333,14128.7 -103.6365166667,39.4395,14180.82 -103.6339,39.4364,14390.83 -103.6338333333,39.4363333333,14381.99 -103.6315666667,39.4347,14425.88 -103.6284,39.4326666667,14631.01 -103.6283333333,39.4326666667,14622.17 -103.6262666667,39.4308,14673.99 -103.6239166667,39.4285666667,14857.48 -103.6238333333,39.4285,14848.33 -103.62245,39.4273166667,14906.85 -103.6210166667,39.4259,15101.32 -103.621,39.4258333333,15092.17 -103.61965,39.4248833333,15152.83 -103.6179666667,39.4243333333,15367.71 -103.6178333333,39.4243333333,15358.57 -103.6165166667,39.4239333333,15416.78 -103.615,39.4231666667,15601.19 -103.6150666667,39.4232333333,15610.64 -103.6126666667,39.4223333333,15870.33 -103.6128333333,39.4224666667,15880.08 -103.6119833333,39.4219166667,15937.99 -103.6106666667,39.4215,16136.72 -103.6107,39.4215833333,16146.48 -103.6093833333,39.4212666667,16191.89 -103.6081666667,39.4212,16385.44 -103.6081666667,39.4211666667,16376.6 -103.607,39.4213666667,16397.94 -103.6049666667,39.4213333333,16538.75 -103.6048333333,39.4213333333,16529.61 -103.60385,39.4213166667,16562.22 -103.6016666667,39.4211666667,16747.24 -103.6017833333,39.4211833333,16756.08 -103.6005333333,39.4205333333,16819.17 -103.5990666667,39.4186166667,17035.27 -103.599,39.4185,17026.43 -103.59875,39.4179,17095.01 -103.598,39.417,17236.14 -103.598,39.41705,17245.28 -103.5972,39.4162,17263.26 -103.5958333333,39.4156666667,17410.18 -103.5959333333,39.41575,17420.84 -103.595,39.4152666667,17451.32 -103.5928166667,39.4142666667,17619.57 -103.5926666667,39.4141666667,17609.21 -103.5917333333,39.4136166667,17642.13 -103.5902333333,39.41295,17781.12 -103.5901666667,39.4128333333,17770.75 -103.58925,39.4125,17799.1 -103.5877333333,39.4115166667,17935.04 -103.5876666667,39.4115,17924.98 -103.5863,39.4108666667,17963.39 -103.5850166667,39.40975,18092.93 -103.585,39.4096666667,18083.17 -103.5840666667,39.40865,18114.26 -103.5836666667,39.4078333333,18293.79 -103.5837333333,39.40795,18302.94 -103.5818,39.4066166667,18471.49 -103.5816666667,39.4065,18462.04 -103.5814833333,39.406,18501.36 -103.5805,39.4053333333,18633.03 -103.5805,39.4053833333,18642.18 -103.5801333333,39.4048166667,18652.24 -103.5796666667,39.4041666667,18783.0 -103.5797666667,39.4041666667,18793.05 -103.57915,39.4036333333,18809.21 -103.57845,39.40325,19000.93 -103.5783333333,39.4031666667,18990.87 -103.5773666667,39.4038166667,19064.33 -103.57635,39.4038833333,19210.63 -103.5761666667,39.4038333333,19200.88 -103.57555,39.40395,19231.36 -103.5744833333,39.4039666667,19366.99 -103.5743333333,39.4038333333,19356.93 -103.5738666667,39.4038166667,19395.34 -103.5737166667,39.4035666667,19567.55 -103.5736666667,39.4035,19557.8 -103.5742833333,39.40325,19632.47 -103.5745166667,39.4030833333,19776.95 -103.5745,39.403,19767.5 -103.5744,39.4033333333,19807.43 -103.57405,39.4034,20004.02 -103.574,39.4033333333,19993.05 -103.5736333333,39.4031333333,20032.37 -103.5733333333,39.4028333333,20165.87 -103.5733666667,39.4029666667,20176.24 -103.5730333333,39.4029,20206.41 -103.57235,39.4023,20349.06 -103.5723333333,39.4021666667,20338.08 -103.5721833333,39.4019666667,20383.5 -103.5725,39.4008333333,20525.23 -103.5725833333,39.4009666667,20534.68 -103.5729666667,39.4002166667,20552.66 -103.5737333333,39.3990333333,20681.29 -103.5736666667,39.399,20670.32 -103.5745,39.3968333333,20819.06 -103.5745833333,39.39695,20829.12 -103.5750333333,39.3964833333,20847.71 -103.576,39.3951666667,20984.26 -103.5760333333,39.3953166667,20995.23 -103.5768666667,39.3947,21014.74 -103.5783,39.394,21156.47 -103.5781666667,39.3938333333,21145.5 -103.57945,39.3938666667,21179.64 -103.5808333333,39.3936666667,21309.79 -103.58095,39.3937333333,21321.06 -103.5820333333,39.3936,21345.75 -103.5834833333,39.3930666667,21498.46 -103.5835,39.393,21488.4 -103.5844166667,39.3929833333,21529.55 -103.5855,39.3928333333,21663.05 -103.5855,39.3928833333,21671.89 -103.5863166667,39.3927166667,21702.67 -103.5879,39.3927333333,21842.27 -103.5878333333,39.3926666667,21833.13 -103.5890666667,39.3928333333,21869.7 -103.5905,39.3926666667,22001.99 -103.5904833333,39.3927333333,22011.44 -103.5916333333,39.3926333333,22028.81 -103.5928833333,39.3927166667,22173.29 -103.5928333333,39.3926666667,22164.14 -103.59385,39.39305,22199.8 -103.59495,39.3932833333,22340.93 -103.5948333333,39.3931666667,22331.48 -103.5956666667,39.39345,22371.71 -103.5962833333,39.3936,22518.32 -103.5961666667,39.3935,22507.96 -103.5964666667,39.3936,22547.88 -103.5968333333,39.393,22689.31 -103.5969,39.39315,22699.98 -103.5975333333,39.39265,22731.98 -103.5986666667,39.3918333333,22870.67 -103.5988,39.3919666667,22881.03 -103.6014333333,39.3916,23069.4 -103.6013333333,39.3915,23058.12 -103.6024166667,39.3917166667,23102.93 -103.6035,39.3916,23251.06 -103.6033333333,39.3915,23240.39 -103.6044333333,39.3916166667,23285.81 -103.6055833333,39.3914666667,23433.94 -103.6055,39.3913333333,23422.97 -103.6066333333,39.3911166667,23465.94 -103.6078666667,39.3903833333,23608.89 -103.6076666667,39.3903333333,23593.04 -103.6090833333,39.3898166667,23636.94 -103.6105,39.3893333333,23775.01 -103.6106166667,39.3894333333,23785.37 -103.6118,39.38905,23821.95 -103.6133166667,39.389,23965.81 -103.6131666667,39.389,23955.76 -103.6143166667,39.3888,23992.03 -103.6162333333,39.3881666667,24135.28 -103.6161666667,39.3881666667,24125.22 -103.61735,39.3876666667,24160.89 -103.6192666667,39.3869833333,24319.38 -103.6191666667,39.3868333333,24309.32 -103.6212166667,39.3864666667,24368.15 -103.623,39.3858333333,24506.83 -103.6231166667,39.38595,24517.5 -103.6245,39.3855666667,24551.94 -103.6261333333,39.3851333333,24699.47 -103.6269333333,39.3848833333,24731.17 -103.6288666667,39.3845,24875.64 -103.6288333333,39.3845,24865.58 -103.63015,39.3841166667,24906.12 -103.6321666667,39.384,25042.37 -103.6321833333,39.3840333333,25051.82 -103.6336166667,39.3839333333,25080.16 -103.6358333333,39.3836666667,25214.88 -103.6359166667,39.3837833333,25224.03 -103.6396666667,39.3841666667,25388.01 -103.6397833333,39.3843,25397.46 -103.6410333333,39.38455,25428.24 -103.643,39.3848333333,25561.44 -103.6431666667,39.3848333333,25571.5 -103.6447333333,39.38495,25597.1 -103.6468333333,39.385,25731.22 -103.6468166667,39.38515,25741.58 -103.6482166667,39.3853666667,25771.14 -103.6506666667,39.3856333333,25922.33 -103.6517666667,39.3857333333,25952.2 -103.654,39.386,26080.82 -103.65415,39.386,26090.27 -103.6557666667,39.3859833333,26124.41 -103.65785,39.3862833333,26272.85 -103.6578333333,39.3861666667,26262.48 -103.6590333333,39.38645,26301.19 -103.6611666667,39.3865,26442.92 -103.6612833333,39.3866,26451.76 -103.6628833333,39.3866833333,26483.46 -103.6654833333,39.3867166667,26628.24 -103.6653333333,39.3866666667,26617.88 -103.66735,39.3864833333,26658.42 -103.6699833333,39.3860666667,26802.89 -103.6698333333,39.386,26793.14 -103.6720666667,39.3857833333,26829.41 -103.6753166667,39.38565,26974.19 -103.6751666667,39.3855,26964.44 -103.6776666667,39.3855166667,27002.23 -103.6814,39.3856,27143.35 -103.6813333333,39.3855,27134.52 -103.6837166667,39.3856666667,27172.31 -103.6875,39.3856666667,27298.8 -103.6876,39.3858,27308.56 -103.6898833333,39.3862166667,27335.38 -103.6935,39.3863333333,27471.32 -103.6935,39.38635,27481.68 -103.6994333333,39.38695,27661.51 -103.6993333333,39.3868333333,27651.15 -103.70195,39.3871833333,27696.57 -103.7063333333,39.3873333333,27835.25 -103.7063333333,39.3873666667,27845.61 -103.7091833333,39.3873666667,27880.36 -103.7135833333,39.3874833333,28035.2 -103.7135,39.3873333333,28024.84 -103.7162166667,39.3877333333,28067.51 -103.7205,39.388,28213.81 -103.7205166667,39.3880166667,28223.57 -103.72345,39.38815,28254.66 -103.7273333333,39.3885,28394.86 -103.72745,39.3885166667,28404.31 -103.7302333333,39.3885,28432.66 -103.734,39.3885,28565.25 -103.7340833333,39.3886333333,28574.39 -103.73695,39.3888,28600.6 -103.7411333333,39.38915,28742.94 -103.741,39.389,28732.89 -103.7436166667,39.3892333333,28768.55 -103.7471666667,39.3895,28908.76 -103.7472833333,39.3896166667,28918.2 -103.7494166667,39.38965,28943.5</coordinates>
                    </LineString>
                </Placemark>
                <Placemark id="11">
                    <name>EOSS-321 Descent</name>
                    <styleUrl>#12</styleUrl>
                    <LineString id="10">
                        <extrude>0</extrude>
                        <altitudeMode>absolute</altitudeMode>
                        <coordinates>-103.7494166667,39.38965,28943.5 -103.7533333333,39.3890833333,28249.17 -103.7533333333,39.389,28244.6 -103.7558,39.3893333333,27702.36 -103.7593333333,39.3891666667,26873.91 -103.7594333333,39.38925,26887.02 -103.7619166667,39.3891,26392.33 -103.7641666667,39.3885,25655.63 -103.7642666667,39.38855,25664.16 -103.7658666667,39.3886,25225.25 -103.7676666667,39.3886666667,24544.93 -103.7677666667,39.3887333333,24556.21 -103.7689333333,39.3882,24141.07 -103.7700666667,39.38855,23551.29 -103.77,39.3885,23540.62 -103.7715,39.3876666667,22592.08 -103.7715666667,39.3876833333,22598.48 -103.7722,39.3878333333,22246.74 -103.7731666667,39.3876666667,21710.29 -103.7732166667,39.3877333333,21720.05 -103.7742333333,39.3872666667,21383.55 -103.7755666667,39.38695,20893.13 -103.7755,39.3868333333,20883.98 -103.7760333333,39.3861666667,20570.65 -103.7761666667,39.3858333333,20104.91 -103.7762166667,39.3858333333,20116.5 -103.77655,39.3847333333,19830.59 -103.777,39.3851666667,19428.87 -103.7771333333,39.38515,19437.1 -103.7764166667,39.3851333333,19159.42 -103.7748333333,39.3855,18766.23 -103.7749333333,39.38555,18774.77 -103.7745166667,39.3851166667,18502.27 -103.7735,39.3843333333,18099.94 -103.7736,39.3844166667,18110.0 -103.7721166667,39.38425,17841.16 -103.7691666667,39.3831666667,17514.42 -103.7692666667,39.3832833333,17524.17 -103.768,39.3827666667,17274.24 -103.7666,39.3824166667,16924.02 -103.7665,39.3823333333,16913.35 -103.76505,39.3808166667,16708.22 -103.7618333333,39.3803333333,16427.81 -103.7619666667,39.38035,16439.39 -103.7613166667,39.3811166667,16230.9 -103.7602666667,39.3821,15977.92 -103.7601666667,39.382,15967.56 -103.7603666667,39.3821666667,15770.96 -103.7584833333,39.3832,15527.43 -103.7585,39.3831666667,15516.15 -103.7568666667,39.3836166667,15337.84 -103.7546666667,39.3835,15097.96 -103.7547833333,39.3835666667,15107.72 -103.7496666667,39.3808333333,14657.22 -103.7498333333,39.3808333333,14664.84 -103.7479833333,39.3795,14471.9 -103.7451666667,39.3763333333,14213.43 -103.7452833333,39.3763833333,14225.02 -103.7443333333,39.3746666667,14027.81 -103.7408333333,39.372,13771.78 -103.7409333333,39.3720833333,13781.53 -103.7383,39.3702333333,13592.56 -103.7336666667,39.368,13331.95 -103.7336666667,39.36805,13342.32 -103.7306666667,39.3659833333,13160.65 -103.7256666667,39.3628333333,12918.34 -103.72575,39.3628333333,12930.53 -103.72305,39.36105,12752.53 -103.71795,39.3581666667,12555.63 -103.7178333333,39.358,12544.96 -103.7140166667,39.3563166667,12377.62 -103.7077666667,39.3541833333,12196.88 -103.7076666667,39.354,12185.29 -103.7035333333,39.3530166667,12035.64 -103.6964,39.3500833333,11865.25 -103.6963333333,39.35,11855.81 -103.6929166667,39.3480166667,11711.33 -103.68725,39.34535,11534.55 -103.68275,39.3436333333,11385.5 -103.6757,39.341,11198.35 -103.6756666667,39.341,11190.73 -103.6707833333,39.3396833333,11046.26 -103.6636666667,39.337,10846.92 -103.6638666667,39.3369833333,10856.37 -103.6598833333,39.3352166667,10700.31 -103.6535,39.3323333333,10511.94 -103.65355,39.3324333333,10520.48 -103.6485333333,39.3307333333,10365.33 -103.6419666667,39.3279166667,10199.22 -103.6418333333,39.3278333333,10189.77 -103.6303333333,39.3226666667,9860.58 -103.6305,39.3228333333,9872.17 -103.6257666667,39.32085,9731.35 -103.6195,39.3178333333,9540.24 -103.6195666667,39.3179,9549.99 -103.6149,39.3161166667,9417.1 -103.60905,39.31305,9237.27 -103.6093333333,39.3131666667,9238.18 -103.6051666667,39.3109666667,9090.05 -103.5993333333,39.3083333333,8915.7 -103.5994333333,39.3083833333,8926.07 -103.59565,39.3067,8787.08 -103.5898333333,39.3036666667,8618.52 -103.5899166667,39.30375,8627.97 -103.5865666667,39.3022833333,8491.12 -103.5816666667,39.2996666667,8339.02 -103.58165,39.2997166667,8349.39 -103.5778,39.2982,8211.92 -103.5724833333,39.29585,8060.44 -103.5725,39.2958333333,8050.68 -103.5691333333,39.2946333333,7926.93 -103.564,39.2925,7761.73 -103.5640333333,39.2926,7771.79 -103.5605833333,39.2916166667,7646.82 -103.55515,39.2898333333,7497.47 -103.5551666667,39.2896666667,7486.19 -103.5518666667,39.2889333333,7367.02 -103.5468666667,39.288,7221.63 -103.5468333333,39.288,7210.65 -103.5436833333,39.2873666667,7093.92 -103.5389833333,39.2861,6945.17 -103.5388333333,39.286,6935.42 -103.5360333333,39.2851,6817.77 -103.53175,39.2839666667,6672.99 -103.5316666667,39.2838333333,6661.4 -103.529,39.2831833333,6543.75 -103.5245,39.2815,6388.61 -103.5246666667,39.2816166667,6402.32 -103.5185,39.279,6127.39 -103.5184833333,39.27905,6138.06 -103.5158666667,39.2783333333,6010.66 -103.5122,39.27705,5874.41 -103.5121666667,39.277,5863.74 -103.5098166667,39.2764166667,5746.7 -103.5060166667,39.2751833333,5614.72 -103.506,39.275,5603.75 -103.5037833333,39.2746666667,5492.8 -103.5003333333,39.2733333333,5347.41 -103.5003333333,39.2735166667,5358.38 -103.4985,39.2728666667,5238.6 -103.4951666667,39.2718333333,5102.66 -103.4935,39.2710666667,5001.77 -103.4903333333,39.2698333333,4865.83 -103.49045,39.2699166667,4877.71 -103.4883166667,39.2691333333,4759.45 -103.4853333333,39.2676666667,4637.23 -103.4854333333,39.2677666667,4648.81 -103.4835,39.26715,4536.64 -103.48,39.2658333333,4423.56 -103.48,39.26595,4434.23 -103.4777166667,39.2654166667,4321.45 -103.4744833333,39.2644,4219.04 -103.4745,39.2643333333,4208.07 -103.4729166667,39.2639666667,4099.56 -103.4701666667,39.2631666667,3976.42 -103.47025,39.2632666667,3986.17 -103.46905,39.2630166667,3870.35 -103.4673333333,39.2626666667,3778.61 -103.4673166667,39.26265,3781.96 -103.4662,39.26265,3667.35 -103.4650833333,39.2623833333,3562.81 -103.465,39.2623333333,3553.05 -103.4640166667,39.2627,3443.33 -103.463,39.263,3335.73 -103.463,39.2631333333,3345.48 -103.4612166667,39.2642333333,3141.88 -103.4611666667,39.2641666667,3138.22 -103.4601833333,39.2645166667,3023.31 -103.4588333333,39.2646666667,2921.2 -103.4589833333,39.2647,2932.79 -103.4582333333,39.2642833333,2825.5 -103.4568333333,39.2638333333,2721.25 -103.4569833333,39.2639333333,2731.01 -103.4565333333,39.2637,2614.27 -103.4557666667,39.2631833333,2523.13</coordinates>
                    </LineString>
                </Placemark>
            </Folder>
            <Folder id="4">
                <Style id="37">
                    <IconStyle id="38">
                        <color>ff0000ff</color>
                        <colorMode>normal</colorMode>
                        <scale>1</scale>
                        <heading>0</heading>
                        <Icon id="39">
                            <href>https://maps.google.com/mapfiles/kml/shapes/placemark_circle.png</href>
                        </Icon>
                    </IconStyle>
                </Style>
                <Style id="42">
                    <IconStyle id="43">
                        <color>ff0000ff</color>
                        <colorMode>normal</colorMode>
                        <scale>1</scale>
                        <heading>0</heading>
                        <Icon id="44">
                            <href>https://maps.google.com/mapfiles/kml/shapes/placemark_circle.png</href>
                        </Icon>
                    </IconStyle>
                </Style>
                <Style id="47">
                    <IconStyle id="48">
                        <color>ff0000ff</color>
                        <colorMode>normal</colorMode>
                        <scale>1</scale>
                        <heading>0</heading>
                        <Icon id="49">
                            <href>https://maps.google.com/mapfiles/kml/shapes/placemark_circle.png</href>
                        </Icon>
                    </IconStyle>
                </Style>
                <Style id="52">
                    <IconStyle id="53">
                        <color>ff0000ff</color>
                        <colorMode>normal</colorMode>
                        <scale>1</scale>
                        <heading>0</heading>
                        <Icon id="54">
                            <href>https://maps.google.com/mapfiles/kml/shapes/placemark_circle.png</href>
                        </Icon>
                    </IconStyle>
                </Style>
                <Style id="57">
                    <IconStyle id="58">
                        <color>ff0000ff</color>
                        <colorMode>normal</colorMode>
                        <scale>1</scale>
                        <heading>0</heading>
                        <Icon id="59">
                            <href>https://maps.google.com/mapfiles/kml/shapes/placemark_circle.png</href>
                        </Icon>
                    </IconStyle>
                </Style>
                <Style id="62">
                    <IconStyle id="63">
                        <color>ff0000ff</color>
                        <colorMode>normal</colorMode>
                        <scale>1</scale>
                        <heading>0</heading>
                        <Icon id="64">
                            <href>https://maps.google.com/mapfiles/kml/shapes/placemark_circle.png</href>
                        </Icon>
                    </IconStyle>
                </Style>
                <Style id="67">
                    <IconStyle id="68">
                        <color>ff0000ff</color>
                        <colorMode>normal</colorMode>
                        <scale>1</scale>
                        <heading>0</heading>
                        <Icon id="69">
                            <href>https://maps.google.com/mapfiles/kml/shapes/placemark_circle.png</href>
                        </Icon>
                    </IconStyle>
                </Style>
                <Style id="72">
                    <IconStyle id="73">
                        <color>ff0000ff</color>
                        <colorMode>normal</colorMode>
                        <scale>1</scale>
                        <heading>0</heading>
                        <Icon id="74">
                            <href>https://maps.google.com/mapfiles/kml/shapes/placemark_circle.png</href>
                        </Icon>
                    </IconStyle>
                </Style>
                <Style id="77">
                    <IconStyle id="78">
                        <color>ff0000ff</color>
                        <colorMode>normal</colorMode>
                        <scale>1</scale>
                        <heading>0</heading>
                        <Icon id="79">
                            <href>https://maps.google.com/mapfiles/kml/shapes/placemark_circle.png</href>
                        </Icon>
                    </IconStyle>
                </Style>
                <Style id="82">
                    <IconStyle id="83">
                        <color>ffff0000</color>
                        <colorMode>normal</colorMode>
                        <scale>1</scale>
                        <heading>0</heading>
                        <Icon id="84">
                            <href>https://maps.google.com/mapfiles/kml/shapes/placemark_circle.png</href>
                        </Icon>
                    </IconStyle>
                </Style>
                <Style id="87">
                    <IconStyle id="88">
                        <color>ffff0000</color>
                        <colorMode>normal</colorMode>
                        <scale>1</scale>
                        <heading>0</heading>
                        <Icon id="89">
                            <href>https://maps.google.com/mapfiles/kml/shapes/placemark_circle.png</href>
                        </Icon>
                    </IconStyle>
                </Style>
                <Style id="92">
                    <IconStyle id="93">
                        <color>ffff0000</color>
                        <colorMode>normal</colorMode>
                        <scale>1</scale>
                        <heading>0</heading>
                        <Icon id="94">
                            <href>https://maps.google.com/mapfiles/kml/shapes/placemark_circle.png</href>
                        </Icon>
                    </IconStyle>
                </Style>
                <Style id="97">
                    <IconStyle id="98">
                        <color>ffff0000</color>
                        <colorMode>normal</colorMode>
                        <scale>1</scale>
                        <heading>0</heading>
                        <Icon id="99">
                            <href>https://maps.google.com/mapfiles/kml/shapes/placemark_circle.png</href>
                        </Icon>
                    </IconStyle>
                </Style>
                <Style id="102">
                    <IconStyle id="103">
                        <color>ffff0000</color>
                        <colorMode>normal</colorMode>
                        <scale>1</scale>
                        <heading>0</heading>
                        <Icon id="104">
                            <href>https://maps.google.com/mapfiles/kml/shapes/placemark_circle.png</href>
                        </Icon>
                    </IconStyle>
                </Style>
                <Style id="107">
                    <IconStyle id="108">
                        <color>ffff0000</color>
                        <colorMode>normal</colorMode>
                        <scale>1</scale>
                        <heading>0</heading>
                        <Icon id="109">
                            <href>https://maps.google.com/mapfiles/kml/shapes/placemark_circle.png</href>
                        </Icon>
                    </IconStyle>
                </Style>
                <Style id="112">
                    <IconStyle id="113">
                        <color>ffff0000</color>
                        <colorMode>normal</colorMode>
                        <scale>1</scale>
                        <heading>0</heading>
                        <Icon id="114">
                            <href>https://maps.google.com/mapfiles/kml/shapes/placemark_circle.png</href>
                        </Icon>
                    </IconStyle>
                </Style>
                <Style id="117">
                    <IconStyle id="118">
                        <color>ffff0000</color>
                        <colorMode>normal</colorMode>
                        <scale>1</scale>
                        <heading>0</heading>
                        <Icon id="119">
                            <href>https://maps.google.com/mapfiles/kml/shapes/placemark_circle.png</href>
                        </Icon>
                    </IconStyle>
                </Style>
                <Style id="122">
                    <IconStyle id="123">
                        <color>ffff0000</color>
                        <colorMode>normal</colorMode>
                        <scale>1</scale>
                        <heading>0</heading>
                        <Icon id="124">
                            <href>https://maps.google.com/mapfiles/kml/shapes/placemark_circle.png</href>
                        </Icon>
                    </IconStyle>
                </Style>
                <name>Waypoints</name>
                <Placemark id="36">
                    <name>10k</name>
                    <description><![CDATA[
        <h1>Waypoint</h1>
        <table style="width: 100%;" cellpadding=0 cellspacing=0 border=0>
        <tr><td style="padding: 10px; border: solid 1px black;border-bottom: 0;"><strong>Local Time</strong></td><td style="border: solid 1px black;border-left: 0; border-bottom: 0; padding: 10px;">07:21:27</td></tr>
        <tr><td style="padding: 10px; border: solid 1px black;border-bottom: 0;"><strong>Altitude</strong></td><td style="border: solid 1px black;border-left: 0; border-bottom: 0; padding: 10px;">9,745ft (2,970.3m)</td></tr>
        <tr><td style="padding: 10px; border: solid 1px black;"><strong>Coordinates</strong></td><td style="border: solid 1px black; border-left: 0; padding: 10px;">39.60713333, -104.03055</td></tr>
        </table>
        ]]></description>
                    <styleUrl>#37</styleUrl>
                    <Point id="35">
                        <coordinates>-104.03055,39.6071333333,2970.28</coordinates>
                        <altitudeMode>absolute</altitudeMode>
                    </Point>
                </Placemark>
                <Placemark id="41">
                    <name>20k</name>
                    <description><![CDATA[
        <h1>Waypoint</h1>
        <table style="width: 100%;" cellpadding=0 cellspacing=0 border=0>
        <tr><td style="padding: 10px; border: solid 1px black;border-bottom: 0;"><strong>Local Time</strong></td><td style="border: solid 1px black;border-left: 0; border-bottom: 0; padding: 10px;">07:28:57</td></tr>
        <tr><td style="padding: 10px; border: solid 1px black;border-bottom: 0;"><strong>Altitude</strong></td><td style="border: solid 1px black;border-left: 0; border-bottom: 0; padding: 10px;">19,996ft (6,094.8m)</td></tr>
        <tr><td style="padding: 10px; border: solid 1px black;"><strong>Coordinates</strong></td><td style="border: solid 1px black; border-left: 0; padding: 10px;">39.58211667, -103.95406667</td></tr>
        </table>
        ]]></description>
                    <styleUrl>#42</styleUrl>
                    <Point id="40">
                        <coordinates>-103.9540666667,39.5821166667,6094.78</coordinates>
                        <altitudeMode>absolute</altitudeMode>
                    </Point>
                </Placemark>
                <Placemark id="46">
                    <name>30k</name>
                    <description><![CDATA[
        <h1>Waypoint</h1>
        <table style="width: 100%;" cellpadding=0 cellspacing=0 border=0>
        <tr><td style="padding: 10px; border: solid 1px black;border-bottom: 0;"><strong>Local Time</strong></td><td style="border: solid 1px black;border-left: 0; border-bottom: 0; padding: 10px;">07:35:45</td></tr>
        <tr><td style="padding: 10px; border: solid 1px black;border-bottom: 0;"><strong>Altitude</strong></td><td style="border: solid 1px black;border-left: 0; border-bottom: 0; padding: 10px;">30,026ft (9,151.9m)</td></tr>
        <tr><td style="padding: 10px; border: solid 1px black;"><strong>Coordinates</strong></td><td style="border: solid 1px black; border-left: 0; padding: 10px;">39.54, -103.83933333</td></tr>
        </table>
        ]]></description>
                    <styleUrl>#47</styleUrl>
                    <Point id="45">
                        <coordinates>-103.8393333333,39.54,9151.92</coordinates>
                        <altitudeMode>absolute</altitudeMode>
                    </Point>
                </Placemark>
                <Placemark id="51">
                    <name>40k</name>
                    <description><![CDATA[
        <h1>Waypoint</h1>
        <table style="width: 100%;" cellpadding=0 cellspacing=0 border=0>
        <tr><td style="padding: 10px; border: solid 1px black;border-bottom: 0;"><strong>Local Time</strong></td><td style="border: solid 1px black;border-left: 0; border-bottom: 0; padding: 10px;">07:41:57</td></tr>
        <tr><td style="padding: 10px; border: solid 1px black;border-bottom: 0;"><strong>Altitude</strong></td><td style="border: solid 1px black;border-left: 0; border-bottom: 0; padding: 10px;">39,811ft (12,134.4m)</td></tr>
        <tr><td style="padding: 10px; border: solid 1px black;"><strong>Coordinates</strong></td><td style="border: solid 1px black; border-left: 0; padding: 10px;">39.48, -103.70045</td></tr>
        </table>
        ]]></description>
                    <styleUrl>#52</styleUrl>
                    <Point id="50">
                        <coordinates>-103.70045,39.48,12134.39</coordinates>
                        <altitudeMode>absolute</altitudeMode>
                    </Point>
                </Placemark>
                <Placemark id="56">
                    <name>50k</name>
                    <description><![CDATA[
        <h1>Waypoint</h1>
        <table style="width: 100%;" cellpadding=0 cellspacing=0 border=0>
        <tr><td style="padding: 10px; border: solid 1px black;border-bottom: 0;"><strong>Local Time</strong></td><td style="border: solid 1px black;border-left: 0; border-bottom: 0; padding: 10px;">07:47:57</td></tr>
        <tr><td style="padding: 10px; border: solid 1px black;border-bottom: 0;"><strong>Altitude</strong></td><td style="border: solid 1px black;border-left: 0; border-bottom: 0; padding: 10px;">49,714ft (15,152.8m)</td></tr>
        <tr><td style="padding: 10px; border: solid 1px black;"><strong>Coordinates</strong></td><td style="border: solid 1px black; border-left: 0; padding: 10px;">39.42488333, -103.61965</td></tr>
        </table>
        ]]></description>
                    <styleUrl>#57</styleUrl>
                    <Point id="55">
                        <coordinates>-103.61965,39.4248833333,15152.83</coordinates>
                        <altitudeMode>absolute</altitudeMode>
                    </Point>
                </Placemark>
                <Placemark id="61">
                    <name>60k</name>
                    <description><![CDATA[
        <h1>Waypoint</h1>
        <table style="width: 100%;" cellpadding=0 cellspacing=0 border=0>
        <tr><td style="padding: 10px; border: solid 1px black;border-bottom: 0;"><strong>Local Time</strong></td><td style="border: solid 1px black;border-left: 0; border-bottom: 0; padding: 10px;">07:55:15</td></tr>
        <tr><td style="padding: 10px; border: solid 1px black;border-bottom: 0;"><strong>Altitude</strong></td><td style="border: solid 1px black;border-left: 0; border-bottom: 0; padding: 10px;">60,019ft (18,293.8m)</td></tr>
        <tr><td style="padding: 10px; border: solid 1px black;"><strong>Coordinates</strong></td><td style="border: solid 1px black; border-left: 0; padding: 10px;">39.40783333, -103.58366667</td></tr>
        </table>
        ]]></description>
                    <styleUrl>#62</styleUrl>
                    <Point id="60">
                        <coordinates>-103.5836666667,39.4078333333,18293.79</coordinates>
                        <altitudeMode>absolute</altitudeMode>
                    </Point>
                </Placemark>
                <Placemark id="66">
                    <name>70k</name>
                    <description><![CDATA[
        <h1>Waypoint</h1>
        <table style="width: 100%;" cellpadding=0 cellspacing=0 border=0>
        <tr><td style="padding: 10px; border: solid 1px black;border-bottom: 0;"><strong>Local Time</strong></td><td style="border: solid 1px black;border-left: 0; border-bottom: 0; padding: 10px;">08:03:57</td></tr>
        <tr><td style="padding: 10px; border: solid 1px black;border-bottom: 0;"><strong>Altitude</strong></td><td style="border: solid 1px black;border-left: 0; border-bottom: 0; padding: 10px;">70,032ft (21,345.8m)</td></tr>
        <tr><td style="padding: 10px; border: solid 1px black;"><strong>Coordinates</strong></td><td style="border: solid 1px black; border-left: 0; padding: 10px;">39.3936, -103.58203333</td></tr>
        </table>
        ]]></description>
                    <styleUrl>#67</styleUrl>
                    <Point id="65">
                        <coordinates>-103.5820333333,39.3936,21345.75</coordinates>
                        <altitudeMode>absolute</altitudeMode>
                    </Point>
                </Placemark>
                <Placemark id="71">
                    <name>80k</name>
                    <description><![CDATA[
        <h1>Waypoint</h1>
        <table style="width: 100%;" cellpadding=0 cellspacing=0 border=0>
        <tr><td style="padding: 10px; border: solid 1px black;border-bottom: 0;"><strong>Local Time</strong></td><td style="border: solid 1px black;border-left: 0; border-bottom: 0; padding: 10px;">08:12:27</td></tr>
        <tr><td style="padding: 10px; border: solid 1px black;border-bottom: 0;"><strong>Altitude</strong></td><td style="border: solid 1px black;border-left: 0; border-bottom: 0; padding: 10px;">79,948ft (24,368.2m)</td></tr>
        <tr><td style="padding: 10px; border: solid 1px black;"><strong>Coordinates</strong></td><td style="border: solid 1px black; border-left: 0; padding: 10px;">39.38646667, -103.62121667</td></tr>
        </table>
        ]]></description>
                    <styleUrl>#72</styleUrl>
                    <Point id="70">
                        <coordinates>-103.6212166667,39.3864666667,24368.15</coordinates>
                        <altitudeMode>absolute</altitudeMode>
                    </Point>
                </Placemark>
                <Placemark id="76">
                    <name>90k</name>
                    <description><![CDATA[
        <h1>Waypoint</h1>
        <table style="width: 100%;" cellpadding=0 cellspacing=0 border=0>
        <tr><td style="padding: 10px; border: solid 1px black;border-bottom: 0;"><strong>Local Time</strong></td><td style="border: solid 1px black;border-left: 0; border-bottom: 0; padding: 10px;">08:21:15</td></tr>
        <tr><td style="padding: 10px; border: solid 1px black;border-bottom: 0;"><strong>Altitude</strong></td><td style="border: solid 1px black;border-left: 0; border-bottom: 0; padding: 10px;">90,129ft (27,471.3m)</td></tr>
        <tr><td style="padding: 10px; border: solid 1px black;"><strong>Coordinates</strong></td><td style="border: solid 1px black; border-left: 0; padding: 10px;">39.38633333, -103.6935</td></tr>
        </table>
        ]]></description>
                    <styleUrl>#77</styleUrl>
                    <Point id="75">
                        <coordinates>-103.6935,39.3863333333,27471.32</coordinates>
                        <altitudeMode>absolute</altitudeMode>
                    </Point>
                </Placemark>
                <Placemark id="81">
                    <name>10k</name>
                    <description><![CDATA[
        <h1>Waypoint</h1>
        <table style="width: 100%;" cellpadding=0 cellspacing=0 border=0>
        <tr><td style="padding: 10px; border: solid 1px black;border-bottom: 0;"><strong>Local Time</strong></td><td style="border: solid 1px black;border-left: 0; border-bottom: 0; padding: 10px;">08:54:27</td></tr>
        <tr><td style="padding: 10px; border: solid 1px black;border-bottom: 0;"><strong>Altitude</strong></td><td style="border: solid 1px black;border-left: 0; border-bottom: 0; padding: 10px;">9,919ft (3,023.3m)</td></tr>
        <tr><td style="padding: 10px; border: solid 1px black;"><strong>Coordinates</strong></td><td style="border: solid 1px black; border-left: 0; padding: 10px;">39.26451667, -103.46018333</td></tr>
        </table>
        ]]></description>
                    <styleUrl>#82</styleUrl>
                    <Point id="80">
                        <coordinates>-103.4601833333,39.2645166667,3023.31</coordinates>
                        <altitudeMode>absolute</altitudeMode>
                    </Point>
                </Placemark>
                <Placemark id="86">
                    <name>20k</name>
                    <description><![CDATA[
        <h1>Waypoint</h1>
        <table style="width: 100%;" cellpadding=0 cellspacing=0 border=0>
        <tr><td style="padding: 10px; border: solid 1px black;border-bottom: 0;"><strong>Local Time</strong></td><td style="border: solid 1px black;border-left: 0; border-bottom: 0; padding: 10px;">08:47:45</td></tr>
        <tr><td style="padding: 10px; border: solid 1px black;border-bottom: 0;"><strong>Altitude</strong></td><td style="border: solid 1px black;border-left: 0; border-bottom: 0; padding: 10px;">20,103ft (6,127.4m)</td></tr>
        <tr><td style="padding: 10px; border: solid 1px black;"><strong>Coordinates</strong></td><td style="border: solid 1px black; border-left: 0; padding: 10px;">39.279, -103.5185</td></tr>
        </table>
        ]]></description>
                    <styleUrl>#87</styleUrl>
                    <Point id="85">
                        <coordinates>-103.5185,39.279,6127.39</coordinates>
                        <altitudeMode>absolute</altitudeMode>
                    </Point>
                </Placemark>
                <Placemark id="91">
                    <name>30k</name>
                    <description><![CDATA[
        <h1>Waypoint</h1>
        <table style="width: 100%;" cellpadding=0 cellspacing=0 border=0>
        <tr><td style="padding: 10px; border: solid 1px black;border-bottom: 0;"><strong>Local Time</strong></td><td style="border: solid 1px black;border-left: 0; border-bottom: 0; padding: 10px;">08:42:27</td></tr>
        <tr><td style="padding: 10px; border: solid 1px black;border-bottom: 0;"><strong>Altitude</strong></td><td style="border: solid 1px black;border-left: 0; border-bottom: 0; padding: 10px;">29,823ft (9,090.0m)</td></tr>
        <tr><td style="padding: 10px; border: solid 1px black;"><strong>Coordinates</strong></td><td style="border: solid 1px black; border-left: 0; padding: 10px;">39.31096667, -103.60516667</td></tr>
        </table>
        ]]></description>
                    <styleUrl>#92</styleUrl>
                    <Point id="90">
                        <coordinates>-103.6051666667,39.3109666667,9090.05</coordinates>
                        <altitudeMode>absolute</altitudeMode>
                    </Point>
                </Placemark>
                <Placemark id="96">
                    <name>40k</name>
                    <description><![CDATA[
        <h1>Waypoint</h1>
        <table style="width: 100%;" cellpadding=0 cellspacing=0 border=0>
        <tr><td style="padding: 10px; border: solid 1px black;border-bottom: 0;"><strong>Local Time</strong></td><td style="border: solid 1px black;border-left: 0; border-bottom: 0; padding: 10px;">08:37:45</td></tr>
        <tr><td style="padding: 10px; border: solid 1px black;border-bottom: 0;"><strong>Altitude</strong></td><td style="border: solid 1px black;border-left: 0; border-bottom: 0; padding: 10px;">40,016ft (12,196.9m)</td></tr>
        <tr><td style="padding: 10px; border: solid 1px black;"><strong>Coordinates</strong></td><td style="border: solid 1px black; border-left: 0; padding: 10px;">39.35418333, -103.70776667</td></tr>
        </table>
        ]]></description>
                    <styleUrl>#97</styleUrl>
                    <Point id="95">
                        <coordinates>-103.7077666667,39.3541833333,12196.88</coordinates>
                        <altitudeMode>absolute</altitudeMode>
                    </Point>
                </Placemark>
                <Placemark id="101">
                    <name>50k</name>
                    <description><![CDATA[
        <h1>Waypoint</h1>
        <table style="width: 100%;" cellpadding=0 cellspacing=0 border=0>
        <tr><td style="padding: 10px; border: solid 1px black;border-bottom: 0;"><strong>Local Time</strong></td><td style="border: solid 1px black;border-left: 0; border-bottom: 0; padding: 10px;">08:33:57</td></tr>
        <tr><td style="padding: 10px; border: solid 1px black;border-bottom: 0;"><strong>Altitude</strong></td><td style="border: solid 1px black;border-left: 0; border-bottom: 0; padding: 10px;">50,321ft (15,337.8m)</td></tr>
        <tr><td style="padding: 10px; border: solid 1px black;"><strong>Coordinates</strong></td><td style="border: solid 1px black; border-left: 0; padding: 10px;">39.38361667, -103.75686667</td></tr>
        </table>
        ]]></description>
                    <styleUrl>#102</styleUrl>
                    <Point id="100">
                        <coordinates>-103.7568666667,39.3836166667,15337.84</coordinates>
                        <altitudeMode>absolute</altitudeMode>
                    </Point>
                </Placemark>
                <Placemark id="106">
                    <name>59k</name>
                    <description><![CDATA[
        <h1>Waypoint</h1>
        <table style="width: 100%;" cellpadding=0 cellspacing=0 border=0>
        <tr><td style="padding: 10px; border: solid 1px black;border-bottom: 0;"><strong>Local Time</strong></td><td style="border: solid 1px black;border-left: 0; border-bottom: 0; padding: 10px;">08:31:15</td></tr>
        <tr><td style="padding: 10px; border: solid 1px black;border-bottom: 0;"><strong>Altitude</strong></td><td style="border: solid 1px black;border-left: 0; border-bottom: 0; padding: 10px;">59,416ft (18,110.0m)</td></tr>
        <tr><td style="padding: 10px; border: solid 1px black;"><strong>Coordinates</strong></td><td style="border: solid 1px black; border-left: 0; padding: 10px;">39.38441667, -103.7736</td></tr>
        </table>
        ]]></description>
                    <styleUrl>#107</styleUrl>
                    <Point id="105">
                        <coordinates>-103.7736,39.3844166667,18110.0</coordinates>
                        <altitudeMode>absolute</altitudeMode>
                    </Point>
                </Placemark>
                <Placemark id="111">
                    <name>70k</name>
                    <description><![CDATA[
        <h1>Waypoint</h1>
        <table style="width: 100%;" cellpadding=0 cellspacing=0 border=0>
        <tr><td style="padding: 10px; border: solid 1px black;border-bottom: 0;"><strong>Local Time</strong></td><td style="border: solid 1px black;border-left: 0; border-bottom: 0; padding: 10px;">08:28:57</td></tr>
        <tr><td style="padding: 10px; border: solid 1px black;border-bottom: 0;"><strong>Altitude</strong></td><td style="border: solid 1px black;border-left: 0; border-bottom: 0; padding: 10px;">70,156ft (21,383.5m)</td></tr>
        <tr><td style="padding: 10px; border: solid 1px black;"><strong>Coordinates</strong></td><td style="border: solid 1px black; border-left: 0; padding: 10px;">39.38726667, -103.77423333</td></tr>
        </table>
        ]]></description>
                    <styleUrl>#112</styleUrl>
                    <Point id="110">
                        <coordinates>-103.7742333333,39.3872666667,21383.55</coordinates>
                        <altitudeMode>absolute</altitudeMode>
                    </Point>
                </Placemark>
                <Placemark id="116">
                    <name>81k</name>
                    <description><![CDATA[
        <h1>Waypoint</h1>
        <table style="width: 100%;" cellpadding=0 cellspacing=0 border=0>
        <tr><td style="padding: 10px; border: solid 1px black;border-bottom: 0;"><strong>Local Time</strong></td><td style="border: solid 1px black;border-left: 0; border-bottom: 0; padding: 10px;">08:27:15</td></tr>
        <tr><td style="padding: 10px; border: solid 1px black;border-bottom: 0;"><strong>Altitude</strong></td><td style="border: solid 1px black;border-left: 0; border-bottom: 0; padding: 10px;">80,528ft (24,544.9m)</td></tr>
        <tr><td style="padding: 10px; border: solid 1px black;"><strong>Coordinates</strong></td><td style="border: solid 1px black; border-left: 0; padding: 10px;">39.38866667, -103.76766667</td></tr>
        </table>
        ]]></description>
                    <styleUrl>#117</styleUrl>
                    <Point id="115">
                        <coordinates>-103.7676666667,39.3886666667,24544.93</coordinates>
                        <altitudeMode>absolute</altitudeMode>
                    </Point>
                </Placemark>
                <Placemark id="121">
                    <name>91k</name>
                    <description><![CDATA[
        <h1>Waypoint</h1>
        <table style="width: 100%;" cellpadding=0 cellspacing=0 border=0>
        <tr><td style="padding: 10px; border: solid 1px black;border-bottom: 0;"><strong>Local Time</strong></td><td style="border: solid 1px black;border-left: 0; border-bottom: 0; padding: 10px;">08:25:57</td></tr>
        <tr><td style="padding: 10px; border: solid 1px black;border-bottom: 0;"><strong>Altitude</strong></td><td style="border: solid 1px black;border-left: 0; border-bottom: 0; padding: 10px;">90,887ft (27,702.4m)</td></tr>
        <tr><td style="padding: 10px; border: solid 1px black;"><strong>Coordinates</strong></td><td style="border: solid 1px black; border-left: 0; padding: 10px;">39.38933333, -103.7558</td></tr>
        </table>
        ]]></description>
                    <styleUrl>#122</styleUrl>
                    <Point id="120">
                        <coordinates>-103.7558,39.3893333333,27702.36</coordinates>
                        <altitudeMode>absolute</altitudeMode>
                    </Point>
                </Placemark>
            </Folder>
            <Folder id="5">
                <Style id="16">
                    <IconStyle id="17">
                        <color>ff008cff</color>
                        <colorMode>normal</colorMode>
                        <scale>1</scale>
                        <heading>0</heading>
                        <Icon id="18">
                            <href>https://maps.google.com/mapfiles/kml/shapes/placemark_circle.png</href>
                        </Icon>
                    </IconStyle>
                </Style>
                <Style id="21">
                    <IconStyle id="22">
                        <color>ff008cff</color>
                        <colorMode>normal</colorMode>
                        <scale>1</scale>
                        <heading>0</heading>
                        <Icon id="23">
                            <href>https://maps.google.com/mapfiles/kml/shapes/placemark_circle.png</href>
                        </Icon>
                    </IconStyle>
                </Style>
                <Style id="26">
                    <IconStyle id="27">
                        <color>ff00ffff</color>
                        <colorMode>normal</colorMode>
                        <scale>1</scale>
                        <heading>0</heading>
                        <Icon id="28">
                            <href>https://maps.google.com/mapfiles/kml/shapes/placemark_circle.png</href>
                        </Icon>
                    </IconStyle>
                </Style>
                <Style id="31">
                    <IconStyle id="32">
                        <color>ff006400</color>
                        <colorMode>normal</colorMode>
                        <scale>1</scale>
                        <heading>0</heading>
                        <Icon id="33">
                            <href>https://maps.google.com/mapfiles/kml/shapes/placemark_circle.png</href>
                        </Icon>
                    </IconStyle>
                    <LabelStyle id="34">
                        <color>ff006400</color>
                        <colorMode>normal</colorMode>
                        <scale>1</scale>
                    </LabelStyle>
                </Style>
                <name>Points of Interest</name>
                <Placemark id="15">
                    <name>Launch</name>
                    <description><![CDATA[
    <h1>Launch</h1>
    <table style="width: 100%;" cellpadding=0 cellspacing=0 border=0>
    <tr><td style="padding: 10px; border: solid 1px black;border-bottom: 0;"><strong>Local Time</strong></td><td style="border: solid 1px black;border-bottom: 0; border-left: 0; padding: 10px;">07:17:45</td></tr>
    <tr><td style="padding: 10px; border: solid 1px black;border-bottom: 0;"><strong>Altitude</strong></td><td style="border: solid 1px black;border-left: 0; border-bottom: 0; padding: 10px;">5,211ft (1,588.3m)</td></tr>
    <tr><td style="padding: 10px; border: solid 1px black;"><strong>Coordinates</strong></td><td style="border: solid 1px black; border-left: 0; padding: 10px;">39.60816667, -104.04216667</td></tr>
    </table>
    ]]></description>
                    <styleUrl>#16</styleUrl>
                    <Point id="14">
                        <coordinates>-104.0421666667,39.6081666667,1588.31</coordinates>
                        <altitudeMode>absolute</altitudeMode>
                    </Point>
                </Placemark>
                <Placemark id="20">
                    <name>Landing</name>
                    <description><![CDATA[
    <h1>Landing</h1>
    <table style="width: 100%;" cellpadding=0 cellspacing=0 border=0>
    <tr><td style="padding: 10px; border: solid 1px black;border-bottom: 0;"><strong>Local Time</strong></td><td style="border: solid 1px black;border-left: 0; border-bottom: 0; padding: 10px;">08:55:45</td></tr>
    <tr><td style="padding: 10px; border: solid 1px black;border-bottom: 0;"><strong>Altitude</strong></td><td style="border: solid 1px black;border-bottom: 0; border-left: 0; padding: 10px;">8,278ft (2,523.1m)</td></tr>
    <tr><td style="padding: 10px; border: solid 1px black;"><strong>Coordinates</strong></td><td style="border: solid 1px black; border-left: 0; padding: 10px;">39.26318333, -103.45576667</td></tr>
    </table>
    ]]></description>
                    <styleUrl>#21</styleUrl>
                    <Point id="19">
                        <coordinates>-103.4557666667,39.2631833333,2523.13</coordinates>
                        <altitudeMode>absolute</altitudeMode>
                    </Point>
                </Placemark>
                <Placemark id="25">
                    <name>Burst 94,959ft</name>
                    <description><![CDATA[
    <h1>Burst: 94,959ft</h1>
    <table style="width: 100%;" cellpadding=0 cellspacing=0 border=0>
    <tr><td style="padding: 10px; border: solid 1px black;border-bottom: 0;"><strong>Local Time</strong></td><td style="border: solid 1px black;border-left: 0; border-bottom: 0; padding: 10px;">08:25:27</td></tr>
    <tr><td style="padding: 10px; border: solid 1px black;border-bottom: 0;"><strong>Altitude</strong></td><td style="border: solid 1px black;border-left: 0; border-bottom: 0; padding: 10px;">94,959ft (28,943.5m)</td></tr>
    <tr><td style="padding: 10px; border: solid 1px black;"><strong>Coordinates</strong></td><td style="border: solid 1px black; border-left: 0; padding: 10px;">39.38965, -103.74941667</td></tr>
    </table>
    ]]></description>
                    <styleUrl>#26</styleUrl>
                    <Point id="24">
                        <coordinates>-103.7494166667,39.38965,28943.5</coordinates>
                        <altitudeMode>absolute</altitudeMode>
                    </Point>
                </Placemark>
                <Placemark id="30">
                    <name>57k, Turbulent-to-Laminar</name>
                    <description><![CDATA[
        <h1>Airflow Transitioning from Turbulent-to-Laminar</h1>
        <table style="width: 100%;" cellpadding=0 cellspacing=0 border=0>
        <tr><td style="padding: 10px; border: solid 1px black;border-bottom: 0;"><strong>Local Time</strong></td><td style="border: solid 1px black;border-left: 0; border-bottom: 0; padding: 10px;">07:52:15</td></tr>
        <tr><td style="padding: 10px; border: solid 1px black;border-bottom: 0;"><strong>Altitude</strong></td><td style="border: solid 1px black;border-left: 0; border-bottom: 0; padding: 10px;">56,579ft (17,245.3m)</td></tr>
        <tr><td style="padding: 10px; border: solid 1px black;"><strong>Coordinates</strong></td><td style="border: solid 1px black; border-left: 0; padding: 10px;">39.41705, -103.598</td></tr>
        </table>
        ]]></description>
                    <styleUrl>#31</styleUrl>
                    <Point id="29">
                        <coordinates>-103.598,39.41705,17245.28</coordinates>
                        <altitudeMode>absolute</altitudeMode>
                    </Point>
                </Placemark>
            </Folder>
        </Document>
    </Document>
</kml>
