<?xml version="1.0" encoding="UTF-8"?>
<kml xmlns="http://www.opengis.net/kml/2.2" xmlns:gx="http://www.google.com/kml/ext/2.2">
    <Document id="1">
        <Document id="2">
            <name>EOSS-318</name>
            <description><![CDATA[
    <h1>EOSS-318</h1>
    <table style="width: 100%;" cellpadding=0 cellspacing=0 border=0>
    <tr><td style="border: solid 1px black;border-bottom: 0; padding: 10px;"><strong>Launch Local Date/Time</strong></td><td style=" padding: 10px;border: solid 1px black;border-bottom: 0; border-left: 0;">2021-11-06 07:30:30</td></tr>
    <tr><td style="border: solid 1px black;border-bottom: 0; padding: 10px;"><strong>Flight Duration</strong></td><td style=" padding: 10px;border: solid 1px black;border-bottom: 0; border-left: 0; ">2hrs 14mins 57secs</td></tr>
    <tr><td style="border: solid 1px black;border-bottom: 0; padding: 10px;"><strong>Down Range Distance</strong></td><td style=" padding: 10px;border: solid 1px black;border-bottom: 0; border-left: 0; ">83.8mi (135.0km)</td></tr>
    <tr><td style="border: solid 1px black; padding: 10px;"><strong>Approx. Burst Altitude</strong></td><td style=" padding: 10px;border: solid 1px black; border-left: 0; ">105,972ft (32,300.3m)</td></tr>
    </table>
    ]]></description>
            <Folder id="3">
                <Style id="8">
                    <LineStyle id="9">
                        <color>ff0000ff</color>
                        <colorMode>normal</colorMode>
                        <width>3</width>
                    </LineStyle>
                </Style>
                <Style id="12">
                    <LineStyle id="13">
                        <color>ffff0000</color>
                        <colorMode>normal</colorMode>
                        <width>3</width>
                    </LineStyle>
                </Style>
                <name>Paths</name>
                <Placemark id="7">
                    <name>EOSS-318 Ascent</name>
                    <styleUrl>#8</styleUrl>
                    <LineString id="6">
                        <extrude>0</extrude>
                        <altitudeMode>absolute</altitudeMode>
                        <coordinates>-104.0418333333,39.6083333333,1597.15 -104.0418166667,39.6092333333,1668.17 -104.0416666667,39.6091666667,1721.51 -104.041,39.6096,1831.24 -104.041,39.6096666667,1888.24 -104.0408666667,39.6100666667,2003.15 -104.0408333333,39.6101666667,2065.93 -104.04055,39.6107833333,2188.16 -104.0405,39.6108333333,2248.51 -104.04015,39.6120166667,2374.39 -104.04,39.6121666667,2435.96 -104.0392166667,39.6129666667,2568.24 -104.0391666667,39.613,2631.95 -104.0387,39.6134833333,2768.5 -104.0386666667,39.6135,2830.07 -104.03815,39.6136166667,2967.23 -104.038,39.6136666667,3029.1 -104.0367166667,39.6134666667,3165.35 -104.0365,39.6135,3229.36 -104.0343666667,39.6132666667,3379.32 -104.034,39.6131666667,3441.5 -104.0309,39.6123833333,3573.48 -104.0305,39.6123333333,3636.87 -104.0266666667,39.6113333333,3845.36 -104.0232666667,39.61115,3990.44 -104.0228333333,39.6111666667,4050.49 -104.0183833333,39.611,4199.53 -104.0178333333,39.611,4265.07 -104.01355,39.6108166667,4402.53 -104.0131666667,39.6108333333,4470.5 -104.0085,39.6106666667,4675.94 -104.00435,39.6107333333,4821.63 -104.004,39.6108333333,4886.55 -103.999,39.611,5099.0 -103.9942666667,39.6114,5246.52 -103.9936666667,39.6115,5313.88 -103.9881666667,39.612,5527.24 -103.9831333333,39.6123,5668.67 -103.9825,39.6123333333,5736.95 -103.9765,39.6126666667,5946.34 -103.97105,39.6131833333,6089.9 -103.9703333333,39.6131666667,6155.74 -103.9636666667,39.6136666667,6366.36 -103.9577,39.6139833333,6520.89 -103.957,39.614,6584.59 -103.95,39.6138333333,6800.7 -103.9430166667,39.6135,6949.74 -103.9423333333,39.6135,7017.11 -103.934,39.6136666667,7242.05 -103.9266166667,39.6143666667,7402.98 -103.9258333333,39.6145,7466.69 -103.9176666667,39.6155,7691.02 -103.9104833333,39.6163833333,7851.04 -103.9096666667,39.6165,7912.91 -103.9023666667,39.6171,8072.93 -103.9016666667,39.6171666667,8136.94 -103.8933333333,39.6175,8360.05 -103.8846666667,39.6176666667,8581.03 -103.8768,39.6178,8736.18 -103.876,39.6178333333,8802.32 -103.8671666667,39.6176666667,9017.81 -103.8588666667,39.6171333333,9173.26 -103.858,39.6171666667,9239.4 -103.849,39.6161666667,9465.87 -103.84055,39.6148833333,9626.19 -103.8398333333,39.6146666667,9689.59 -103.831,39.6133333333,9918.19 -103.82285,39.6125833333,10077.3 -103.822,39.6125,10146.49 -103.8126666667,39.612,10384.23 -103.8044666667,39.6115833333,10559.19 -103.8035,39.6115,10628.07 -103.7941666667,39.6111666667,10869.17 -103.7854833333,39.61105,11045.34 -103.7845,39.611,11115.14 -103.7748333333,39.6115,11357.76 -103.766,39.6119666667,11528.45 -103.7651666667,39.6121666667,11598.25 -103.7561666667,39.6128,11764.37 -103.7551666667,39.613,11831.73 -103.7458333333,39.6138166667,11995.4 -103.7446666667,39.6138333333,12064.59 -103.7346166667,39.6140833333,12226.44 -103.7333333333,39.614,12292.89 -103.7219,39.61385,12453.52 -103.7206666667,39.6138333333,12518.44 -103.7088333333,39.6140333333,12682.73 -103.7075,39.614,12750.7 -103.6963333333,39.6132166667,12901.57 -103.695,39.6131666667,12971.98 -103.6844666667,39.6123666667,13161.57 -103.6833333333,39.6123333333,13230.76 -103.6736666667,39.6119833333,13426.74 -103.6725,39.6121666667,13495.02 -103.6606,39.6117833333,13604.75 -103.6591666667,39.6116666667,13652.91 -103.64715,39.6112666667,13707.77 -103.6458333333,39.6113333333,13759.89 -103.63375,39.6108166667,13854.68 -103.6326666667,39.6108333333,13919.61 -103.6215333333,39.6101833333,14072.62 -103.6205,39.6101666667,14137.54 -103.6105333333,39.6096666667,14309.75 -103.6095,39.6098333333,14375.28 -103.6009166667,39.6099,14531.95 -103.6,39.6098333333,14598.09 -103.5920833333,39.6102333333,14794.99 -103.5913333333,39.6103333333,14864.18 -103.5834833333,39.6100833333,14970.86 -103.5826666667,39.6101666667,15022.98 -103.5742666667,39.6104333333,15113.81 -103.5733333333,39.6105,15178.13 -103.56575,39.6117833333,15346.07 -103.5648333333,39.6118333333,15417.09 -103.5557,39.6119666667,15521.94 -103.5546666667,39.612,15571.93 -103.5454833333,39.6121666667,15620.09 -103.5445,39.6121666667,15668.85 -103.5358,39.6113333333,15796.87 -103.535,39.6113333333,15856.0 -103.5283666667,39.6106,16019.98 -103.5278333333,39.6106666667,16086.12 -103.52345,39.6107666667,16265.04 -103.523,39.611,16329.96 -103.5193333333,39.6116833333,16493.95 -103.519,39.6118333333,16557.35 -103.5155166667,39.6139666667,16737.18 -103.515,39.6143333333,16789.6 -103.5104666667,39.61655,16984.07 -103.5096666667,39.6166666667,17050.21 -103.5029666667,39.6166333333,17135.25 -103.5023333333,39.6168333333,17180.97 -103.4963666667,39.6174,17228.21 -103.4956666667,39.6175,17277.59 -103.4901166667,39.6173333333,17349.22 -103.4896666667,39.6173333333,17414.75 -103.48585,39.6161833333,17507.1 -103.4855,39.616,17561.36 -103.4816833333,39.6149333333,17681.14 -103.4811666667,39.6148333333,17732.04 -103.4765,39.6134833333,17815.26 -103.476,39.6133333333,17867.07 -103.47215,39.61285,18002.4 -103.4718333333,39.613,18057.27 -103.4680833333,39.6132833333,18168.21 -103.4678333333,39.6133333333,18234.96 -103.4657333333,39.6140666667,18351.4 -103.4656666667,39.6141666667,18412.66 -103.4636833333,39.6151333333,18502.27 -103.4633333333,39.6151666667,18553.79 -103.4608333333,39.61615,18615.36 -103.4605,39.6163333333,18668.09 -103.4574333333,39.6163333333,18844.26 -103.457,39.6163333333,18894.25 -103.4530166667,39.6161333333,18962.52 -103.4526666667,39.6161666667,19007.02 -103.4487166667,39.6156666667,19071.34 -103.4483333333,39.6155,19121.63 -103.44525,39.6143333333,19197.52 -103.445,39.6141666667,19249.34 -103.4424666667,39.6126166667,19350.53 -103.4423333333,39.6123333333,19410.88 -103.4396666667,39.6103333333,19546.21 -103.4365333333,39.6090333333,19624.55 -103.4361666667,39.609,19683.07 -103.4340833333,39.6086833333,19824.5 -103.4341666667,39.6086666667,19891.55 -103.4331833333,39.6092833333,19970.5 -103.433,39.6093333333,20020.79 -103.4316833333,39.6101166667,20095.46 -103.4315,39.6101666667,20149.11 -103.42935,39.6114833333,20229.58 -103.4291666667,39.6116666667,20280.48 -103.4268166667,39.6124166667,20348.45 -103.4266666667,39.6125,20397.83 -103.4251333333,39.6134,20465.49 -103.425,39.6135,20515.17 -103.4236666667,39.6148333333,20655.38 -103.4214333333,39.61615,20726.7 -103.4211666667,39.6163333333,20776.69 -103.4183333333,39.617,20898.92 -103.41525,39.6169,20972.68 -103.415,39.6168333333,21023.88 -103.4116666667,39.6168333333,21149.77 -103.4085833333,39.6164833333,21216.52 -103.4083333333,39.6165,21263.46 -103.4048333333,39.616,21389.95 -103.4024833333,39.61575,21457.62 -103.4023333333,39.6158333333,21505.77 -103.4003333333,39.6156666667,21626.78 -103.3986,39.6157166667,21699.63 -103.3985,39.6156666667,21749.0 -103.3968333333,39.6154833333,21830.69 -103.3965,39.6155,21877.32 -103.3940166667,39.6156833333,21959.62 -103.3938333333,39.6158333333,22012.35 -103.3908833333,39.61585,22095.87 -103.3905,39.6158333333,22144.94 -103.3877833333,39.6153,22226.93 -103.3875,39.6151666667,22275.7 -103.3848333333,39.6144333333,22351.9 -103.3846666667,39.6143333333,22397.62 -103.3832166667,39.6137,22472.9 -103.383,39.6136666667,22519.84 -103.3819166667,39.61365,22586.9 -103.3818333333,39.6136666667,22634.14 -103.3805,39.6133833333,22705.77 -103.3784833333,39.61275,22832.87 -103.3783333333,39.6126666667,22877.37 -103.3756166667,39.6114,22951.74 -103.3755,39.6113333333,23000.82 -103.3734833333,39.61055,23068.79 -103.3731666667,39.6103333333,23131.27 -103.3709166667,39.6102833333,23199.85 -103.3706666667,39.6101666667,23257.46 -103.3685666667,39.61035,23337.01 -103.3685,39.6103333333,23387.61 -103.3669833333,39.61085,23461.98 -103.3668333333,39.6108333333,23517.45 -103.36475,39.6109,23598.84 -103.3645,39.6108333333,23651.26 -103.3617833333,39.6111666667,23722.89 -103.3573,39.6109666667,23853.95 -103.357,39.611,23900.89 -103.3529,39.6112166667,23981.05 -103.3523333333,39.6111666667,24032.87 -103.34805,39.61135,24120.04 -103.3476666667,39.6113333333,24172.77 -103.3438666667,39.61095,24255.07 -103.3433333333,39.611,24306.89 -103.33925,39.6100666667,24387.96 -103.3388333333,39.61,24437.95 -103.3353,39.6086166667,24511.1 -103.3348333333,39.6085,24562.0 -103.3310333333,39.60715,24629.97 -103.3306666667,39.607,24684.84 -103.3277833333,39.6054166667,24755.25 -103.3276666667,39.6051666667,24807.67 -103.3254833333,39.60335,24874.12 -103.3253333333,39.6031666667,24927.76 -103.3222833333,39.601,25017.98 -103.322,39.6008333333,25072.24 -103.3195833333,39.59935,25159.11 -103.3193333333,39.5991666667,25211.84 -103.3174166667,39.5979666667,25292.3 -103.3171666667,39.598,25344.12 -103.3144333333,39.5976333333,25423.06 -103.3141666667,39.5976666667,25476.1 -103.3114666667,39.59725,25551.08 -103.3111666667,39.5971666667,25602.9 -103.3088,39.5974666667,25673.3 -103.3085,39.5975,25721.46 -103.30625,39.5979666667,25792.18 -103.306,39.598,25843.69 -103.3033666667,39.5976166667,25920.19 -103.303,39.5976666667,25972.01 -103.3010666667,39.5966666667,26058.27 -103.3008333333,39.5966666667,26115.57 -103.29885,39.5969333333,26204.27 -103.2986666667,39.597,26257.61 -103.2962666667,39.59795,26339.29 -103.296,39.5981666667,26393.24 -103.2932166667,39.5995166667,26485.29 -103.293,39.5996666667,26535.89 -103.2902666667,39.6001166667,26624.28 -103.29,39.6001666667,26679.14 -103.2873833333,39.6008333333,26769.36 -103.2871666667,39.601,26821.18 -103.2847,39.6019166667,26907.44 -103.2845,39.602,26960.78 -103.2817,39.6029333333,27049.48 -103.2815,39.603,27104.64 -103.2785,39.6040666667,27201.27 -103.2781666667,39.6041666667,27256.13 -103.2755666667,39.6054833333,27343.3 -103.2753333333,39.6056666667,27395.42 -103.27305,39.6071333333,27483.51 -103.2728333333,39.6073333333,27537.16 -103.2696666667,39.60925,27636.52 -103.2691666667,39.6095,27691.38 -103.2647666667,39.6116666667,27791.36 -103.2641666667,39.612,27844.7 -103.2588166667,39.6136833333,27930.35 -103.2583333333,39.6138333333,27981.55 -103.2534666667,39.6151,28055.62 -103.2528333333,39.6153333333,28108.35 -103.24745,39.6166166667,28175.41 -103.2468333333,39.6168333333,28225.39 -103.2403333333,39.6185333333,28283.61 -103.2396666667,39.6188333333,28330.86 -103.2328333333,39.6207666667,28387.55 -103.232,39.621,28434.18 -103.22465,39.6227166667,28493.62 -103.2238333333,39.6228333333,28542.39 -103.2171666667,39.6238333333,28615.54 -103.2163333333,39.624,28667.66 -103.20935,39.6247666667,28741.73 -103.2085,39.6248333333,28794.15 -103.20155,39.62555,28872.48 -103.2008333333,39.6255,28921.25 -103.1916666667,39.6263333333,29045.0 -103.1844,39.6269666667,29116.63 -103.1836666667,39.627,29169.06 -103.1766,39.6270666667,29233.67 -103.1758333333,39.6271666667,29284.88 -103.1685166667,39.6273833333,29349.8 -103.1676666667,39.6275,29399.48 -103.1588333333,39.6278333333,29521.1 -103.1504333333,39.6280333333,29600.65 -103.1495,39.628,29652.77 -103.1418333333,39.6277333333,29727.75 -103.141,39.6276666667,29780.79 -103.1337333333,39.6274333333,29850.59 -103.133,39.6275,29901.18 -103.12555,39.6276333333,29963.67 -103.1248333333,39.6276666667,30014.57 -103.1176333333,39.6275333333,30080.71 -103.117,39.6275,30131.61 -103.1102666667,39.6271,30192.88 -103.1096666667,39.627,30241.34 -103.10295,39.6271833333,30293.77 -103.1021666667,39.6271666667,30341.01 -103.0953333333,39.6270666667,30391.91 -103.0945,39.6271666667,30440.68 -103.0869833333,39.6274833333,30501.95 -103.086,39.6276666667,30552.24 -103.0783666667,39.62825,30610.76 -103.0775,39.6283333333,30662.58 -103.07025,39.6287,30729.94 -103.0695,39.6286666667,30784.5 -103.0621666667,39.6294833333,30853.99 -103.0613333333,39.6295,30906.42 -103.0541166667,39.6297666667,30977.74 -103.0533333333,39.6298333333,31030.47 -103.0456666667,39.6299,31093.87 -103.0448333333,39.63,31143.85 -103.0367166667,39.6301166667,31200.85 -103.0358333333,39.6301666667,31248.4 -103.0284333333,39.6305,31290.77 -103.0276666667,39.6305,31337.71 -103.0205166667,39.6310833333,31368.8 -103.0198333333,39.6311666667,31414.52 -103.01295,39.6320166667,31441.95 -103.0121666667,39.6321666667,31484.93 -103.0045666667,39.6329666667,31503.82 -103.0036666667,39.633,31548.93 -102.9960833333,39.63385,31584.9 -102.9953333333,39.634,31631.53 -102.9887666667,39.63525,31670.85 -102.988,39.6353333333,31718.71 -102.9810333333,39.6369,31764.12 -102.9803333333,39.637,31811.98 -102.9724666667,39.6389166667,31866.84 -102.9715,39.6391666667,31916.52 -102.9630166667,39.6407666667,31974.13 -102.962,39.641,32025.03 -102.9538,39.6423666667,32072.88 -102.9528333333,39.6425,32121.65 -102.94395,39.6435333333,32154.88 -102.943,39.6435,32205.78 -102.9342666667,39.6449833333,32217.06 -102.9333333333,39.6451666667,32260.03 -102.9244666667,39.6466166667,32260.03 -102.9235,39.6466666667,32300.27</coordinates>
                    </LineString>
                </Placemark>
                <Placemark id="11">
                    <name>EOSS-318 Descent</name>
                    <styleUrl>#12</styleUrl>
                    <LineString id="10">
                        <extrude>0</extrude>
                        <altitudeMode>absolute</altitudeMode>
                        <coordinates>-102.9235,39.6466666667,32300.27 -102.9149833333,39.6476666667,31687.01 -102.914,39.6476666667,31473.95 -102.9061333333,39.64865,29994.76 -102.9055,39.6485,29808.53 -102.89645,39.647,28543.61 -102.8958333333,39.6471666667,28379.01 -102.8931,39.6484333333,27252.47 -102.8926666667,39.6483333333,27118.06 -102.8889666667,39.6491833333,26100.33 -102.8888333333,39.6495,25969.26 -102.8871666667,39.65025,25026.21 -102.8873333333,39.65,24914.96 -102.8839833333,39.6489,24028.91 -102.8835,39.6488333333,23928.32 -102.8788333333,39.6491666667,23040.44 -102.8776666667,39.6505666667,22305.87 -102.8773333333,39.6506666667,22228.45 -102.8731166667,39.6502333333,21529.55 -102.873,39.65,21452.13 -102.8708666667,39.6485833333,20783.7 -102.8708333333,39.6483333333,20720.3 -102.8682666667,39.6487,20089.37 -102.8681666667,39.6486666667,20025.36 -102.86655,39.6487,19415.46 -102.8665,39.6485,19347.18 -102.8626,39.6483,18777.2 -102.8626666667,39.6483333333,18713.5 -102.8601666667,39.6490833333,18168.21 -102.8601666667,39.6491666667,18109.39 -102.8575333333,39.6495,17606.16 -102.8575,39.6496666667,17562.27 -102.8553666667,39.6496166667,17080.99 -102.8546666667,39.6493333333,17036.49 -102.8467,39.6510166667,16584.17 -102.8458333333,39.651,16539.97 -102.8394833333,39.65005,16094.05 -102.8385,39.6498333333,16066.31 -102.8290666667,39.6485333333,15631.06 -102.8283333333,39.6486666667,15592.65 -102.8198333333,39.6486833333,15156.79 -102.8191666667,39.6488333333,15129.36 -102.8109333333,39.6492,14699.89 -102.8101666667,39.6491666667,14676.12 -102.80085,39.6496833333,14267.69 -102.7998333333,39.6495,14243.61 -102.7891833333,39.6483166667,13868.7 -102.788,39.6481666667,13849.2 -102.77855,39.6479666667,13482.83 -102.7776666667,39.648,13458.14 -102.7709166667,39.6482666667,13114.63 -102.77,39.648,13089.64 -102.7612833333,39.6469,12744.6 -102.76,39.6466666667,12734.24 -102.74905,39.6459666667,12408.41 -102.7476666667,39.6456666667,12397.44 -102.7366666667,39.6458333333,12072.52 -102.7358333333,39.6458333333,12061.24 -102.72745,39.64635,11734.5 -102.7263333333,39.6466666667,11727.18 -102.71675,39.6477166667,11412.32 -102.7156666667,39.6478333333,11405.31 -102.7063166667,39.6489666667,11099.29 -102.7053333333,39.6493333333,11095.63 -102.69755,39.6493166667,10794.49 -102.6966666667,39.6491666667,10792.97 -102.6888833333,39.6489666667,10489.39 -102.688,39.649,10485.42 -102.6803666667,39.6487666667,10189.16 -102.6793333333,39.6486666667,10186.11 -102.6704,39.6470166667,9898.38 -102.6695,39.6466666667,9894.11 -102.6614166667,39.6444166667,9613.09 -102.6608333333,39.6443333333,9609.12 -102.6521666667,39.6433,9340.29 -102.6511666667,39.6431666667,9340.9 -102.6427666667,39.6418,9071.15 -102.642,39.6416666667,9070.85 -102.6342666667,39.6402333333,8805.98 -102.6335,39.6401666667,8805.06 -102.6265666667,39.6395333333,8544.15 -102.6258333333,39.6395,8543.54 -102.6188333333,39.6390333333,8285.07 -102.618,39.6391666667,8280.81 -102.6100666667,39.6398166667,8021.12 -102.6093333333,39.6398333333,8021.42 -102.6026,39.6397666667,7761.12 -102.6018333333,39.6396666667,7763.87 -102.5928333333,39.6395,7506.31 -102.5851166667,39.6398166667,7244.79 -102.584,39.6398333333,7246.62 -102.5763166667,39.6394,7004.0 -102.5756666667,39.6393333333,7007.96 -102.56865,39.6388833333,6753.76 -102.568,39.6386666667,6754.67 -102.5613,39.6382333333,6506.87 -102.5606666667,39.6383333333,6509.61 -102.5533333333,39.6381666667,6271.56 -102.5473166667,39.6376833333,6033.82 -102.5465,39.6378333333,6037.48 -102.5404666667,39.6374333333,5797.6 -102.5396666667,39.6375,5801.26 -102.5334833333,39.6363333333,5565.65 -102.5326666667,39.6363333333,5570.83 -102.5272166667,39.6366,5335.52 -102.5268333333,39.6366666667,5344.67 -102.5222333333,39.63645,5107.53 -102.5216666667,39.6363333333,5113.93 -102.516,39.63595,4887.47 -102.5156666667,39.6358333333,4896.61 -102.5103,39.6360833333,4667.71 -102.5098333333,39.636,4674.72 -102.5040333333,39.6354,4448.56 -102.5033333333,39.6355,4456.79 -102.4980333333,39.6353,4230.62 -102.4931666667,39.6341666667,4022.14 -102.4889166667,39.6335166667,3799.33 -102.4885,39.6335,3807.56 -102.4853666667,39.6337333333,3588.41 -102.4851666667,39.6338333333,3599.08 -102.4838666667,39.6346,3375.36 -102.4838333333,39.6345,3383.89 -102.4825833333,39.6342666667,3166.26 -102.4821666667,39.6343333333,3173.58 -102.47895,39.63515,2962.35 -102.4786666667,39.6353333333,2974.24 -102.47715,39.6357833333,2762.4 -102.477,39.6356666667,2771.55 -102.4754666667,39.63565,2557.27 -102.4753333333,39.6358333333,2566.11 -102.4733333333,39.637,2371.04 -102.4714,39.6390833333,2166.21 -102.4711666667,39.6391666667,2179.02 -102.4701666667,39.6414,1974.19 -102.47,39.6415,1987.6 -102.4688833333,39.6436666667,1784.3 -102.4685,39.6438333333,1795.88 -102.4677333333,39.6454166667,1596.24 -102.4675,39.6456666667,1605.38 -102.4663333333,39.6475833333,1411.22 -102.4663333333,39.6476666667,1421.59 -102.4658833333,39.6490333333,1252.12 -102.4658333333,39.6491666667,1261.57 -102.46585,39.6490166667,1269.19</coordinates>
                    </LineString>
                </Placemark>
            </Folder>
            <Folder id="4">
                <Style id="37">
                    <IconStyle id="38">
                        <color>ff0000ff</color>
                        <colorMode>normal</colorMode>
                        <scale>1</scale>
                        <heading>0</heading>
                        <Icon id="39">
                            <href>https://maps.google.com/mapfiles/kml/shapes/placemark_circle.png</href>
                        </Icon>
                    </IconStyle>
                </Style>
                <Style id="42">
                    <IconStyle id="43">
                        <color>ff0000ff</color>
                        <colorMode>normal</colorMode>
                        <scale>1</scale>
                        <heading>0</heading>
                        <Icon id="44">
                            <href>https://maps.google.com/mapfiles/kml/shapes/placemark_circle.png</href>
                        </Icon>
                    </IconStyle>
                </Style>
                <Style id="47">
                    <IconStyle id="48">
                        <color>ff0000ff</color>
                        <colorMode>normal</colorMode>
                        <scale>1</scale>
                        <heading>0</heading>
                        <Icon id="49">
                            <href>https://maps.google.com/mapfiles/kml/shapes/placemark_circle.png</href>
                        </Icon>
                    </IconStyle>
                </Style>
                <Style id="52">
                    <IconStyle id="53">
                        <color>ff0000ff</color>
                        <colorMode>normal</colorMode>
                        <scale>1</scale>
                        <heading>0</heading>
                        <Icon id="54">
                            <href>https://maps.google.com/mapfiles/kml/shapes/placemark_circle.png</href>
                        </Icon>
                    </IconStyle>
                </Style>
                <Style id="57">
                    <IconStyle id="58">
                        <color>ff0000ff</color>
                        <colorMode>normal</colorMode>
                        <scale>1</scale>
                        <heading>0</heading>
                        <Icon id="59">
                            <href>https://maps.google.com/mapfiles/kml/shapes/placemark_circle.png</href>
                        </Icon>
                    </IconStyle>
                </Style>
                <Style id="62">
                    <IconStyle id="63">
                        <color>ff0000ff</color>
                        <colorMode>normal</colorMode>
                        <scale>1</scale>
                        <heading>0</heading>
                        <Icon id="64">
                            <href>https://maps.google.com/mapfiles/kml/shapes/placemark_circle.png</href>
                        </Icon>
                    </IconStyle>
                </Style>
                <Style id="67">
                    <IconStyle id="68">
                        <color>ff0000ff</color>
                        <colorMode>normal</colorMode>
                        <scale>1</scale>
                        <heading>0</heading>
                        <Icon id="69">
                            <href>https://maps.google.com/mapfiles/kml/shapes/placemark_circle.png</href>
                        </Icon>
                    </IconStyle>
                </Style>
                <Style id="72">
                    <IconStyle id="73">
                        <color>ff0000ff</color>
                        <colorMode>normal</colorMode>
                        <scale>1</scale>
                        <heading>0</heading>
                        <Icon id="74">
                            <href>https://maps.google.com/mapfiles/kml/shapes/placemark_circle.png</href>
                        </Icon>
                    </IconStyle>
                </Style>
                <Style id="77">
                    <IconStyle id="78">
                        <color>ff0000ff</color>
                        <colorMode>normal</colorMode>
                        <scale>1</scale>
                        <heading>0</heading>
                        <Icon id="79">
                            <href>https://maps.google.com/mapfiles/kml/shapes/placemark_circle.png</href>
                        </Icon>
                    </IconStyle>
                </Style>
                <Style id="82">
                    <IconStyle id="83">
                        <color>ff0000ff</color>
                        <colorMode>normal</colorMode>
                        <scale>1</scale>
                        <heading>0</heading>
                        <Icon id="84">
                            <href>https://maps.google.com/mapfiles/kml/shapes/placemark_circle.png</href>
                        </Icon>
                    </IconStyle>
                </Style>
                <Style id="87">
                    <IconStyle id="88">
                        <color>ffff0000</color>
                        <colorMode>normal</colorMode>
                        <scale>1</scale>
                        <heading>0</heading>
                        <Icon id="89">
                            <href>https://maps.google.com/mapfiles/kml/shapes/placemark_circle.png</href>
                        </Icon>
                    </IconStyle>
                </Style>
                <Style id="92">
                    <IconStyle id="93">
                        <color>ffff0000</color>
                        <colorMode>normal</colorMode>
                        <scale>1</scale>
                        <heading>0</heading>
                        <Icon id="94">
                            <href>https://maps.google.com/mapfiles/kml/shapes/placemark_circle.png</href>
                        </Icon>
                    </IconStyle>
                </Style>
                <Style id="97">
                    <IconStyle id="98">
                        <color>ffff0000</color>
                        <colorMode>normal</colorMode>
                        <scale>1</scale>
                        <heading>0</heading>
                        <Icon id="99">
                            <href>https://maps.google.com/mapfiles/kml/shapes/placemark_circle.png</href>
                        </Icon>
                    </IconStyle>
                </Style>
                <Style id="102">
                    <IconStyle id="103">
                        <color>ffff0000</color>
                        <colorMode>normal</colorMode>
                        <scale>1</scale>
                        <heading>0</heading>
                        <Icon id="104">
                            <href>https://maps.google.com/mapfiles/kml/shapes/placemark_circle.png</href>
                        </Icon>
                    </IconStyle>
                </Style>
                <Style id="107">
                    <IconStyle id="108">
                        <color>ffff0000</color>
                        <colorMode>normal</colorMode>
                        <scale>1</scale>
                        <heading>0</heading>
                        <Icon id="109">
                            <href>https://maps.google.com/mapfiles/kml/shapes/placemark_circle.png</href>
                        </Icon>
                    </IconStyle>
                </Style>
                <Style id="112">
                    <IconStyle id="113">
                        <color>ffff0000</color>
                        <colorMode>normal</colorMode>
                        <scale>1</scale>
                        <heading>0</heading>
                        <Icon id="114">
                            <href>https://maps.google.com/mapfiles/kml/shapes/placemark_circle.png</href>
                        </Icon>
                    </IconStyle>
                </Style>
                <Style id="117">
                    <IconStyle id="118">
                        <color>ffff0000</color>
                        <colorMode>normal</colorMode>
                        <scale>1</scale>
                        <heading>0</heading>
                        <Icon id="119">
                            <href>https://maps.google.com/mapfiles/kml/shapes/placemark_circle.png</href>
                        </Icon>
                    </IconStyle>
                </Style>
                <Style id="122">
                    <IconStyle id="123">
                        <color>ffff0000</color>
                        <colorMode>normal</colorMode>
                        <scale>1</scale>
                        <heading>0</heading>
                        <Icon id="124">
                            <href>https://maps.google.com/mapfiles/kml/shapes/placemark_circle.png</href>
                        </Icon>
                    </IconStyle>
                </Style>
                <Style id="127">
                    <IconStyle id="128">
                        <color>ffff0000</color>
                        <colorMode>normal</colorMode>
                        <scale>1</scale>
                        <heading>0</heading>
                        <Icon id="129">
                            <href>https://maps.google.com/mapfiles/kml/shapes/placemark_circle.png</href>
                        </Icon>
                    </IconStyle>
                </Style>
                <Style id="132">
                    <IconStyle id="133">
                        <color>ffff0000</color>
                        <colorMode>normal</colorMode>
                        <scale>1</scale>
                        <heading>0</heading>
                        <Icon id="134">
                            <href>https://maps.google.com/mapfiles/kml/shapes/placemark_circle.png</href>
                        </Icon>
                    </IconStyle>
                </Style>
                <name>Waypoints</name>
                <Placemark id="36">
                    <name>10k</name>
                    <description><![CDATA[
        <h1>Waypoint</h1>
        <table style="width: 100%;" cellpadding=0 cellspacing=0 border=0>
        <tr><td style="padding: 10px; border: solid 1px black;border-bottom: 0;"><strong>Local Time</strong></td><td style="border: solid 1px black;border-left: 0; border-bottom: 0; padding: 10px;">07:34:30</td></tr>
        <tr><td style="padding: 10px; border: solid 1px black;border-bottom: 0;"><strong>Altitude</strong></td><td style="border: solid 1px black;border-left: 0; border-bottom: 0; padding: 10px;">9,938ft (3,029.1m)</td></tr>
        <tr><td style="padding: 10px; border: solid 1px black;"><strong>Coordinates</strong></td><td style="border: solid 1px black; border-left: 0; padding: 10px;">39.61366667, -104.038</td></tr>
        </table>
        ]]></description>
                    <styleUrl>#37</styleUrl>
                    <Point id="35">
                        <coordinates>-104.038,39.6136666667,3029.1</coordinates>
                        <altitudeMode>absolute</altitudeMode>
                    </Point>
                </Placemark>
                <Placemark id="41">
                    <name>20k</name>
                    <description><![CDATA[
        <h1>Waypoint</h1>
        <table style="width: 100%;" cellpadding=0 cellspacing=0 border=0>
        <tr><td style="padding: 10px; border: solid 1px black;border-bottom: 0;"><strong>Local Time</strong></td><td style="border: solid 1px black;border-left: 0; border-bottom: 0; padding: 10px;">07:41:57</td></tr>
        <tr><td style="padding: 10px; border: solid 1px black;border-bottom: 0;"><strong>Altitude</strong></td><td style="border: solid 1px black;border-left: 0; border-bottom: 0; padding: 10px;">19,980ft (6,089.9m)</td></tr>
        <tr><td style="padding: 10px; border: solid 1px black;"><strong>Coordinates</strong></td><td style="border: solid 1px black; border-left: 0; padding: 10px;">39.61318333, -103.97105</td></tr>
        </table>
        ]]></description>
                    <styleUrl>#42</styleUrl>
                    <Point id="40">
                        <coordinates>-103.97105,39.6131833333,6089.9</coordinates>
                        <altitudeMode>absolute</altitudeMode>
                    </Point>
                </Placemark>
                <Placemark id="46">
                    <name>30k</name>
                    <description><![CDATA[
        <h1>Waypoint</h1>
        <table style="width: 100%;" cellpadding=0 cellspacing=0 border=0>
        <tr><td style="padding: 10px; border: solid 1px black;border-bottom: 0;"><strong>Local Time</strong></td><td style="border: solid 1px black;border-left: 0; border-bottom: 0; padding: 10px;">07:48:57</td></tr>
        <tr><td style="padding: 10px; border: solid 1px black;border-bottom: 0;"><strong>Altitude</strong></td><td style="border: solid 1px black;border-left: 0; border-bottom: 0; padding: 10px;">30,096ft (9,173.3m)</td></tr>
        <tr><td style="padding: 10px; border: solid 1px black;"><strong>Coordinates</strong></td><td style="border: solid 1px black; border-left: 0; padding: 10px;">39.61713333, -103.85886667</td></tr>
        </table>
        ]]></description>
                    <styleUrl>#47</styleUrl>
                    <Point id="45">
                        <coordinates>-103.8588666667,39.6171333333,9173.26</coordinates>
                        <altitudeMode>absolute</altitudeMode>
                    </Point>
                </Placemark>
                <Placemark id="51">
                    <name>40k</name>
                    <description><![CDATA[
        <h1>Waypoint</h1>
        <table style="width: 100%;" cellpadding=0 cellspacing=0 border=0>
        <tr><td style="padding: 10px; border: solid 1px black;border-bottom: 0;"><strong>Local Time</strong></td><td style="border: solid 1px black;border-left: 0; border-bottom: 0; padding: 10px;">07:55:27</td></tr>
        <tr><td style="padding: 10px; border: solid 1px black;border-bottom: 0;"><strong>Altitude</strong></td><td style="border: solid 1px black;border-left: 0; border-bottom: 0; padding: 10px;">40,113ft (12,226.4m)</td></tr>
        <tr><td style="padding: 10px; border: solid 1px black;"><strong>Coordinates</strong></td><td style="border: solid 1px black; border-left: 0; padding: 10px;">39.61408333, -103.73461667</td></tr>
        </table>
        ]]></description>
                    <styleUrl>#52</styleUrl>
                    <Point id="50">
                        <coordinates>-103.7346166667,39.6140833333,12226.44</coordinates>
                        <altitudeMode>absolute</altitudeMode>
                    </Point>
                </Placemark>
                <Placemark id="56">
                    <name>50k</name>
                    <description><![CDATA[
        <h1>Waypoint</h1>
        <table style="width: 100%;" cellpadding=0 cellspacing=0 border=0>
        <tr><td style="padding: 10px; border: solid 1px black;border-bottom: 0;"><strong>Local Time</strong></td><td style="border: solid 1px black;border-left: 0; border-bottom: 0; padding: 10px;">08:02:30</td></tr>
        <tr><td style="padding: 10px; border: solid 1px black;border-bottom: 0;"><strong>Altitude</strong></td><td style="border: solid 1px black;border-left: 0; border-bottom: 0; padding: 10px;">49,797ft (15,178.1m)</td></tr>
        <tr><td style="padding: 10px; border: solid 1px black;"><strong>Coordinates</strong></td><td style="border: solid 1px black; border-left: 0; padding: 10px;">39.6105, -103.57333333</td></tr>
        </table>
        ]]></description>
                    <styleUrl>#57</styleUrl>
                    <Point id="55">
                        <coordinates>-103.5733333333,39.6105,15178.13</coordinates>
                        <altitudeMode>absolute</altitudeMode>
                    </Point>
                </Placemark>
                <Placemark id="61">
                    <name>60k</name>
                    <description><![CDATA[
        <h1>Waypoint</h1>
        <table style="width: 100%;" cellpadding=0 cellspacing=0 border=0>
        <tr><td style="padding: 10px; border: solid 1px black;border-bottom: 0;"><strong>Local Time</strong></td><td style="border: solid 1px black;border-left: 0; border-bottom: 0; padding: 10px;">08:11:00</td></tr>
        <tr><td style="padding: 10px; border: solid 1px black;border-bottom: 0;"><strong>Altitude</strong></td><td style="border: solid 1px black;border-left: 0; border-bottom: 0; padding: 10px;">59,826ft (18,235.0m)</td></tr>
        <tr><td style="padding: 10px; border: solid 1px black;"><strong>Coordinates</strong></td><td style="border: solid 1px black; border-left: 0; padding: 10px;">39.61333333, -103.46783333</td></tr>
        </table>
        ]]></description>
                    <styleUrl>#62</styleUrl>
                    <Point id="60">
                        <coordinates>-103.4678333333,39.6133333333,18234.96</coordinates>
                        <altitudeMode>absolute</altitudeMode>
                    </Point>
                </Placemark>
                <Placemark id="66">
                    <name>70k</name>
                    <description><![CDATA[
        <h1>Waypoint</h1>
        <table style="width: 100%;" cellpadding=0 cellspacing=0 border=0>
        <tr><td style="padding: 10px; border: solid 1px black;border-bottom: 0;"><strong>Local Time</strong></td><td style="border: solid 1px black;border-left: 0; border-bottom: 0; padding: 10px;">08:22:30</td></tr>
        <tr><td style="padding: 10px; border: solid 1px black;border-bottom: 0;"><strong>Altitude</strong></td><td style="border: solid 1px black;border-left: 0; border-bottom: 0; padding: 10px;">70,177ft (21,390.0m)</td></tr>
        <tr><td style="padding: 10px; border: solid 1px black;"><strong>Coordinates</strong></td><td style="border: solid 1px black; border-left: 0; padding: 10px;">39.616, -103.40483333</td></tr>
        </table>
        ]]></description>
                    <styleUrl>#67</styleUrl>
                    <Point id="65">
                        <coordinates>-103.4048333333,39.616,21389.95</coordinates>
                        <altitudeMode>absolute</altitudeMode>
                    </Point>
                </Placemark>
                <Placemark id="71">
                    <name>80k</name>
                    <description><![CDATA[
        <h1>Waypoint</h1>
        <table style="width: 100%;" cellpadding=0 cellspacing=0 border=0>
        <tr><td style="padding: 10px; border: solid 1px black;border-bottom: 0;"><strong>Local Time</strong></td><td style="border: solid 1px black;border-left: 0; border-bottom: 0; padding: 10px;">08:34:27</td></tr>
        <tr><td style="padding: 10px; border: solid 1px black;border-bottom: 0;"><strong>Altitude</strong></td><td style="border: solid 1px black;border-left: 0; border-bottom: 0; padding: 10px;">80,013ft (24,388.0m)</td></tr>
        <tr><td style="padding: 10px; border: solid 1px black;"><strong>Coordinates</strong></td><td style="border: solid 1px black; border-left: 0; padding: 10px;">39.61006667, -103.33925</td></tr>
        </table>
        ]]></description>
                    <styleUrl>#72</styleUrl>
                    <Point id="70">
                        <coordinates>-103.33925,39.6100666667,24387.96</coordinates>
                        <altitudeMode>absolute</altitudeMode>
                    </Point>
                </Placemark>
                <Placemark id="76">
                    <name>90k</name>
                    <description><![CDATA[
        <h1>Waypoint</h1>
        <table style="width: 100%;" cellpadding=0 cellspacing=0 border=0>
        <tr><td style="padding: 10px; border: solid 1px black;border-bottom: 0;"><strong>Local Time</strong></td><td style="border: solid 1px black;border-left: 0; border-bottom: 0; padding: 10px;">08:45:30</td></tr>
        <tr><td style="padding: 10px; border: solid 1px black;border-bottom: 0;"><strong>Altitude</strong></td><td style="border: solid 1px black;border-left: 0; border-bottom: 0; padding: 10px;">89,880ft (27,395.4m)</td></tr>
        <tr><td style="padding: 10px; border: solid 1px black;"><strong>Coordinates</strong></td><td style="border: solid 1px black; border-left: 0; padding: 10px;">39.60566667, -103.27533333</td></tr>
        </table>
        ]]></description>
                    <styleUrl>#77</styleUrl>
                    <Point id="75">
                        <coordinates>-103.2753333333,39.6056666667,27395.42</coordinates>
                        <altitudeMode>absolute</altitudeMode>
                    </Point>
                </Placemark>
                <Placemark id="81">
                    <name>100k</name>
                    <description><![CDATA[
        <h1>Waypoint</h1>
        <table style="width: 100%;" cellpadding=0 cellspacing=0 border=0>
        <tr><td style="padding: 10px; border: solid 1px black;border-bottom: 0;"><strong>Local Time</strong></td><td style="border: solid 1px black;border-left: 0; border-bottom: 0; padding: 10px;">08:58:27</td></tr>
        <tr><td style="padding: 10px; border: solid 1px black;border-bottom: 0;"><strong>Altitude</strong></td><td style="border: solid 1px black;border-left: 0; border-bottom: 0; padding: 10px;">100,072ft (30,502.0m)</td></tr>
        <tr><td style="padding: 10px; border: solid 1px black;"><strong>Coordinates</strong></td><td style="border: solid 1px black; border-left: 0; padding: 10px;">39.62748333, -103.08698333</td></tr>
        </table>
        ]]></description>
                    <styleUrl>#82</styleUrl>
                    <Point id="80">
                        <coordinates>-103.0869833333,39.6274833333,30501.95</coordinates>
                        <altitudeMode>absolute</altitudeMode>
                    </Point>
                </Placemark>
                <Placemark id="86">
                    <name>10k</name>
                    <description><![CDATA[
        <h1>Waypoint</h1>
        <table style="width: 100%;" cellpadding=0 cellspacing=0 border=0>
        <tr><td style="padding: 10px; border: solid 1px black;border-bottom: 0;"><strong>Local Time</strong></td><td style="border: solid 1px black;border-left: 0; border-bottom: 0; padding: 10px;">09:40:30</td></tr>
        <tr><td style="padding: 10px; border: solid 1px black;border-bottom: 0;"><strong>Altitude</strong></td><td style="border: solid 1px black;border-left: 0; border-bottom: 0; padding: 10px;">9,758ft (2,974.2m)</td></tr>
        <tr><td style="padding: 10px; border: solid 1px black;"><strong>Coordinates</strong></td><td style="border: solid 1px black; border-left: 0; padding: 10px;">39.63533333, -102.47866667</td></tr>
        </table>
        ]]></description>
                    <styleUrl>#87</styleUrl>
                    <Point id="85">
                        <coordinates>-102.4786666667,39.6353333333,2974.24</coordinates>
                        <altitudeMode>absolute</altitudeMode>
                    </Point>
                </Placemark>
                <Placemark id="91">
                    <name>20k</name>
                    <description><![CDATA[
        <h1>Waypoint</h1>
        <table style="width: 100%;" cellpadding=0 cellspacing=0 border=0>
        <tr><td style="padding: 10px; border: solid 1px black;border-bottom: 0;"><strong>Local Time</strong></td><td style="border: solid 1px black;border-left: 0; border-bottom: 0; padding: 10px;">09:33:30</td></tr>
        <tr><td style="padding: 10px; border: solid 1px black;border-bottom: 0;"><strong>Altitude</strong></td><td style="border: solid 1px black;border-left: 0; border-bottom: 0; padding: 10px;">19,808ft (6,037.5m)</td></tr>
        <tr><td style="padding: 10px; border: solid 1px black;"><strong>Coordinates</strong></td><td style="border: solid 1px black; border-left: 0; padding: 10px;">39.63783333, -102.5465</td></tr>
        </table>
        ]]></description>
                    <styleUrl>#92</styleUrl>
                    <Point id="90">
                        <coordinates>-102.5465,39.6378333333,6037.48</coordinates>
                        <altitudeMode>absolute</altitudeMode>
                    </Point>
                </Placemark>
                <Placemark id="96">
                    <name>30k</name>
                    <description><![CDATA[
        <h1>Waypoint</h1>
        <table style="width: 100%;" cellpadding=0 cellspacing=0 border=0>
        <tr><td style="padding: 10px; border: solid 1px black;border-bottom: 0;"><strong>Local Time</strong></td><td style="border: solid 1px black;border-left: 0; border-bottom: 0; padding: 10px;">09:27:27</td></tr>
        <tr><td style="padding: 10px; border: solid 1px black;border-bottom: 0;"><strong>Altitude</strong></td><td style="border: solid 1px black;border-left: 0; border-bottom: 0; padding: 10px;">29,761ft (9,071.1m)</td></tr>
        <tr><td style="padding: 10px; border: solid 1px black;"><strong>Coordinates</strong></td><td style="border: solid 1px black; border-left: 0; padding: 10px;">39.6418, -102.64276667</td></tr>
        </table>
        ]]></description>
                    <styleUrl>#97</styleUrl>
                    <Point id="95">
                        <coordinates>-102.6427666667,39.6418,9071.15</coordinates>
                        <altitudeMode>absolute</altitudeMode>
                    </Point>
                </Placemark>
                <Placemark id="101">
                    <name>40k</name>
                    <description><![CDATA[
        <h1>Waypoint</h1>
        <table style="width: 100%;" cellpadding=0 cellspacing=0 border=0>
        <tr><td style="padding: 10px; border: solid 1px black;border-bottom: 0;"><strong>Local Time</strong></td><td style="border: solid 1px black;border-left: 0; border-bottom: 0; padding: 10px;">09:22:27</td></tr>
        <tr><td style="padding: 10px; border: solid 1px black;border-bottom: 0;"><strong>Altitude</strong></td><td style="border: solid 1px black;border-left: 0; border-bottom: 0; padding: 10px;">39,608ft (12,072.5m)</td></tr>
        <tr><td style="padding: 10px; border: solid 1px black;"><strong>Coordinates</strong></td><td style="border: solid 1px black; border-left: 0; padding: 10px;">39.64583333, -102.73666667</td></tr>
        </table>
        ]]></description>
                    <styleUrl>#102</styleUrl>
                    <Point id="100">
                        <coordinates>-102.7366666667,39.6458333333,12072.52</coordinates>
                        <altitudeMode>absolute</altitudeMode>
                    </Point>
                </Placemark>
                <Placemark id="106">
                    <name>50k</name>
                    <description><![CDATA[
        <h1>Waypoint</h1>
        <table style="width: 100%;" cellpadding=0 cellspacing=0 border=0>
        <tr><td style="padding: 10px; border: solid 1px black;border-bottom: 0;"><strong>Local Time</strong></td><td style="border: solid 1px black;border-left: 0; border-bottom: 0; padding: 10px;">09:18:27</td></tr>
        <tr><td style="padding: 10px; border: solid 1px black;border-bottom: 0;"><strong>Altitude</strong></td><td style="border: solid 1px black;border-left: 0; border-bottom: 0; padding: 10px;">49,727ft (15,156.8m)</td></tr>
        <tr><td style="padding: 10px; border: solid 1px black;"><strong>Coordinates</strong></td><td style="border: solid 1px black; border-left: 0; padding: 10px;">39.64868333, -102.81983333</td></tr>
        </table>
        ]]></description>
                    <styleUrl>#107</styleUrl>
                    <Point id="105">
                        <coordinates>-102.8198333333,39.6486833333,15156.79</coordinates>
                        <altitudeMode>absolute</altitudeMode>
                    </Point>
                </Placemark>
                <Placemark id="111">
                    <name>60k</name>
                    <description><![CDATA[
        <h1>Waypoint</h1>
        <table style="width: 100%;" cellpadding=0 cellspacing=0 border=0>
        <tr><td style="padding: 10px; border: solid 1px black;border-bottom: 0;"><strong>Local Time</strong></td><td style="border: solid 1px black;border-left: 0; border-bottom: 0; padding: 10px;">09:15:27</td></tr>
        <tr><td style="padding: 10px; border: solid 1px black;border-bottom: 0;"><strong>Altitude</strong></td><td style="border: solid 1px black;border-left: 0; border-bottom: 0; padding: 10px;">59,607ft (18,168.2m)</td></tr>
        <tr><td style="padding: 10px; border: solid 1px black;"><strong>Coordinates</strong></td><td style="border: solid 1px black; border-left: 0; padding: 10px;">39.64908333, -102.86016667</td></tr>
        </table>
        ]]></description>
                    <styleUrl>#112</styleUrl>
                    <Point id="110">
                        <coordinates>-102.8601666667,39.6490833333,18168.21</coordinates>
                        <altitudeMode>absolute</altitudeMode>
                    </Point>
                </Placemark>
                <Placemark id="116">
                    <name>70k</name>
                    <description><![CDATA[
        <h1>Waypoint</h1>
        <table style="width: 100%;" cellpadding=0 cellspacing=0 border=0>
        <tr><td style="padding: 10px; border: solid 1px black;border-bottom: 0;"><strong>Local Time</strong></td><td style="border: solid 1px black;border-left: 0; border-bottom: 0; padding: 10px;">09:13:00</td></tr>
        <tr><td style="padding: 10px; border: solid 1px black;border-bottom: 0;"><strong>Altitude</strong></td><td style="border: solid 1px black;border-left: 0; border-bottom: 0; padding: 10px;">70,381ft (21,452.1m)</td></tr>
        <tr><td style="padding: 10px; border: solid 1px black;"><strong>Coordinates</strong></td><td style="border: solid 1px black; border-left: 0; padding: 10px;">39.65, -102.873</td></tr>
        </table>
        ]]></description>
                    <styleUrl>#117</styleUrl>
                    <Point id="115">
                        <coordinates>-102.873,39.65,21452.13</coordinates>
                        <altitudeMode>absolute</altitudeMode>
                    </Point>
                </Placemark>
                <Placemark id="121">
                    <name>79k</name>
                    <description><![CDATA[
        <h1>Waypoint</h1>
        <table style="width: 100%;" cellpadding=0 cellspacing=0 border=0>
        <tr><td style="padding: 10px; border: solid 1px black;border-bottom: 0;"><strong>Local Time</strong></td><td style="border: solid 1px black;border-left: 0; border-bottom: 0; padding: 10px;">09:11:27</td></tr>
        <tr><td style="padding: 10px; border: solid 1px black;border-bottom: 0;"><strong>Altitude</strong></td><td style="border: solid 1px black;border-left: 0; border-bottom: 0; padding: 10px;">78,835ft (24,028.9m)</td></tr>
        <tr><td style="padding: 10px; border: solid 1px black;"><strong>Coordinates</strong></td><td style="border: solid 1px black; border-left: 0; padding: 10px;">39.6489, -102.88398333</td></tr>
        </table>
        ]]></description>
                    <styleUrl>#122</styleUrl>
                    <Point id="120">
                        <coordinates>-102.8839833333,39.6489,24028.91</coordinates>
                        <altitudeMode>absolute</altitudeMode>
                    </Point>
                </Placemark>
                <Placemark id="126">
                    <name>89k</name>
                    <description><![CDATA[
        <h1>Waypoint</h1>
        <table style="width: 100%;" cellpadding=0 cellspacing=0 border=0>
        <tr><td style="padding: 10px; border: solid 1px black;border-bottom: 0;"><strong>Local Time</strong></td><td style="border: solid 1px black;border-left: 0; border-bottom: 0; padding: 10px;">09:09:57</td></tr>
        <tr><td style="padding: 10px; border: solid 1px black;border-bottom: 0;"><strong>Altitude</strong></td><td style="border: solid 1px black;border-left: 0; border-bottom: 0; padding: 10px;">89,411ft (27,252.5m)</td></tr>
        <tr><td style="padding: 10px; border: solid 1px black;"><strong>Coordinates</strong></td><td style="border: solid 1px black; border-left: 0; padding: 10px;">39.64843333, -102.8931</td></tr>
        </table>
        ]]></description>
                    <styleUrl>#127</styleUrl>
                    <Point id="125">
                        <coordinates>-102.8931,39.6484333333,27252.47</coordinates>
                        <altitudeMode>absolute</altitudeMode>
                    </Point>
                </Placemark>
                <Placemark id="131">
                    <name>98k</name>
                    <description><![CDATA[
        <h1>Waypoint</h1>
        <table style="width: 100%;" cellpadding=0 cellspacing=0 border=0>
        <tr><td style="padding: 10px; border: solid 1px black;border-bottom: 0;"><strong>Local Time</strong></td><td style="border: solid 1px black;border-left: 0; border-bottom: 0; padding: 10px;">09:08:57</td></tr>
        <tr><td style="padding: 10px; border: solid 1px black;border-bottom: 0;"><strong>Altitude</strong></td><td style="border: solid 1px black;border-left: 0; border-bottom: 0; padding: 10px;">98,408ft (29,994.8m)</td></tr>
        <tr><td style="padding: 10px; border: solid 1px black;"><strong>Coordinates</strong></td><td style="border: solid 1px black; border-left: 0; padding: 10px;">39.64865, -102.90613333</td></tr>
        </table>
        ]]></description>
                    <styleUrl>#132</styleUrl>
                    <Point id="130">
                        <coordinates>-102.9061333333,39.64865,29994.76</coordinates>
                        <altitudeMode>absolute</altitudeMode>
                    </Point>
                </Placemark>
            </Folder>
            <Folder id="5">
                <Style id="16">
                    <IconStyle id="17">
                        <color>ff008cff</color>
                        <colorMode>normal</colorMode>
                        <scale>1</scale>
                        <heading>0</heading>
                        <Icon id="18">
                            <href>https://maps.google.com/mapfiles/kml/shapes/placemark_circle.png</href>
                        </Icon>
                    </IconStyle>
                </Style>
                <Style id="21">
                    <IconStyle id="22">
                        <color>ff008cff</color>
                        <colorMode>normal</colorMode>
                        <scale>1</scale>
                        <heading>0</heading>
                        <Icon id="23">
                            <href>https://maps.google.com/mapfiles/kml/shapes/placemark_circle.png</href>
                        </Icon>
                    </IconStyle>
                </Style>
                <Style id="26">
                    <IconStyle id="27">
                        <color>ff00ffff</color>
                        <colorMode>normal</colorMode>
                        <scale>1</scale>
                        <heading>0</heading>
                        <Icon id="28">
                            <href>https://maps.google.com/mapfiles/kml/shapes/placemark_circle.png</href>
                        </Icon>
                    </IconStyle>
                </Style>
                <Style id="31">
                    <IconStyle id="32">
                        <color>ff006400</color>
                        <colorMode>normal</colorMode>
                        <scale>1</scale>
                        <heading>0</heading>
                        <Icon id="33">
                            <href>https://maps.google.com/mapfiles/kml/shapes/placemark_circle.png</href>
                        </Icon>
                    </IconStyle>
                    <LabelStyle id="34">
                        <color>ff006400</color>
                        <colorMode>normal</colorMode>
                        <scale>1</scale>
                    </LabelStyle>
                </Style>
                <name>Points of Interest</name>
                <Placemark id="15">
                    <name>Launch</name>
                    <description><![CDATA[
    <h1>Launch</h1>
    <table style="width: 100%;" cellpadding=0 cellspacing=0 border=0>
    <tr><td style="padding: 10px; border: solid 1px black;border-bottom: 0;"><strong>Local Time</strong></td><td style="border: solid 1px black;border-bottom: 0; border-left: 0; padding: 10px;">07:30:30</td></tr>
    <tr><td style="padding: 10px; border: solid 1px black;border-bottom: 0;"><strong>Altitude</strong></td><td style="border: solid 1px black;border-left: 0; border-bottom: 0; padding: 10px;">5,240ft (1,597.2m)</td></tr>
    <tr><td style="padding: 10px; border: solid 1px black;"><strong>Coordinates</strong></td><td style="border: solid 1px black; border-left: 0; padding: 10px;">39.60833333, -104.04183333</td></tr>
    </table>
    ]]></description>
                    <styleUrl>#16</styleUrl>
                    <Point id="14">
                        <coordinates>-104.0418333333,39.6083333333,1597.15</coordinates>
                        <altitudeMode>absolute</altitudeMode>
                    </Point>
                </Placemark>
                <Placemark id="20">
                    <name>Landing</name>
                    <description><![CDATA[
    <h1>Landing</h1>
    <table style="width: 100%;" cellpadding=0 cellspacing=0 border=0>
    <tr><td style="padding: 10px; border: solid 1px black;border-bottom: 0;"><strong>Local Time</strong></td><td style="border: solid 1px black;border-left: 0; border-bottom: 0; padding: 10px;">09:45:27</td></tr>
    <tr><td style="padding: 10px; border: solid 1px black;border-bottom: 0;"><strong>Altitude</strong></td><td style="border: solid 1px black;border-bottom: 0; border-left: 0; padding: 10px;">4,164ft (1,269.2m)</td></tr>
    <tr><td style="padding: 10px; border: solid 1px black;"><strong>Coordinates</strong></td><td style="border: solid 1px black; border-left: 0; padding: 10px;">39.64901667, -102.46585</td></tr>
    </table>
    ]]></description>
                    <styleUrl>#21</styleUrl>
                    <Point id="19">
                        <coordinates>-102.46585,39.6490166667,1269.19</coordinates>
                        <altitudeMode>absolute</altitudeMode>
                    </Point>
                </Placemark>
                <Placemark id="25">
                    <name>Burst 105,972ft</name>
                    <description><![CDATA[
    <h1>Burst: 105,972ft</h1>
    <table style="width: 100%;" cellpadding=0 cellspacing=0 border=0>
    <tr><td style="padding: 10px; border: solid 1px black;border-bottom: 0;"><strong>Local Time</strong></td><td style="border: solid 1px black;border-left: 0; border-bottom: 0; padding: 10px;">09:08:00</td></tr>
    <tr><td style="padding: 10px; border: solid 1px black;border-bottom: 0;"><strong>Altitude</strong></td><td style="border: solid 1px black;border-left: 0; border-bottom: 0; padding: 10px;">105,972ft (32,300.3m)</td></tr>
    <tr><td style="padding: 10px; border: solid 1px black;"><strong>Coordinates</strong></td><td style="border: solid 1px black; border-left: 0; padding: 10px;">39.64666667, -102.9235</td></tr>
    </table>
    ]]></description>
                    <styleUrl>#26</styleUrl>
                    <Point id="24">
                        <coordinates>-102.9235,39.6466666667,32300.27</coordinates>
                        <altitudeMode>absolute</altitudeMode>
                    </Point>
                </Placemark>
                <Placemark id="30">
                    <name>56k, Turbulent-to-Laminar</name>
                    <description><![CDATA[
        <h1>Airflow Transitioning from Turbulent-to-Laminar</h1>
        <table style="width: 100%;" cellpadding=0 cellspacing=0 border=0>
        <tr><td style="padding: 10px; border: solid 1px black;border-bottom: 0;"><strong>Local Time</strong></td><td style="border: solid 1px black;border-left: 0; border-bottom: 0; padding: 10px;">08:07:00</td></tr>
        <tr><td style="padding: 10px; border: solid 1px black;border-bottom: 0;"><strong>Altitude</strong></td><td style="border: solid 1px black;border-left: 0; border-bottom: 0; padding: 10px;">55,939ft (17,050.2m)</td></tr>
        <tr><td style="padding: 10px; border: solid 1px black;"><strong>Coordinates</strong></td><td style="border: solid 1px black; border-left: 0; padding: 10px;">39.61666667, -103.50966667</td></tr>
        </table>
        ]]></description>
                    <styleUrl>#31</styleUrl>
                    <Point id="29">
                        <coordinates>-103.5096666667,39.6166666667,17050.21</coordinates>
                        <altitudeMode>absolute</altitudeMode>
                    </Point>
                </Placemark>
            </Folder>
        </Document>
    </Document>
</kml>
