<?xml version="1.0" encoding="UTF-8"?>
<kml xmlns="http://www.opengis.net/kml/2.2" xmlns:gx="http://www.google.com/kml/ext/2.2">
    <Document id="1">
        <Document id="2">
            <name>EOSS-307</name>
            <description><![CDATA[
    <h1>EOSS-307</h1>
    <table style="width: 100%;" cellpadding=0 cellspacing=0 border=0>
    <tr><td style="border: solid 1px black;border-bottom: 0; padding: 10px;"><strong>Launch Local Date/Time</strong></td><td style=" padding: 10px;border: solid 1px black;border-bottom: 0; border-left: 0;">2021-03-20 07:37:57</td></tr>
    <tr><td style="border: solid 1px black;border-bottom: 0; padding: 10px;"><strong>Flight Duration</strong></td><td style=" padding: 10px;border: solid 1px black;border-bottom: 0; border-left: 0; ">1hrs 39mins 44secs</td></tr>
    <tr><td style="border: solid 1px black;border-bottom: 0; padding: 10px;"><strong>Down Range Distance</strong></td><td style=" padding: 10px;border: solid 1px black;border-bottom: 0; border-left: 0; ">56.0mi (90.1km)</td></tr>
    <tr><td style="border: solid 1px black; padding: 10px;"><strong>Approx. Burst Altitude</strong></td><td style=" padding: 10px;border: solid 1px black; border-left: 0; ">104,708ft (31,915.0m)</td></tr>
    </table>
    ]]></description>
            <Folder id="3">
                <Style id="8">
                    <LineStyle id="9">
                        <color>ff0000ff</color>
                        <colorMode>normal</colorMode>
                        <width>3</width>
                    </LineStyle>
                </Style>
                <Style id="12">
                    <LineStyle id="13">
                        <color>ffff0000</color>
                        <colorMode>normal</colorMode>
                        <width>3</width>
                    </LineStyle>
                </Style>
                <name>Paths</name>
                <Placemark id="7">
                    <name>EOSS-307 Ascent</name>
                    <styleUrl>#8</styleUrl>
                    <LineString id="6">
                        <extrude>0</extrude>
                        <altitudeMode>absolute</altitudeMode>
                        <coordinates>-104.0404333333,39.6084833333,1602.33 -104.0407833333,39.6090166667,1625.19 -104.0406666667,39.6093333333,1676.1 -104.0405,39.6093333333,1687.37 -104.0394166667,39.6103666667,1767.23 -104.0381166667,39.61165,1847.09 -104.0378333333,39.612,1881.23 -104.0378333333,39.612,1898.29 -104.0365333333,39.6130833333,1979.37 -104.03475,39.6143,2068.37 -104.0341666667,39.6148333333,2120.8 -104.0341666667,39.6148333333,2103.42 -104.0327166667,39.6157666667,2192.43 -104.0308333333,39.6173333333,2322.58 -104.0308333333,39.6173333333,2343.91 -104.0293833333,39.6181166667,2413.41 -104.0276666667,39.6196666667,2568.24 -104.0276666667,39.6195,2551.48 -104.0263,39.6204666667,2652.37 -104.0247333333,39.6216,2747.47 -104.0241666667,39.622,2803.55 -104.0241666667,39.622,2786.18 -104.0226833333,39.6230166667,2879.45 -104.0206666667,39.6243333333,3020.87 -104.0206666667,39.6243333333,3038.55 -104.01935,39.6249833333,3106.52 -104.0178333333,39.6258333333,3263.49 -104.0178333333,39.626,3244.9 -104.01695,39.6264666667,3333.29 -104.0153333333,39.6273333333,3478.07 -104.0153333333,39.6273333333,3497.58 -104.0143833333,39.6279,3570.43 -104.01315,39.6286666667,3680.46 -104.0126666667,39.629,3737.76 -104.0126666667,39.629,3719.17 -104.0116833333,39.6297166667,3805.43 -104.0101833333,39.6307333333,3907.54 -104.0096666667,39.6311666667,3941.37 -104.0095,39.6311666667,3961.79 -104.0065,39.6331666667,4178.5 -104.0065,39.6331666667,4158.69 -104.0057,39.6343,4245.56 -104.0043333333,39.6358333333,4377.84 -104.0043333333,39.6358333333,4398.26 -104.0018833333,39.6379833333,4544.57 -104.0016666667,39.6381666667,4579.32 -104.0016666667,39.6381666667,4599.43 -104.0006333333,39.6391333333,4659.48 -103.9992333333,39.6399833333,4753.66 -103.9986666667,39.6403333333,4805.48 -103.9985,39.6403333333,4787.19 -103.995,39.6418333333,4989.27 -103.9948333333,39.642,5008.17 -103.9905,39.6433333333,5210.25 -103.9903333333,39.6433333333,5191.35 -103.9864166667,39.6452166667,5371.8 -103.9856666667,39.6456666667,5405.32 -103.9856666667,39.6456666667,5425.44 -103.9835333333,39.6464666667,5490.67 -103.9810333333,39.64735,5591.56 -103.9805,39.6476666667,5647.03 -103.9805,39.6476666667,5625.69 -103.9758333333,39.6498333333,5872.89 -103.9758333333,39.6498333333,5893.0 -103.971,39.652,6127.39 -103.971,39.652,6147.21 -103.9665833333,39.65385,6346.85 -103.9661666667,39.6541666667,6388.3 -103.966,39.6541666667,6408.72 -103.9641,39.6551333333,6483.71 -103.9606666667,39.6565,6675.42 -103.9606666667,39.6565,6655.92 -103.9553333333,39.6595,6948.53 -103.9553333333,39.6596666667,6928.1 -103.9496666667,39.6615,7231.68 -103.9496666667,39.6615,7210.96 -103.94455,39.6625333333,7454.8 -103.9435,39.6628333333,7496.56 -103.9435,39.6628333333,7516.67 -103.93875,39.66425,7726.98 -103.9381666667,39.6646666667,7788.25 -103.9381666667,39.6648333333,7767.22 -103.9354166667,39.66525,7865.97 -103.9329833333,39.6660666667,7991.86 -103.932,39.6663333333,8054.04 -103.932,39.6665,8034.22 -103.9296166667,39.66695,8132.06 -103.9265666667,39.6676,8246.06 -103.9258333333,39.6678333333,8308.85 -103.9256666667,39.6678333333,8288.12 -103.9230333333,39.6685333333,8394.19 -103.9196333333,39.6690666667,8505.14 -103.9188333333,39.6693333333,8566.71 -103.9186666667,39.6693333333,8545.98 -103.91635,39.6700333333,8645.04 -103.9129166667,39.6710666667,8748.98 -103.912,39.6713333333,8815.43 -103.912,39.6713333333,8796.22 -103.9090666667,39.6721833333,8889.19 -103.9056333333,39.6732666667,9008.06 -103.9043333333,39.6736666667,9045.55 -103.9043333333,39.6736666667,9065.36 -103.90115,39.6745833333,9136.08 -103.8972333333,39.67515,9237.27 -103.8963333333,39.6755,9298.53 -103.8963333333,39.6755,9277.5 -103.8926166667,39.6763333333,9382.05 -103.88845,39.6771166667,9496.04 -103.8873333333,39.6775,9547.56 -103.8873333333,39.6775,9527.74 -103.8841833333,39.6778833333,9627.11 -103.8801666667,39.6782833333,9731.35 -103.8791666667,39.6786666667,9778.29 -103.879,39.6786666667,9798.71 -103.8752666667,39.6792,9882.23 -103.8711,39.6792166667,9996.22 -103.8696666667,39.6796666667,10039.5 -103.8696666667,39.6796666667,10058.7 -103.8657666667,39.6801333333,10142.22 -103.8607166667,39.6804,10246.16 -103.859,39.6803333333,10315.35 -103.859,39.6803333333,10294.62 -103.85515,39.6804666667,10397.34 -103.8498,39.6806833333,10524.44 -103.8486666667,39.6808333333,10589.97 -103.8488333333,39.6808333333,10570.77 -103.8445,39.68075,10671.35 -103.8397333333,39.68065,10785.35 -103.8381666667,39.6806666667,10837.77 -103.8381666667,39.6806666667,10856.37 -103.83395,39.6806,10938.36 -103.8289166667,39.6809166667,11071.25 -103.8273333333,39.6811666667,11138.61 -103.8273333333,39.681,11118.19 -103.81845,39.6810833333,11345.57 -103.8171666667,39.6813333333,11392.2 -103.8171666667,39.6813333333,11412.63 -103.8132166667,39.6812666667,11504.37 -103.8081833333,39.6811666667,11633.61 -103.8063333333,39.681,11702.49 -103.8065,39.6808333333,11683.59 -103.8016666667,39.6808166667,11782.35 -103.7965333333,39.68075,11926.52 -103.7948333333,39.6806666667,11976.81 -103.7948333333,39.6806666667,11995.71 -103.7908666667,39.6804833333,12075.57 -103.78595,39.6804833333,12204.5 -103.7846666667,39.6806666667,12249.91 -103.7846666667,39.6806666667,12269.42 -103.78005,39.6803166667,12356.59 -103.77525,39.6801333333,12492.53 -103.774,39.6798333333,12541.61 -103.774,39.6798333333,12558.98 -103.7699833333,39.6797666667,12653.47 -103.76465,39.67995,12780.57 -103.7631666667,39.6796666667,12833.91 -103.7631666667,39.6796666667,12853.42 -103.7586166667,39.67965,12962.53 -103.7527833333,39.6795666667,13117.68 -103.7511666667,39.6795,13189.92 -103.7511666667,39.6795,13170.71 -103.7471,39.6791833333,13299.64 -103.7418166667,39.6786,13436.8 -103.74,39.6785,13486.49 -103.74,39.6785,13505.08 -103.7355166667,39.6785,13598.65 -103.7307333333,39.6789833333,13742.82 -103.7293333333,39.679,13787.93 -103.7293333333,39.679,13807.74 -103.7253833333,39.6796833333,13896.75 -103.7205,39.6803666667,14030.86 -103.7193333333,39.6805,14097.3 -103.7191666667,39.6805,14077.8 -103.7098833333,39.6816,14323.77 -103.7088333333,39.6818333333,14391.13 -103.7088333333,39.6818333333,14372.84 -103.7048333333,39.6823,14481.96 -103.7003333333,39.6828166667,14620.95 -103.6988333333,39.6831666667,14682.22 -103.699,39.683,14699.59 -103.6951666667,39.6833833333,14793.77 -103.6908333333,39.6836166667,14930.02 -103.6891666667,39.6835,14980.92 -103.6893333333,39.6835,14998.6 -103.6813166667,39.6834666667,15238.78 -103.6803333333,39.6835,15284.2 -103.6803333333,39.6835,15304.62 -103.6769,39.6831666667,15391.79 -103.67325,39.6829666667,15556.08 -103.6728333333,39.6828333333,15600.88 -103.6728333333,39.683,15619.78 -103.6699666667,39.6830833333,15713.05 -103.6668333333,39.68385,15855.09 -103.6661666667,39.6841666667,15903.24 -103.6661666667,39.6841666667,15923.67 -103.6629666667,39.6850666667,16031.87 -103.65885,39.6866333333,16162.02 -103.6576666667,39.6871666667,16208.04 -103.6576666667,39.6871666667,16227.25 -103.6534833333,39.6878,16307.1 -103.6492666667,39.6885833333,16415.92 -103.648,39.6888333333,16457.37 -103.648,39.6886666667,16476.27 -103.64465,39.68945,16550.94 -103.6400166667,39.6899666667,16675.0 -103.6385,39.6898333333,16735.65 -103.6385,39.6896666667,16717.37 -103.63525,39.6894666667,16840.2 -103.63205,39.6891,17002.05 -103.6316666667,39.689,17058.13 -103.6318333333,39.689,17038.02 -103.6297333333,39.6894333333,17147.13 -103.62765,39.68935,17281.25 -103.6271666667,39.6896666667,17348.61 -103.6271666667,39.6898333333,17328.79 -103.6253333333,39.6902,17468.09 -103.6228,39.6917333333,17604.33 -103.622,39.6918333333,17666.51 -103.622,39.6918333333,17685.72 -103.6191833333,39.6927666667,17828.36 -103.61565,39.6928833333,18001.18 -103.6151666667,39.693,18079.82 -103.6151666667,39.6931666667,18062.75 -103.61195,39.6925833333,18358.41 -103.6111666667,39.6926666667,18427.9 -103.6111666667,39.6926666667,18409.31 -103.6101166667,39.6929833333,18533.36 -103.6079,39.6939666667,18645.23 -103.6068333333,39.6943333333,18683.33 -103.607,39.6941666667,18702.22 -103.6041833333,39.6944166667,18780.25 -103.6016,39.6946666667,18904.31 -103.6005,39.6948333333,18973.19 -103.6005,39.6946666667,18955.21 -103.5964666667,39.6953333333,19222.52 -103.596,39.6951666667,19272.81 -103.596,39.6951666667,19292.93 -103.5937166667,39.69525,19400.52 -103.591,39.695,19630.95 -103.5911666667,39.695,19648.93 -103.5897833333,39.6944333333,19770.55 -103.5898833333,39.6939833333,19929.35 -103.5896666667,39.6938333333,19986.96 -103.5896666667,39.694,20006.16 -103.5897666667,39.6936,20125.64 -103.5891833333,39.69325,20295.41 -103.5895,39.693,20336.56 -103.5893333333,39.693,20355.15 -103.58915,39.6924666667,20410.63 -103.5892,39.6931166667,20584.67 -103.5893333333,39.6931666667,20663.61 -103.5895,39.693,20646.54 -103.5883833333,39.69355,20760.54 -103.587,39.6927666667,20916.6 -103.5865,39.6928333333,20959.88 -103.5865,39.6928333333,20941.28 -103.58525,39.6925166667,21022.67 -103.5838666667,39.692,21133.61 -103.5838333333,39.692,21193.96 -103.5838333333,39.692,21179.33 -103.5831166667,39.6915,21261.63 -103.5828333333,39.6911666667,21434.15 -103.5828333333,39.6911666667,21418.3 -103.5832,39.69115,21503.64 -103.5828333333,39.6914166667,21628.61 -103.583,39.6916666667,21678.9 -103.5828333333,39.6916666667,21694.44 -103.5824166667,39.6924,21783.75 -103.5824333333,39.6930166667,21907.8 -103.582,39.6931666667,21967.85 -103.5818333333,39.6931666667,21950.17 -103.5810666667,39.6936166667,22054.72 -103.5802833333,39.69435,22195.84 -103.5793333333,39.6943333333,22223.58 -103.5796666667,39.6946666667,22265.34 -103.5778,39.6949666667,22385.73 -103.5765,39.6946666667,22585.98 -103.5763333333,39.6948333333,22601.53 -103.57575,39.6946,22669.8 -103.5753,39.6940333333,22776.79 -103.5746666667,39.6936666667,22817.33 -103.5748333333,39.6938333333,22834.7 -103.5730333333,39.6921,23010.88 -103.5728333333,39.6921666667,23045.93 -103.5728333333,39.6921666667,23063.0 -103.5719333333,39.6913,23131.88 -103.5711666667,39.6908166667,23241.91 -103.5711666667,39.6903333333,23275.14 -103.571,39.6905,23290.99 -103.5706,39.6902333333,23365.05 -103.5706,39.6899666667,23486.06 -103.5703333333,39.6903333333,23514.1 -103.5705,39.6901666667,23528.73 -103.5702333333,39.6905,23607.98 -103.5689666667,39.6909166667,23721.97 -103.569,39.6908333333,23752.15 -103.5688333333,39.6908333333,23765.56 -103.5676666667,39.6909166667,23836.88 -103.5665333333,39.6909,23946.0 -103.5661666667,39.6906666667,23996.6 -103.566,39.6906666667,23981.36 -103.5652666667,39.6906333333,24066.09 -103.5638,39.6900333333,24170.03 -103.5636666667,39.69,24213.62 -103.5636666667,39.69,24227.64 -103.5622833333,39.6890833333,24401.98 -103.5621666667,39.6888333333,24454.71 -103.5621666667,39.6888333333,24442.22 -103.5619166667,39.6891333333,24526.04 -103.56135,39.6891166667,24629.06 -103.561,39.6893333333,24665.03 -103.561,39.6893333333,24678.13 -103.56055,39.6893166667,24743.97 -103.5594166667,39.6894833333,24857.05 -103.5593333333,39.6895,24904.29 -103.5593333333,39.6895,24889.36 -103.5580833333,39.6894833333,24977.14 -103.55715,39.68945,25086.26 -103.5566666667,39.6895,25143.26 -103.5565,39.6895,25129.85 -103.5546166667,39.68885,25331.32 -103.5543333333,39.6888333333,25384.05 -103.5543333333,39.689,25366.68 -103.5536,39.6882166667,25458.12 -103.5526166667,39.6880666667,25575.16 -103.5526666667,39.6878333333,25606.55 -103.5525,39.6878333333,25623.93 -103.5519833333,39.6875166667,25726.34 -103.5517,39.6868166667,25855.27 -103.5513333333,39.6865,25897.33 -103.5511666667,39.6863333333,25882.09 -103.5515,39.68575,25973.23 -103.55115,39.6854333333,26088.14 -103.5515,39.6855,26118.92 -103.5513333333,39.6855,26133.25 -103.5509333333,39.6853166667,26203.35 -103.5503333333,39.6851666667,26356.06 -103.5503333333,39.6851666667,26338.99 -103.54935,39.6849833333,26425.25 -103.5481,39.6847333333,26527.35 -103.5476666667,39.685,26577.65 -103.5476666667,39.6851666667,26560.27 -103.5463333333,39.68525,26642.26 -103.5442333333,39.68545,26744.37 -103.5438333333,39.6851666667,26779.73 -103.5438333333,39.6851666667,26797.41 -103.54205,39.6846333333,26884.27 -103.5411166667,39.68365,27025.4 -103.5405,39.6833333333,27071.12 -103.5403333333,39.6833333333,27060.75 -103.5398833333,39.68265,27139.39 -103.5392166667,39.68185,27251.56 -103.5391666667,39.6818333333,27303.07 -103.5391666667,39.682,27288.44 -103.5383166667,39.6815166667,27379.57 -103.5372333333,39.68155,27491.44 -103.5368333333,39.6813333333,27538.98 -103.5368333333,39.6811666667,27524.35 -103.5357166667,39.6813333333,27616.4 -103.53445,39.6813833333,27724.61 -103.534,39.6815,27782.52 -103.534,39.6816666667,27765.76 -103.5324166667,39.6817666667,27857.5 -103.5310166667,39.6824333333,27975.46 -103.5301666667,39.6823333333,28010.51 -103.5301666667,39.6823333333,28026.06 -103.5284833333,39.6827333333,28097.38 -103.5263833333,39.6829166667,28214.42 -103.526,39.6828333333,28247.64 -103.5258333333,39.6828333333,28268.37 -103.5239666667,39.6827333333,28344.57 -103.5219,39.6822333333,28460.7 -103.5215,39.6823333333,28516.78 -103.5213333333,39.6823333333,28498.19 -103.5197333333,39.6824333333,28592.68 -103.5173333333,39.6826666667,28763.98 -103.5173333333,39.6828333333,28749.04 -103.51575,39.6828,28841.7 -103.5135666667,39.6827166667,28951.73 -103.5133333333,39.6828333333,29005.07 -103.5133333333,39.6828333333,28986.78 -103.5113166667,39.6830333333,29081.58 -103.50895,39.68325,29188.56 -103.5085,39.6833333333,29240.99 -103.5085,39.6833333333,29220.87 -103.5064,39.6832333333,29319.63 -103.5039833333,39.6829833333,29428.74 -103.5035,39.683,29481.78 -103.5035,39.683,29461.05 -103.5014166667,39.68255,29561.64 -103.4993833333,39.6821,29680.81 -103.4991666667,39.6818333333,29713.73 -103.4991666667,39.6818333333,29732.02 -103.4979833333,39.6815166667,29804.87 -103.49565,39.6814166667,29906.67 -103.495,39.6815,29963.36 -103.495,39.6815,29943.86 -103.4926166667,39.6817666667,30036.82 -103.48935,39.6823166667,30147.77 -103.4888333333,39.6823333333,30182.82 -103.4888333333,39.6823333333,30200.8 -103.48665,39.6822333333,30273.65 -103.4837166667,39.6825666667,30371.8 -103.4828333333,39.6826666667,30412.33 -103.4826666667,39.6825,30431.54 -103.4755833333,39.6829333333,30606.8 -103.4745,39.6831666667,30637.28 -103.4745,39.6831666667,30657.7 -103.4655833333,39.6836666667,30837.84 -103.4643333333,39.6836666667,30894.53 -103.4643333333,39.6836666667,30873.5 -103.4606,39.6839166667,30962.8 -103.4561666667,39.6842166667,31067.96 -103.4548333333,39.6843333333,31101.79 -103.4548333333,39.6843333333,31121.3 -103.44735,39.6849833333,31302.96 -103.4461666667,39.685,31359.65 -103.4461666667,39.6851666667,31339.84 -103.4431,39.6853166667,31434.02 -103.4392666667,39.6857166667,31545.89 -103.438,39.6856666667,31580.33 -103.438,39.6856666667,31601.36 -103.4299333333,39.6864666667,31789.12 -103.4285,39.6865,31822.34 -103.4285,39.6865,31841.85 -103.42495,39.6867166667,31915.0</coordinates>
                    </LineString>
                </Placemark>
                <Placemark id="11">
                    <name>EOSS-307 Descent</name>
                    <styleUrl>#12</styleUrl>
                    <LineString id="10">
                        <extrude>0</extrude>
                        <altitudeMode>absolute</altitudeMode>
                        <coordinates>-103.42495,39.6867166667,31915.0 -103.4204666667,39.6867833333,31403.85 -103.419,39.6865,31190.18 -103.4191666667,39.6865,31205.73 -103.4129166667,39.6873833333,29855.77 -103.412,39.6873333333,29687.22 -103.4118333333,39.6875,29673.19 -103.4083,39.6882666667,28524.71 -103.4076666667,39.6886666667,28358.9 -103.4078333333,39.6886666667,28371.09 -103.40415,39.6897666667,27316.48 -103.4035,39.6896666667,27169.87 -103.4035,39.6896666667,27187.25 -103.4026833333,39.68985,26783.39 -103.4011666667,39.6888166667,26241.15 -103.4008333333,39.6883333333,26117.7 -103.4008333333,39.6883333333,26136.9 -103.3998833333,39.6869833333,25247.19 -103.3991666667,39.6868333333,25120.09 -103.3993333333,39.6868333333,25135.64 -103.3984666667,39.68665,24771.1 -103.3974333333,39.68695,24304.14 -103.3975,39.6866666667,24188.01 -103.3975,39.6868333333,24200.82 -103.39665,39.6867666667,23860.96 -103.3961333333,39.6869833333,23402.85 -103.3956666667,39.687,23299.52 -103.3958333333,39.687,23314.46 -103.3954166667,39.6866,22997.77 -103.39485,39.6857333333,22583.85 -103.3951666667,39.6856666667,22486.01 -103.3951666667,39.6856666667,22504.91 -103.3954833333,39.6855,22241.87 -103.3950666667,39.6855333333,21882.81 -103.3945,39.6855,21793.81 -103.3946666667,39.6855,21807.22 -103.3946833333,39.6862,21520.71 -103.3946666667,39.686,21143.67 -103.3945,39.686,21072.04 -103.3945,39.6861666667,21055.89 -103.3932333333,39.6851833333,20820.58 -103.3928,39.6858666667,20470.67 -103.3925,39.6855,20381.06 -103.3926666667,39.6856666667,20397.83 -103.3928,39.6854666667,20141.49 -103.39205,39.6851166667,19802.55 -103.3921666667,39.685,19723.0 -103.3921666667,39.685,19735.19 -103.3906666667,39.68495,19491.35 -103.3888833333,39.6850833333,19187.46 -103.3881666667,39.6853333333,19124.68 -103.388,39.6853333333,19113.7 -103.38625,39.6855,18907.35 -103.3835333333,39.6857833333,18626.33 -103.3833333333,39.6861666667,18551.35 -103.3831666667,39.6861666667,18564.45 -103.3813833333,39.6864833333,18344.39 -103.3794,39.6862833333,18049.34 -103.3788333333,39.6865,17988.08 -103.3788333333,39.6866666667,17975.28 -103.3758333333,39.68705,17749.11 -103.3730833333,39.6881166667,17448.28 -103.3721666667,39.6885,17389.75 -103.372,39.6885,17376.34 -103.3697666667,39.6888,17173.04 -103.3667,39.6890166667,16901.16 -103.3651666667,39.6888333333,16849.04 -103.365,39.689,16834.41 -103.36105,39.6889,16639.03 -103.3570333333,39.68955,16383.0 -103.3553333333,39.6898333333,16319.3 -103.3555,39.6896666667,16333.62 -103.3513166667,39.6903,16137.94 -103.34675,39.6917,15887.09 -103.3458333333,39.6915,15822.47 -103.3458333333,39.6916666667,15840.15 -103.3430666667,39.6921166667,15653.92 -103.3401333333,39.6926,15416.78 -103.339,39.6925,15380.21 -103.3388333333,39.6926666667,15363.75 -103.3313333333,39.6921666667,14929.71 -103.3311666667,39.6923333333,14911.73 -103.3271333333,39.6922,14744.7 -103.3228333333,39.6925666667,14515.8 -103.3213333333,39.6928333333,14477.39 -103.3211666667,39.6928333333,14460.02 -103.3171833333,39.6930333333,14297.86 -103.31225,39.6934166667,14081.76 -103.3105,39.6938333333,14025.68 -103.3105,39.6938333333,14041.22 -103.306,39.6943333333,13871.75 -103.3013,39.6948666667,13667.84 -103.3,39.6953333333,13611.15 -103.2998333333,39.6953333333,13629.74 -103.2957,39.69545,13468.81 -103.29065,39.6950333333,13275.56 -103.2893333333,39.6953333333,13226.19 -103.2893333333,39.6953333333,13241.12 -103.28475,39.6951833333,13082.63 -103.2778333333,39.695,12873.53 -103.2778333333,39.6948333333,12858.29 -103.2733166667,39.69475,12722.66 -103.2686333333,39.6947666667,12541.61 -103.267,39.6948333333,12514.78 -103.267,39.6948333333,12497.41 -103.2630333333,39.6947,12366.65 -103.2582666667,39.6948,12202.67 -103.2571666667,39.6946666667,12156.34 -103.2571666667,39.6946666667,12172.8 -103.2532166667,39.6948,12032.59 -103.2471666667,39.695,11829.29 -103.247,39.695,11846.66 -103.24265,39.6948333333,11716.51 -103.2361666667,39.6946666667,11522.96 -103.2361666667,39.6946666667,11540.64 -103.2322833333,39.6947166667,11411.41 -103.2268333333,39.695,11223.96 -103.2268333333,39.695,11241.02 -103.2230833333,39.6950666667,11115.45 -103.2186666667,39.6952666667,10970.36 -103.2171666667,39.6951666667,10949.64 -103.217,39.6953333333,10933.48 -103.2132333333,39.6953166667,10827.41 -103.2068333333,39.6951666667,10671.96 -103.2068333333,39.6951666667,10650.02 -103.20245,39.6948666667,10557.36 -103.1961666667,39.6941666667,10395.51 -103.196,39.6941666667,10417.76 -103.1919666667,39.6939,10302.24 -103.1874166667,39.6940166667,10167.21 -103.1865,39.694,10156.85 -103.1865,39.694,10137.65 -103.1827333333,39.6942166667,10047.12 -103.17895,39.6945,9909.35 -103.178,39.6943333333,9897.47 -103.178,39.6943333333,9877.65 -103.1747166667,39.69465,9786.21 -103.17105,39.69485,9656.06 -103.1703333333,39.695,9624.97 -103.1703333333,39.695,9643.87 -103.1672666667,39.6951333333,9530.18 -103.1637833333,39.6954166667,9397.29 -103.1625,39.6955,9366.2 -103.1625,39.6955,9386.93 -103.15935,39.6957833333,9273.24 -103.15555,39.6960833333,9141.26 -103.1546666667,39.696,9111.08 -103.1548333333,39.696,9130.89 -103.1516666667,39.6962833333,9022.08 -103.1482,39.6967833333,8901.99 -103.1475,39.6971666667,8874.56 -103.1473333333,39.6971666667,8892.84 -103.1446,39.6977166667,8793.18 -103.1411,39.6984666667,8679.18 -103.1405,39.6988333333,8670.04 -103.1405,39.6986666667,8651.14 -103.1378333333,39.6994166667,8563.97 -103.135,39.7001833333,8444.18 -103.1338333333,39.7003333333,8434.73 -103.1338333333,39.7003333333,8414.92 -103.1317666667,39.70085,8335.06 -103.1290166667,39.7013,8217.1 -103.128,39.7015,8208.57 -103.128,39.7016666667,8188.45 -103.1256,39.70215,8106.16 -103.123,39.7027666667,7987.89 -103.122,39.703,7959.55 -103.122,39.703,7980.88 -103.1198666667,39.7035833333,7879.99 -103.1173333333,39.70425,7759.9 -103.1163333333,39.7045,7733.39 -103.1163333333,39.7045,7753.5 -103.1140833333,39.7051666667,7652.92 -103.1114666667,39.7059833333,7531.91 -103.1105,39.7061666667,7503.87 -103.1105,39.7061666667,7523.68 -103.1082166667,39.7066666667,7427.98 -103.1053166667,39.7071833333,7303.92 -103.1046666667,39.7075,7298.74 -103.1046666667,39.7075,7279.54 -103.1023,39.7081166667,7196.02 -103.09955,39.70885,7071.97 -103.0986666667,39.7093333333,7063.74 -103.0986666667,39.7093333333,7043.62 -103.0964333333,39.7102833333,6957.97 -103.0938833333,39.71135,6838.8 -103.0928333333,39.7118333333,6811.98 -103.0928333333,39.7118333333,6830.87 -103.0906333333,39.7128833333,6726.94 -103.0880333333,39.7140666667,6604.71 -103.087,39.7143333333,6581.55 -103.087,39.7143333333,6601.36 -103.0848,39.7154,6501.69 -103.0821166667,39.7164,6380.68 -103.081,39.7168333333,6378.24 -103.081,39.7168333333,6358.13 -103.0787166667,39.7177,6279.79 -103.075,39.719,6137.15 -103.075,39.7188333333,6157.57 -103.07275,39.7196166667,6057.9 -103.0701166667,39.7209333333,5946.65 -103.0696666667,39.7213333333,5926.53 -103.0696666667,39.7213333333,5947.26 -103.0679333333,39.7221666667,5856.73 -103.0659166667,39.7234166667,5743.65 -103.0653333333,39.7238333333,5744.57 -103.0653333333,39.7238333333,5723.84 -103.0639166667,39.7245833333,5653.74 -103.0624,39.7251833333,5543.7 -103.062,39.7253333333,5543.09 -103.062,39.7253333333,5522.37 -103.0605333333,39.7259666667,5451.65 -103.0585833333,39.7271333333,5343.75 -103.0581666667,39.7275,5323.94 -103.0581666667,39.7275,5345.58 -103.0563833333,39.7284666667,5257.8 -103.0543833333,39.7296333333,5151.73 -103.054,39.73,5132.22 -103.054,39.73,5154.78 -103.0513166667,39.7326,4958.49 -103.051,39.733,4940.2 -103.051,39.733,4962.45 -103.05015,39.7343333333,4877.71 -103.049,39.7361666667,4757.62 -103.049,39.7361666667,4780.18 -103.0484,39.737,4697.58 -103.0475,39.7383333333,4582.06 -103.0475,39.7383333333,4604.61 -103.0456666667,39.7399833333,4432.71 -103.0453333333,39.7403333333,4411.68 -103.0453333333,39.7401666667,4435.14 -103.0443,39.7410666667,4353.46 -103.0433333333,39.7421,4257.45 -103.043,39.7423333333,4261.71 -103.043,39.7423333333,4240.07 -103.0419666667,39.7433166667,4184.6 -103.0411166667,39.7443666667,4089.5 -103.0408333333,39.7446666667,4096.21 -103.0408333333,39.7446666667,4073.04 -103.0397166667,39.7457,4019.4 -103.0384833333,39.7471833333,3926.43 -103.0383333333,39.7475,3930.4 -103.0383333333,39.7475,3908.15 -103.0380833333,39.7488333333,3852.37 -103.0373166667,39.74995,3755.44 -103.0373333333,39.7503333333,3737.76 -103.0373333333,39.7503333333,3760.32 -103.0363333333,39.7522833333,3586.58 -103.036,39.7526666667,3589.93 -103.036,39.7526666667,3569.51 -103.0355,39.7532833333,3512.52 -103.0345833333,39.7545833333,3419.55 -103.0343333333,39.7546666667,3401.57 -103.0343333333,39.7546666667,3421.99 -103.03335,39.75655,3250.39 -103.033,39.757,3254.04 -103.0331666667,39.757,3233.62 -103.0324833333,39.7576833333,3175.41 -103.0317333333,39.7590333333,3087.32 -103.0313333333,39.7591666667,3070.25 -103.0315,39.7591666667,3090.67 -103.03025,39.7610166667,2921.51 -103.0301666667,39.7613333333,2925.78 -103.0301666667,39.7613333333,2904.74 -103.0293833333,39.7621666667,2844.39 -103.0283666667,39.76335,2749.3 -103.0281666667,39.7635,2728.57 -103.0281666667,39.7635,2750.21 -103.0274166667,39.7644833333,2667.3 -103.0267833333,39.7653,2568.24 -103.0266666667,39.7656666667,2550.57 -103.0265,39.7656666667,2571.6 -103.0255833333,39.7665166667,2490.22 -103.0248,39.76765,2398.17 -103.0245,39.7678333333,2397.56 -103.0243333333,39.7678333333,2378.35 -103.0229666667,39.7694833333,2227.17 -103.0228333333,39.77,2207.06 -103.0226666667,39.77,2227.17 -103.0211333333,39.7716333333,2062.28 -103.0206666667,39.772,2062.28 -103.0208333333,39.772,2042.16 -103.0191333333,39.7736833333,1894.33 -103.0188333333,39.7738333333,1897.08 -103.0188333333,39.7738333333,1875.13 -103.0182833333,39.77465,1819.35 -103.01685,39.7756833333,1724.25 -103.0165,39.7758333333,1704.44 -103.0166666667,39.7758333333,1727.3 -103.0153,39.7768166667,1648.36 -103.0139833333,39.7777166667,1552.35 -103.0136666667,39.7781666667,1530.71 -103.0136666667,39.7781666667,1553.57 -103.0121,39.7793666667,1480.11 -103.0108333333,39.7808333333,1422.2 -103.0107166667,39.781,1388.06</coordinates>
                    </LineString>
                </Placemark>
            </Folder>
            <Folder id="4">
                <Style id="43">
                    <IconStyle id="44">
                        <color>ff0000ff</color>
                        <colorMode>normal</colorMode>
                        <scale>1</scale>
                        <heading>0</heading>
                        <Icon id="45">
                            <href>https://maps.google.com/mapfiles/kml/shapes/placemark_circle.png</href>
                        </Icon>
                    </IconStyle>
                </Style>
                <Style id="48">
                    <IconStyle id="49">
                        <color>ff0000ff</color>
                        <colorMode>normal</colorMode>
                        <scale>1</scale>
                        <heading>0</heading>
                        <Icon id="50">
                            <href>https://maps.google.com/mapfiles/kml/shapes/placemark_circle.png</href>
                        </Icon>
                    </IconStyle>
                </Style>
                <Style id="53">
                    <IconStyle id="54">
                        <color>ff0000ff</color>
                        <colorMode>normal</colorMode>
                        <scale>1</scale>
                        <heading>0</heading>
                        <Icon id="55">
                            <href>https://maps.google.com/mapfiles/kml/shapes/placemark_circle.png</href>
                        </Icon>
                    </IconStyle>
                </Style>
                <Style id="58">
                    <IconStyle id="59">
                        <color>ff0000ff</color>
                        <colorMode>normal</colorMode>
                        <scale>1</scale>
                        <heading>0</heading>
                        <Icon id="60">
                            <href>https://maps.google.com/mapfiles/kml/shapes/placemark_circle.png</href>
                        </Icon>
                    </IconStyle>
                </Style>
                <Style id="63">
                    <IconStyle id="64">
                        <color>ff0000ff</color>
                        <colorMode>normal</colorMode>
                        <scale>1</scale>
                        <heading>0</heading>
                        <Icon id="65">
                            <href>https://maps.google.com/mapfiles/kml/shapes/placemark_circle.png</href>
                        </Icon>
                    </IconStyle>
                </Style>
                <Style id="68">
                    <IconStyle id="69">
                        <color>ff0000ff</color>
                        <colorMode>normal</colorMode>
                        <scale>1</scale>
                        <heading>0</heading>
                        <Icon id="70">
                            <href>https://maps.google.com/mapfiles/kml/shapes/placemark_circle.png</href>
                        </Icon>
                    </IconStyle>
                </Style>
                <Style id="73">
                    <IconStyle id="74">
                        <color>ff0000ff</color>
                        <colorMode>normal</colorMode>
                        <scale>1</scale>
                        <heading>0</heading>
                        <Icon id="75">
                            <href>https://maps.google.com/mapfiles/kml/shapes/placemark_circle.png</href>
                        </Icon>
                    </IconStyle>
                </Style>
                <Style id="78">
                    <IconStyle id="79">
                        <color>ff0000ff</color>
                        <colorMode>normal</colorMode>
                        <scale>1</scale>
                        <heading>0</heading>
                        <Icon id="80">
                            <href>https://maps.google.com/mapfiles/kml/shapes/placemark_circle.png</href>
                        </Icon>
                    </IconStyle>
                </Style>
                <Style id="83">
                    <IconStyle id="84">
                        <color>ff0000ff</color>
                        <colorMode>normal</colorMode>
                        <scale>1</scale>
                        <heading>0</heading>
                        <Icon id="85">
                            <href>https://maps.google.com/mapfiles/kml/shapes/placemark_circle.png</href>
                        </Icon>
                    </IconStyle>
                </Style>
                <Style id="88">
                    <IconStyle id="89">
                        <color>ff0000ff</color>
                        <colorMode>normal</colorMode>
                        <scale>1</scale>
                        <heading>0</heading>
                        <Icon id="90">
                            <href>https://maps.google.com/mapfiles/kml/shapes/placemark_circle.png</href>
                        </Icon>
                    </IconStyle>
                </Style>
                <Style id="93">
                    <IconStyle id="94">
                        <color>ffff0000</color>
                        <colorMode>normal</colorMode>
                        <scale>1</scale>
                        <heading>0</heading>
                        <Icon id="95">
                            <href>https://maps.google.com/mapfiles/kml/shapes/placemark_circle.png</href>
                        </Icon>
                    </IconStyle>
                </Style>
                <Style id="98">
                    <IconStyle id="99">
                        <color>ffff0000</color>
                        <colorMode>normal</colorMode>
                        <scale>1</scale>
                        <heading>0</heading>
                        <Icon id="100">
                            <href>https://maps.google.com/mapfiles/kml/shapes/placemark_circle.png</href>
                        </Icon>
                    </IconStyle>
                </Style>
                <Style id="103">
                    <IconStyle id="104">
                        <color>ffff0000</color>
                        <colorMode>normal</colorMode>
                        <scale>1</scale>
                        <heading>0</heading>
                        <Icon id="105">
                            <href>https://maps.google.com/mapfiles/kml/shapes/placemark_circle.png</href>
                        </Icon>
                    </IconStyle>
                </Style>
                <Style id="108">
                    <IconStyle id="109">
                        <color>ffff0000</color>
                        <colorMode>normal</colorMode>
                        <scale>1</scale>
                        <heading>0</heading>
                        <Icon id="110">
                            <href>https://maps.google.com/mapfiles/kml/shapes/placemark_circle.png</href>
                        </Icon>
                    </IconStyle>
                </Style>
                <Style id="113">
                    <IconStyle id="114">
                        <color>ffff0000</color>
                        <colorMode>normal</colorMode>
                        <scale>1</scale>
                        <heading>0</heading>
                        <Icon id="115">
                            <href>https://maps.google.com/mapfiles/kml/shapes/placemark_circle.png</href>
                        </Icon>
                    </IconStyle>
                </Style>
                <Style id="118">
                    <IconStyle id="119">
                        <color>ffff0000</color>
                        <colorMode>normal</colorMode>
                        <scale>1</scale>
                        <heading>0</heading>
                        <Icon id="120">
                            <href>https://maps.google.com/mapfiles/kml/shapes/placemark_circle.png</href>
                        </Icon>
                    </IconStyle>
                </Style>
                <Style id="123">
                    <IconStyle id="124">
                        <color>ffff0000</color>
                        <colorMode>normal</colorMode>
                        <scale>1</scale>
                        <heading>0</heading>
                        <Icon id="125">
                            <href>https://maps.google.com/mapfiles/kml/shapes/placemark_circle.png</href>
                        </Icon>
                    </IconStyle>
                </Style>
                <Style id="128">
                    <IconStyle id="129">
                        <color>ffff0000</color>
                        <colorMode>normal</colorMode>
                        <scale>1</scale>
                        <heading>0</heading>
                        <Icon id="130">
                            <href>https://maps.google.com/mapfiles/kml/shapes/placemark_circle.png</href>
                        </Icon>
                    </IconStyle>
                </Style>
                <Style id="133">
                    <IconStyle id="134">
                        <color>ffff0000</color>
                        <colorMode>normal</colorMode>
                        <scale>1</scale>
                        <heading>0</heading>
                        <Icon id="135">
                            <href>https://maps.google.com/mapfiles/kml/shapes/placemark_circle.png</href>
                        </Icon>
                    </IconStyle>
                </Style>
                <Style id="138">
                    <IconStyle id="139">
                        <color>ffff0000</color>
                        <colorMode>normal</colorMode>
                        <scale>1</scale>
                        <heading>0</heading>
                        <Icon id="140">
                            <href>https://maps.google.com/mapfiles/kml/shapes/placemark_circle.png</href>
                        </Icon>
                    </IconStyle>
                </Style>
                <name>Waypoints</name>
                <Placemark id="42">
                    <name>10k</name>
                    <description><![CDATA[
        <h1>Waypoint</h1>
        <table style="width: 100%;" cellpadding=0 cellspacing=0 border=0>
        <tr><td style="padding: 10px; border: solid 1px black;border-bottom: 0;"><strong>Local Time</strong></td><td style="border: solid 1px black;border-left: 0; border-bottom: 0; padding: 10px;">07:41:15</td></tr>
        <tr><td style="padding: 10px; border: solid 1px black;border-bottom: 0;"><strong>Altitude</strong></td><td style="border: solid 1px black;border-left: 0; border-bottom: 0; padding: 10px;">9,969ft (3,038.6m)</td></tr>
        <tr><td style="padding: 10px; border: solid 1px black;"><strong>Coordinates</strong></td><td style="border: solid 1px black; border-left: 0; padding: 10px;">39.62433333, -104.02066667</td></tr>
        </table>
        ]]></description>
                    <styleUrl>#43</styleUrl>
                    <Point id="41">
                        <coordinates>-104.0206666667,39.6243333333,3038.55</coordinates>
                        <altitudeMode>absolute</altitudeMode>
                    </Point>
                </Placemark>
                <Placemark id="47">
                    <name>20k</name>
                    <description><![CDATA[
        <h1>Waypoint</h1>
        <table style="width: 100%;" cellpadding=0 cellspacing=0 border=0>
        <tr><td style="padding: 10px; border: solid 1px black;border-bottom: 0;"><strong>Local Time</strong></td><td style="border: solid 1px black;border-left: 0; border-bottom: 0; padding: 10px;">07:48:15</td></tr>
        <tr><td style="padding: 10px; border: solid 1px black;border-bottom: 0;"><strong>Altitude</strong></td><td style="border: solid 1px black;border-left: 0; border-bottom: 0; padding: 10px;">20,103ft (6,127.4m)</td></tr>
        <tr><td style="padding: 10px; border: solid 1px black;"><strong>Coordinates</strong></td><td style="border: solid 1px black; border-left: 0; padding: 10px;">39.652, -103.971</td></tr>
        </table>
        ]]></description>
                    <styleUrl>#48</styleUrl>
                    <Point id="46">
                        <coordinates>-103.971,39.652,6127.39</coordinates>
                        <altitudeMode>absolute</altitudeMode>
                    </Point>
                </Placemark>
                <Placemark id="52">
                    <name>30k</name>
                    <description><![CDATA[
        <h1>Waypoint</h1>
        <table style="width: 100%;" cellpadding=0 cellspacing=0 border=0>
        <tr><td style="padding: 10px; border: solid 1px black;border-bottom: 0;"><strong>Local Time</strong></td><td style="border: solid 1px black;border-left: 0; border-bottom: 0; padding: 10px;">07:53:57</td></tr>
        <tr><td style="padding: 10px; border: solid 1px black;border-bottom: 0;"><strong>Altitude</strong></td><td style="border: solid 1px black;border-left: 0; border-bottom: 0; padding: 10px;">29,974ft (9,136.1m)</td></tr>
        <tr><td style="padding: 10px; border: solid 1px black;"><strong>Coordinates</strong></td><td style="border: solid 1px black; border-left: 0; padding: 10px;">39.67458333, -103.90115</td></tr>
        </table>
        ]]></description>
                    <styleUrl>#53</styleUrl>
                    <Point id="51">
                        <coordinates>-103.90115,39.6745833333,9136.08</coordinates>
                        <altitudeMode>absolute</altitudeMode>
                    </Point>
                </Placemark>
                <Placemark id="57">
                    <name>40k</name>
                    <description><![CDATA[
        <h1>Waypoint</h1>
        <table style="width: 100%;" cellpadding=0 cellspacing=0 border=0>
        <tr><td style="padding: 10px; border: solid 1px black;border-bottom: 0;"><strong>Local Time</strong></td><td style="border: solid 1px black;border-left: 0; border-bottom: 0; padding: 10px;">07:59:41</td></tr>
        <tr><td style="padding: 10px; border: solid 1px black;border-bottom: 0;"><strong>Altitude</strong></td><td style="border: solid 1px black;border-left: 0; border-bottom: 0; padding: 10px;">40,041ft (12,204.5m)</td></tr>
        <tr><td style="padding: 10px; border: solid 1px black;"><strong>Coordinates</strong></td><td style="border: solid 1px black; border-left: 0; padding: 10px;">39.68048333, -103.78595</td></tr>
        </table>
        ]]></description>
                    <styleUrl>#58</styleUrl>
                    <Point id="56">
                        <coordinates>-103.78595,39.6804833333,12204.5</coordinates>
                        <altitudeMode>absolute</altitudeMode>
                    </Point>
                </Placemark>
                <Placemark id="62">
                    <name>50k</name>
                    <description><![CDATA[
        <h1>Waypoint</h1>
        <table style="width: 100%;" cellpadding=0 cellspacing=0 border=0>
        <tr><td style="padding: 10px; border: solid 1px black;border-bottom: 0;"><strong>Local Time</strong></td><td style="border: solid 1px black;border-left: 0; border-bottom: 0; padding: 10px;">08:04:41</td></tr>
        <tr><td style="padding: 10px; border: solid 1px black;border-bottom: 0;"><strong>Altitude</strong></td><td style="border: solid 1px black;border-left: 0; border-bottom: 0; padding: 10px;">49,996ft (15,238.8m)</td></tr>
        <tr><td style="padding: 10px; border: solid 1px black;"><strong>Coordinates</strong></td><td style="border: solid 1px black; border-left: 0; padding: 10px;">39.68346667, -103.68131667</td></tr>
        </table>
        ]]></description>
                    <styleUrl>#63</styleUrl>
                    <Point id="61">
                        <coordinates>-103.6813166667,39.6834666667,15238.78</coordinates>
                        <altitudeMode>absolute</altitudeMode>
                    </Point>
                </Placemark>
                <Placemark id="67">
                    <name>60k</name>
                    <description><![CDATA[
        <h1>Waypoint</h1>
        <table style="width: 100%;" cellpadding=0 cellspacing=0 border=0>
        <tr><td style="padding: 10px; border: solid 1px black;border-bottom: 0;"><strong>Local Time</strong></td><td style="border: solid 1px black;border-left: 0; border-bottom: 0; padding: 10px;">08:09:41</td></tr>
        <tr><td style="padding: 10px; border: solid 1px black;border-bottom: 0;"><strong>Altitude</strong></td><td style="border: solid 1px black;border-left: 0; border-bottom: 0; padding: 10px;">60,231ft (18,358.4m)</td></tr>
        <tr><td style="padding: 10px; border: solid 1px black;"><strong>Coordinates</strong></td><td style="border: solid 1px black; border-left: 0; padding: 10px;">39.69258333, -103.61195</td></tr>
        </table>
        ]]></description>
                    <styleUrl>#68</styleUrl>
                    <Point id="66">
                        <coordinates>-103.61195,39.6925833333,18358.41</coordinates>
                        <altitudeMode>absolute</altitudeMode>
                    </Point>
                </Placemark>
                <Placemark id="72">
                    <name>70k</name>
                    <description><![CDATA[
        <h1>Waypoint</h1>
        <table style="width: 100%;" cellpadding=0 cellspacing=0 border=0>
        <tr><td style="padding: 10px; border: solid 1px black;border-bottom: 0;"><strong>Local Time</strong></td><td style="border: solid 1px black;border-left: 0; border-bottom: 0; padding: 10px;">08:14:27</td></tr>
        <tr><td style="padding: 10px; border: solid 1px black;border-bottom: 0;"><strong>Altitude</strong></td><td style="border: solid 1px black;border-left: 0; border-bottom: 0; padding: 10px;">69,756ft (21,261.6m)</td></tr>
        <tr><td style="padding: 10px; border: solid 1px black;"><strong>Coordinates</strong></td><td style="border: solid 1px black; border-left: 0; padding: 10px;">39.6915, -103.58311667</td></tr>
        </table>
        ]]></description>
                    <styleUrl>#73</styleUrl>
                    <Point id="71">
                        <coordinates>-103.5831166667,39.6915,21261.63</coordinates>
                        <altitudeMode>absolute</altitudeMode>
                    </Point>
                </Placemark>
                <Placemark id="77">
                    <name>80k</name>
                    <description><![CDATA[
        <h1>Waypoint</h1>
        <table style="width: 100%;" cellpadding=0 cellspacing=0 border=0>
        <tr><td style="padding: 10px; border: solid 1px black;border-bottom: 0;"><strong>Local Time</strong></td><td style="border: solid 1px black;border-left: 0; border-bottom: 0; padding: 10px;">08:20:41</td></tr>
        <tr><td style="padding: 10px; border: solid 1px black;border-bottom: 0;"><strong>Altitude</strong></td><td style="border: solid 1px black;border-left: 0; border-bottom: 0; padding: 10px;">80,059ft (24,402.0m)</td></tr>
        <tr><td style="padding: 10px; border: solid 1px black;"><strong>Coordinates</strong></td><td style="border: solid 1px black; border-left: 0; padding: 10px;">39.68908333, -103.56228333</td></tr>
        </table>
        ]]></description>
                    <styleUrl>#78</styleUrl>
                    <Point id="76">
                        <coordinates>-103.5622833333,39.6890833333,24401.98</coordinates>
                        <altitudeMode>absolute</altitudeMode>
                    </Point>
                </Placemark>
                <Placemark id="82">
                    <name>90k</name>
                    <description><![CDATA[
        <h1>Waypoint</h1>
        <table style="width: 100%;" cellpadding=0 cellspacing=0 border=0>
        <tr><td style="padding: 10px; border: solid 1px black;border-bottom: 0;"><strong>Local Time</strong></td><td style="border: solid 1px black;border-left: 0; border-bottom: 0; padding: 10px;">08:26:57</td></tr>
        <tr><td style="padding: 10px; border: solid 1px black;border-bottom: 0;"><strong>Altitude</strong></td><td style="border: solid 1px black;border-left: 0; border-bottom: 0; padding: 10px;">89,828ft (27,379.6m)</td></tr>
        <tr><td style="padding: 10px; border: solid 1px black;"><strong>Coordinates</strong></td><td style="border: solid 1px black; border-left: 0; padding: 10px;">39.68151667, -103.53831667</td></tr>
        </table>
        ]]></description>
                    <styleUrl>#83</styleUrl>
                    <Point id="81">
                        <coordinates>-103.5383166667,39.6815166667,27379.57</coordinates>
                        <altitudeMode>absolute</altitudeMode>
                    </Point>
                </Placemark>
                <Placemark id="87">
                    <name>100k</name>
                    <description><![CDATA[
        <h1>Waypoint</h1>
        <table style="width: 100%;" cellpadding=0 cellspacing=0 border=0>
        <tr><td style="padding: 10px; border: solid 1px black;border-bottom: 0;"><strong>Local Time</strong></td><td style="border: solid 1px black;border-left: 0; border-bottom: 0; padding: 10px;">08:33:15</td></tr>
        <tr><td style="padding: 10px; border: solid 1px black;border-bottom: 0;"><strong>Altitude</strong></td><td style="border: solid 1px black;border-left: 0; border-bottom: 0; padding: 10px;">99,841ft (30,431.5m)</td></tr>
        <tr><td style="padding: 10px; border: solid 1px black;"><strong>Coordinates</strong></td><td style="border: solid 1px black; border-left: 0; padding: 10px;">39.6825, -103.48266667</td></tr>
        </table>
        ]]></description>
                    <styleUrl>#88</styleUrl>
                    <Point id="86">
                        <coordinates>-103.4826666667,39.6825,30431.54</coordinates>
                        <altitudeMode>absolute</altitudeMode>
                    </Point>
                </Placemark>
                <Placemark id="92">
                    <name>10k</name>
                    <description><![CDATA[
        <h1>Waypoint</h1>
        <table style="width: 100%;" cellpadding=0 cellspacing=0 border=0>
        <tr><td style="padding: 10px; border: solid 1px black;border-bottom: 0;"><strong>Local Time</strong></td><td style="border: solid 1px black;border-left: 0; border-bottom: 0; padding: 10px;">09:11:15</td></tr>
        <tr><td style="padding: 10px; border: solid 1px black;border-bottom: 0;"><strong>Altitude</strong></td><td style="border: solid 1px black;border-left: 0; border-bottom: 0; padding: 10px;">10,073ft (3,070.2m)</td></tr>
        <tr><td style="padding: 10px; border: solid 1px black;"><strong>Coordinates</strong></td><td style="border: solid 1px black; border-left: 0; padding: 10px;">39.75916667, -103.03133333</td></tr>
        </table>
        ]]></description>
                    <styleUrl>#93</styleUrl>
                    <Point id="91">
                        <coordinates>-103.0313333333,39.7591666667,3070.25</coordinates>
                        <altitudeMode>absolute</altitudeMode>
                    </Point>
                </Placemark>
                <Placemark id="97">
                    <name>20k</name>
                    <description><![CDATA[
        <h1>Waypoint</h1>
        <table style="width: 100%;" cellpadding=0 cellspacing=0 border=0>
        <tr><td style="padding: 10px; border: solid 1px black;border-bottom: 0;"><strong>Local Time</strong></td><td style="border: solid 1px black;border-left: 0; border-bottom: 0; padding: 10px;">09:02:57</td></tr>
        <tr><td style="padding: 10px; border: solid 1px black;border-bottom: 0;"><strong>Altitude</strong></td><td style="border: solid 1px black;border-left: 0; border-bottom: 0; padding: 10px;">19,875ft (6,057.9m)</td></tr>
        <tr><td style="padding: 10px; border: solid 1px black;"><strong>Coordinates</strong></td><td style="border: solid 1px black; border-left: 0; padding: 10px;">39.71961667, -103.07275</td></tr>
        </table>
        ]]></description>
                    <styleUrl>#98</styleUrl>
                    <Point id="96">
                        <coordinates>-103.07275,39.7196166667,6057.9</coordinates>
                        <altitudeMode>absolute</altitudeMode>
                    </Point>
                </Placemark>
                <Placemark id="102">
                    <name>30k</name>
                    <description><![CDATA[
        <h1>Waypoint</h1>
        <table style="width: 100%;" cellpadding=0 cellspacing=0 border=0>
        <tr><td style="padding: 10px; border: solid 1px black;border-bottom: 0;"><strong>Local Time</strong></td><td style="border: solid 1px black;border-left: 0; border-bottom: 0; padding: 10px;">08:56:11</td></tr>
        <tr><td style="padding: 10px; border: solid 1px black;border-bottom: 0;"><strong>Altitude</strong></td><td style="border: solid 1px black;border-left: 0; border-bottom: 0; padding: 10px;">29,991ft (9,141.3m)</td></tr>
        <tr><td style="padding: 10px; border: solid 1px black;"><strong>Coordinates</strong></td><td style="border: solid 1px black; border-left: 0; padding: 10px;">39.69608333, -103.15555</td></tr>
        </table>
        ]]></description>
                    <styleUrl>#103</styleUrl>
                    <Point id="101">
                        <coordinates>-103.15555,39.6960833333,9141.26</coordinates>
                        <altitudeMode>absolute</altitudeMode>
                    </Point>
                </Placemark>
                <Placemark id="107">
                    <name>40k</name>
                    <description><![CDATA[
        <h1>Waypoint</h1>
        <table style="width: 100%;" cellpadding=0 cellspacing=0 border=0>
        <tr><td style="padding: 10px; border: solid 1px black;border-bottom: 0;"><strong>Local Time</strong></td><td style="border: solid 1px black;border-left: 0; border-bottom: 0; padding: 10px;">08:50:41</td></tr>
        <tr><td style="padding: 10px; border: solid 1px black;border-bottom: 0;"><strong>Altitude</strong></td><td style="border: solid 1px black;border-left: 0; border-bottom: 0; padding: 10px;">40,035ft (12,202.7m)</td></tr>
        <tr><td style="padding: 10px; border: solid 1px black;"><strong>Coordinates</strong></td><td style="border: solid 1px black; border-left: 0; padding: 10px;">39.6948, -103.25826667</td></tr>
        </table>
        ]]></description>
                    <styleUrl>#108</styleUrl>
                    <Point id="106">
                        <coordinates>-103.2582666667,39.6948,12202.67</coordinates>
                        <altitudeMode>absolute</altitudeMode>
                    </Point>
                </Placemark>
                <Placemark id="112">
                    <name>50k</name>
                    <description><![CDATA[
        <h1>Waypoint</h1>
        <table style="width: 100%;" cellpadding=0 cellspacing=0 border=0>
        <tr><td style="padding: 10px; border: solid 1px black;border-bottom: 0;"><strong>Local Time</strong></td><td style="border: solid 1px black;border-left: 0; border-bottom: 0; padding: 10px;">08:46:45</td></tr>
        <tr><td style="padding: 10px; border: solid 1px black;border-bottom: 0;"><strong>Altitude</strong></td><td style="border: solid 1px black;border-left: 0; border-bottom: 0; padding: 10px;">50,406ft (15,363.8m)</td></tr>
        <tr><td style="padding: 10px; border: solid 1px black;"><strong>Coordinates</strong></td><td style="border: solid 1px black; border-left: 0; padding: 10px;">39.69266667, -103.33883333</td></tr>
        </table>
        ]]></description>
                    <styleUrl>#113</styleUrl>
                    <Point id="111">
                        <coordinates>-103.3388333333,39.6926666667,15363.75</coordinates>
                        <altitudeMode>absolute</altitudeMode>
                    </Point>
                </Placemark>
                <Placemark id="117">
                    <name>60k</name>
                    <description><![CDATA[
        <h1>Waypoint</h1>
        <table style="width: 100%;" cellpadding=0 cellspacing=0 border=0>
        <tr><td style="padding: 10px; border: solid 1px black;border-bottom: 0;"><strong>Local Time</strong></td><td style="border: solid 1px black;border-left: 0; border-bottom: 0; padding: 10px;">08:43:57</td></tr>
        <tr><td style="padding: 10px; border: solid 1px black;border-bottom: 0;"><strong>Altitude</strong></td><td style="border: solid 1px black;border-left: 0; border-bottom: 0; padding: 10px;">60,185ft (18,344.4m)</td></tr>
        <tr><td style="padding: 10px; border: solid 1px black;"><strong>Coordinates</strong></td><td style="border: solid 1px black; border-left: 0; padding: 10px;">39.68648333, -103.38138333</td></tr>
        </table>
        ]]></description>
                    <styleUrl>#118</styleUrl>
                    <Point id="116">
                        <coordinates>-103.3813833333,39.6864833333,18344.39</coordinates>
                        <altitudeMode>absolute</altitudeMode>
                    </Point>
                </Placemark>
                <Placemark id="122">
                    <name>71k</name>
                    <description><![CDATA[
        <h1>Waypoint</h1>
        <table style="width: 100%;" cellpadding=0 cellspacing=0 border=0>
        <tr><td style="padding: 10px; border: solid 1px black;border-bottom: 0;"><strong>Local Time</strong></td><td style="border: solid 1px black;border-left: 0; border-bottom: 0; padding: 10px;">08:41:27</td></tr>
        <tr><td style="padding: 10px; border: solid 1px black;border-bottom: 0;"><strong>Altitude</strong></td><td style="border: solid 1px black;border-left: 0; border-bottom: 0; padding: 10px;">70,606ft (21,520.7m)</td></tr>
        <tr><td style="padding: 10px; border: solid 1px black;"><strong>Coordinates</strong></td><td style="border: solid 1px black; border-left: 0; padding: 10px;">39.6862, -103.39468333</td></tr>
        </table>
        ]]></description>
                    <styleUrl>#123</styleUrl>
                    <Point id="121">
                        <coordinates>-103.3946833333,39.6862,21520.71</coordinates>
                        <altitudeMode>absolute</altitudeMode>
                    </Point>
                </Placemark>
                <Placemark id="127">
                    <name>80k</name>
                    <description><![CDATA[
        <h1>Waypoint</h1>
        <table style="width: 100%;" cellpadding=0 cellspacing=0 border=0>
        <tr><td style="padding: 10px; border: solid 1px black;border-bottom: 0;"><strong>Local Time</strong></td><td style="border: solid 1px black;border-left: 0; border-bottom: 0; padding: 10px;">08:39:41</td></tr>
        <tr><td style="padding: 10px; border: solid 1px black;border-bottom: 0;"><strong>Altitude</strong></td><td style="border: solid 1px black;border-left: 0; border-bottom: 0; padding: 10px;">79,738ft (24,304.1m)</td></tr>
        <tr><td style="padding: 10px; border: solid 1px black;"><strong>Coordinates</strong></td><td style="border: solid 1px black; border-left: 0; padding: 10px;">39.68695, -103.39743333</td></tr>
        </table>
        ]]></description>
                    <styleUrl>#128</styleUrl>
                    <Point id="126">
                        <coordinates>-103.3974333333,39.68695,24304.14</coordinates>
                        <altitudeMode>absolute</altitudeMode>
                    </Point>
                </Placemark>
                <Placemark id="132">
                    <name>90k</name>
                    <description><![CDATA[
        <h1>Waypoint</h1>
        <table style="width: 100%;" cellpadding=0 cellspacing=0 border=0>
        <tr><td style="padding: 10px; border: solid 1px black;border-bottom: 0;"><strong>Local Time</strong></td><td style="border: solid 1px black;border-left: 0; border-bottom: 0; padding: 10px;">08:38:11</td></tr>
        <tr><td style="padding: 10px; border: solid 1px black;border-bottom: 0;"><strong>Altitude</strong></td><td style="border: solid 1px black;border-left: 0; border-bottom: 0; padding: 10px;">89,621ft (27,316.5m)</td></tr>
        <tr><td style="padding: 10px; border: solid 1px black;"><strong>Coordinates</strong></td><td style="border: solid 1px black; border-left: 0; padding: 10px;">39.68976667, -103.40415</td></tr>
        </table>
        ]]></description>
                    <styleUrl>#133</styleUrl>
                    <Point id="131">
                        <coordinates>-103.40415,39.6897666667,27316.48</coordinates>
                        <altitudeMode>absolute</altitudeMode>
                    </Point>
                </Placemark>
                <Placemark id="137">
                    <name>98k</name>
                    <description><![CDATA[
        <h1>Waypoint</h1>
        <table style="width: 100%;" cellpadding=0 cellspacing=0 border=0>
        <tr><td style="padding: 10px; border: solid 1px black;border-bottom: 0;"><strong>Local Time</strong></td><td style="border: solid 1px black;border-left: 0; border-bottom: 0; padding: 10px;">08:37:11</td></tr>
        <tr><td style="padding: 10px; border: solid 1px black;border-bottom: 0;"><strong>Altitude</strong></td><td style="border: solid 1px black;border-left: 0; border-bottom: 0; padding: 10px;">97,952ft (29,855.8m)</td></tr>
        <tr><td style="padding: 10px; border: solid 1px black;"><strong>Coordinates</strong></td><td style="border: solid 1px black; border-left: 0; padding: 10px;">39.68738333, -103.41291667</td></tr>
        </table>
        ]]></description>
                    <styleUrl>#138</styleUrl>
                    <Point id="136">
                        <coordinates>-103.4129166667,39.6873833333,29855.77</coordinates>
                        <altitudeMode>absolute</altitudeMode>
                    </Point>
                </Placemark>
            </Folder>
            <Folder id="5">
                <Style id="16">
                    <IconStyle id="17">
                        <color>ff008cff</color>
                        <colorMode>normal</colorMode>
                        <scale>1</scale>
                        <heading>0</heading>
                        <Icon id="18">
                            <href>https://maps.google.com/mapfiles/kml/shapes/placemark_circle.png</href>
                        </Icon>
                    </IconStyle>
                </Style>
                <Style id="21">
                    <IconStyle id="22">
                        <color>ff008cff</color>
                        <colorMode>normal</colorMode>
                        <scale>1</scale>
                        <heading>0</heading>
                        <Icon id="23">
                            <href>https://maps.google.com/mapfiles/kml/shapes/placemark_circle.png</href>
                        </Icon>
                    </IconStyle>
                </Style>
                <Style id="26">
                    <IconStyle id="27">
                        <color>ff00ffff</color>
                        <colorMode>normal</colorMode>
                        <scale>1</scale>
                        <heading>0</heading>
                        <Icon id="28">
                            <href>https://maps.google.com/mapfiles/kml/shapes/placemark_circle.png</href>
                        </Icon>
                    </IconStyle>
                </Style>
                <Style id="31">
                    <IconStyle id="32">
                        <color>ff006400</color>
                        <colorMode>normal</colorMode>
                        <scale>1</scale>
                        <heading>0</heading>
                        <Icon id="33">
                            <href>https://maps.google.com/mapfiles/kml/shapes/placemark_circle.png</href>
                        </Icon>
                    </IconStyle>
                    <LabelStyle id="34">
                        <color>ff006400</color>
                        <colorMode>normal</colorMode>
                        <scale>1</scale>
                    </LabelStyle>
                </Style>
                <Style id="37">
                    <IconStyle id="38">
                        <color>ff006400</color>
                        <colorMode>normal</colorMode>
                        <scale>1</scale>
                        <heading>0</heading>
                        <Icon id="39">
                            <href>https://maps.google.com/mapfiles/kml/shapes/placemark_circle.png</href>
                        </Icon>
                    </IconStyle>
                    <LabelStyle id="40">
                        <color>ff006400</color>
                        <colorMode>normal</colorMode>
                        <scale>1</scale>
                    </LabelStyle>
                </Style>
                <name>Points of Interest</name>
                <Placemark id="15">
                    <name>Launch</name>
                    <description><![CDATA[
    <h1>Launch</h1>
    <table style="width: 100%;" cellpadding=0 cellspacing=0 border=0>
    <tr><td style="padding: 10px; border: solid 1px black;border-bottom: 0;"><strong>Local Time</strong></td><td style="border: solid 1px black;border-bottom: 0; border-left: 0; padding: 10px;">07:37:57</td></tr>
    <tr><td style="padding: 10px; border: solid 1px black;border-bottom: 0;"><strong>Altitude</strong></td><td style="border: solid 1px black;border-left: 0; border-bottom: 0; padding: 10px;">5,257ft (1,602.3m)</td></tr>
    <tr><td style="padding: 10px; border: solid 1px black;"><strong>Coordinates</strong></td><td style="border: solid 1px black; border-left: 0; padding: 10px;">39.60848333, -104.04043333</td></tr>
    </table>
    ]]></description>
                    <styleUrl>#16</styleUrl>
                    <Point id="14">
                        <coordinates>-104.0404333333,39.6084833333,1602.33</coordinates>
                        <altitudeMode>absolute</altitudeMode>
                    </Point>
                </Placemark>
                <Placemark id="20">
                    <name>Landing</name>
                    <description><![CDATA[
    <h1>Landing</h1>
    <table style="width: 100%;" cellpadding=0 cellspacing=0 border=0>
    <tr><td style="padding: 10px; border: solid 1px black;border-bottom: 0;"><strong>Local Time</strong></td><td style="border: solid 1px black;border-left: 0; border-bottom: 0; padding: 10px;">09:17:41</td></tr>
    <tr><td style="padding: 10px; border: solid 1px black;border-bottom: 0;"><strong>Altitude</strong></td><td style="border: solid 1px black;border-bottom: 0; border-left: 0; padding: 10px;">4,554ft (1,388.1m)</td></tr>
    <tr><td style="padding: 10px; border: solid 1px black;"><strong>Coordinates</strong></td><td style="border: solid 1px black; border-left: 0; padding: 10px;">39.781, -103.01071667</td></tr>
    </table>
    ]]></description>
                    <styleUrl>#21</styleUrl>
                    <Point id="19">
                        <coordinates>-103.0107166667,39.781,1388.06</coordinates>
                        <altitudeMode>absolute</altitudeMode>
                    </Point>
                </Placemark>
                <Placemark id="25">
                    <name>Burst 104,708ft</name>
                    <description><![CDATA[
    <h1>Burst: 104,708ft</h1>
    <table style="width: 100%;" cellpadding=0 cellspacing=0 border=0>
    <tr><td style="padding: 10px; border: solid 1px black;border-bottom: 0;"><strong>Local Time</strong></td><td style="border: solid 1px black;border-left: 0; border-bottom: 0; padding: 10px;">08:36:27</td></tr>
    <tr><td style="padding: 10px; border: solid 1px black;border-bottom: 0;"><strong>Altitude</strong></td><td style="border: solid 1px black;border-left: 0; border-bottom: 0; padding: 10px;">104,708ft (31,915.0m)</td></tr>
    <tr><td style="padding: 10px; border: solid 1px black;"><strong>Coordinates</strong></td><td style="border: solid 1px black; border-left: 0; padding: 10px;">39.68671667, -103.42495</td></tr>
    </table>
    ]]></description>
                    <styleUrl>#26</styleUrl>
                    <Point id="24">
                        <coordinates>-103.42495,39.6867166667,31915.0</coordinates>
                        <altitudeMode>absolute</altitudeMode>
                    </Point>
                </Placemark>
                <Placemark id="30">
                    <name>21k, Laminar-to-Turbulent</name>
                    <description><![CDATA[
        <h1>Airflow Transitioning from Laminar-to-Turbulent</h1>
        <table style="width: 100%;" cellpadding=0 cellspacing=0 border=0>
        <tr><td style="padding: 10px; border: solid 1px black;border-bottom: 0;"><strong>Local Time</strong></td><td style="border: solid 1px black;border-left: 0; border-bottom: 0; padding: 10px;">07:48:57</td></tr>
        <tr><td style="padding: 10px; border: solid 1px black;border-bottom: 0;"><strong>Altitude</strong></td><td style="border: solid 1px black;border-left: 0; border-bottom: 0; padding: 10px;">21,272ft (6,483.7m)</td></tr>
        <tr><td style="padding: 10px; border: solid 1px black;"><strong>Coordinates</strong></td><td style="border: solid 1px black; border-left: 0; padding: 10px;">39.65513333, -103.9641</td></tr>
        </table>
        ]]></description>
                    <styleUrl>#31</styleUrl>
                    <Point id="29">
                        <coordinates>-103.9641,39.6551333333,6483.71</coordinates>
                        <altitudeMode>absolute</altitudeMode>
                    </Point>
                </Placemark>
                <Placemark id="36">
                    <name>74k, Turbulent-to-Laminar</name>
                    <description><![CDATA[
        <h1>Airflow Transitioning from Turbulent-to-Laminar</h1>
        <table style="width: 100%;" cellpadding=0 cellspacing=0 border=0>
        <tr><td style="padding: 10px; border: solid 1px black;border-bottom: 0;"><strong>Local Time</strong></td><td style="border: solid 1px black;border-left: 0; border-bottom: 0; padding: 10px;">08:16:45</td></tr>
        <tr><td style="padding: 10px; border: solid 1px black;border-bottom: 0;"><strong>Altitude</strong></td><td style="border: solid 1px black;border-left: 0; border-bottom: 0; padding: 10px;">74,152ft (22,601.5m)</td></tr>
        <tr><td style="padding: 10px; border: solid 1px black;"><strong>Coordinates</strong></td><td style="border: solid 1px black; border-left: 0; padding: 10px;">39.69483333, -103.57633333</td></tr>
        </table>
        ]]></description>
                    <styleUrl>#37</styleUrl>
                    <Point id="35">
                        <coordinates>-103.5763333333,39.6948333333,22601.53</coordinates>
                        <altitudeMode>absolute</altitudeMode>
                    </Point>
                </Placemark>
            </Folder>
        </Document>
    </Document>
</kml>
