<?xml version="1.0" encoding="UTF-8"?>
<kml xmlns="http://www.opengis.net/kml/2.2" xmlns:gx="http://www.google.com/kml/ext/2.2">
    <Document id="1">
        <Document id="2">
            <name>EOSS-303</name>
            <description><![CDATA[
    <h1>EOSS-303</h1>
    <table style="width: 100%;" cellpadding=0 cellspacing=0 border=0>
    <tr><td style="border: solid 1px black;border-bottom: 0; padding: 10px;"><strong>Launch Local Date/Time</strong></td><td style=" padding: 10px;border: solid 1px black;border-bottom: 0; border-left: 0;">2020-11-01 06:56:52</td></tr>
    <tr><td style="border: solid 1px black;border-bottom: 0; padding: 10px;"><strong>Flight Duration</strong></td><td style=" padding: 10px;border: solid 1px black;border-bottom: 0; border-left: 0; ">1hrs 57mins 23secs</td></tr>
    <tr><td style="border: solid 1px black;border-bottom: 0; padding: 10px;"><strong>Down Range Distance</strong></td><td style=" padding: 10px;border: solid 1px black;border-bottom: 0; border-left: 0; ">63.6mi (102.3km)</td></tr>
    <tr><td style="border: solid 1px black; padding: 10px;"><strong>Approx. Burst Altitude</strong></td><td style=" padding: 10px;border: solid 1px black; border-left: 0; ">100,372ft (30,593.4m)</td></tr>
    </table>
    ]]></description>
            <Folder id="3">
                <Style id="8">
                    <LineStyle id="9">
                        <color>ff0000ff</color>
                        <colorMode>normal</colorMode>
                        <width>3</width>
                    </LineStyle>
                </Style>
                <Style id="12">
                    <LineStyle id="13">
                        <color>ffff0000</color>
                        <colorMode>normal</colorMode>
                        <width>3</width>
                    </LineStyle>
                </Style>
                <name>Paths</name>
                <Placemark id="7">
                    <name>EOSS-303 Ascent</name>
                    <styleUrl>#8</styleUrl>
                    <LineString id="6">
                        <extrude>0</extrude>
                        <altitudeMode>absolute</altitudeMode>
                        <coordinates>-104.07695,40.2257666667,1390.19 -104.0761666667,40.2258333333,1436.22 -104.0754166667,40.2260333333,1562.4 -104.07505,40.22605,1550.21 -104.0745,40.2261666667,1620.93 -104.0734666667,40.2264166667,1748.94 -104.0721666667,40.2268333333,1812.95 -104.0711666667,40.2271833333,1941.58 -104.0709333333,40.2272333333,1930.3 -104.0705,40.2273333333,2005.89 -104.0696333333,40.22755,2135.43 -104.0694166667,40.22755,2120.19 -104.0685,40.2275,2195.47 -104.0671,40.2275,2335.38 -104.0668666667,40.2275,2314.35 -104.0658333333,40.2273333333,2404.26 -104.06485,40.2274833333,2539.59 -104.0647666667,40.2275166667,2511.25 -104.0638333333,40.2273333333,2607.26 -104.06275,40.2269166667,2732.23 -104.0624333333,40.2267666667,2721.25 -104.0613333333,40.2261666667,2792.27 -104.0599833333,40.2255,2915.11 -104.0581666667,40.2243333333,2981.55 -104.0562166667,40.223,3118.1 -104.0559333333,40.22285,3091.28 -104.0538333333,40.2213333333,3190.95 -104.0517,40.2196,3333.6 -104.0515,40.2195,3297.33 -104.0496666667,40.2176666667,3406.14 -104.0477666667,40.2159833333,3507.33 -104.04785,40.2159666667,3547.87 -104.046,40.2143333333,3607.31 -104.0446166667,40.2127,3701.49 -104.04455,40.2126666667,3748.43 -104.0414833333,40.2097666667,3943.5 -104.0396666667,40.2083333333,4001.11 -104.0381666667,40.2073833333,4068.47 -104.03785,40.2071,4128.52 -104.0358333333,40.2056666667,4189.78 -104.0343833333,40.20455,4243.43 -104.0338833333,40.2041166667,4318.71 -104.0316666667,40.2023333333,4382.41 -104.0301166667,40.20135,4439.41 -104.0294,40.2008333333,4517.44 -104.027,40.1993333333,4585.72 -104.0256666667,40.19845,4643.63 -104.02465,40.1978333333,4723.49 -104.022,40.1963333333,4786.27 -104.0204166667,40.1954666667,4845.71 -104.0190833333,40.19485,4931.97 -104.0161666667,40.1933333333,5005.73 -104.0132666667,40.1918666667,5144.11 -104.0103333333,40.19,5220.0 -104.0091666667,40.1895833333,5255.67 -104.00745,40.1886666667,5361.74 -104.0043333333,40.1871666667,5439.46 -104.0035,40.1868333333,5469.64 -104.0015833333,40.1857333333,5585.76 -103.9986666667,40.184,5664.71 -103.9978833333,40.1835833333,5685.74 -103.9959,40.1822666667,5807.96 -103.9926666667,40.1805,5887.21 -103.9921833333,40.1800833333,5903.67 -103.98975,40.1787333333,6033.21 -103.9866666667,40.177,6111.24 -103.98335,40.17495,6259.37 -103.9796666667,40.173,6339.54 -103.9795333333,40.1728666667,6343.8 -103.9763833333,40.1713166667,6485.84 -103.97325,40.1697,6565.7 -103.9731666667,40.1696666667,6568.44 -103.9700666667,40.1677833333,6713.52 -103.9668333333,40.166,6792.47 -103.9638333333,40.1641,6943.34 -103.9613666667,40.1625333333,7001.87 -103.961,40.1623333333,7019.54 -103.9579166667,40.1605833333,7164.32 -103.9555166667,40.1594666667,7217.05 -103.9548333333,40.159,7242.66 -103.9524833333,40.1575166667,7386.22 -103.9501666667,40.156,7457.24 -103.9478,40.1545333333,7610.25 -103.9463,40.1535,7655.05 -103.9455,40.153,7697.42 -103.9431333333,40.1513833333,7842.5 -103.9416666667,40.1504333333,7875.12 -103.9406666667,40.1498333333,7919.92 -103.9384666667,40.1481166667,8068.06 -103.9372833333,40.1474,8093.96 -103.9363333333,40.1465,8150.35 -103.9342666667,40.14525,8300.31 -103.93305,40.1445166667,8318.91 -103.9316666667,40.1436666667,8380.78 -103.92975,40.1420666667,8528.0 -103.9273333333,40.14,8612.73 -103.9251333333,40.1383666667,8759.04 -103.9228333333,40.1368333333,8838.29 -103.9206833333,40.1351333333,8985.81 -103.9200666667,40.13465,8981.24 -103.9183333333,40.1333333333,9062.92 -103.9164333333,40.1315833333,9206.18 -103.9160666667,40.13135,9190.02 -103.9145,40.1298333333,9287.87 -103.9126666667,40.1281166667,9440.27 -103.9124,40.1278666667,9415.27 -103.9103333333,40.1265,9521.04 -103.9087833333,40.1247166667,9666.73 -103.9049666667,40.1211833333,9919.11 -103.90505,40.1212166667,9885.27 -103.903,40.1188333333,10016.95 -103.9018333333,40.1168333333,10128.2 -103.9016666667,40.1166333333,10169.96 -103.8998333333,40.1141666667,10272.67 -103.89885,40.1121166667,10371.43 -103.8986833333,40.11175,10422.03 -103.8971666667,40.1091666667,10509.2 -103.8958333333,40.1067833333,10676.53 -103.8938333333,40.1041666667,10769.19 -103.8928833333,40.1023166667,10862.46 -103.89245,40.10175,10927.69 -103.8908333333,40.0991666667,11004.5 -103.8895166667,40.0976833333,11083.44 -103.88895,40.0967166667,11158.73 -103.887,40.0945,11249.86 -103.8852833333,40.0936833333,11320.27 -103.88385,40.09315,11402.26 -103.8808333333,40.0915,11492.79 -103.8772666667,40.09015,11654.33 -103.8696,40.0876166667,11879.88 -103.8658333333,40.086,11961.88 -103.86195,40.0848166667,12097.51 -103.8576666667,40.0835,12173.71 -103.8564,40.0831166667,12206.63 -103.8537,40.0823833333,12312.4 -103.8485,40.0806666667,12374.27 -103.8470666667,40.0803666667,12392.56 -103.8431833333,40.0791833333,12512.34 -103.8376666667,40.0773333333,12594.03 -103.8368166667,40.07695,12607.44 -103.8329166667,40.0758,12727.53 -103.828,40.0738333333,12800.69 -103.8273166667,40.0736333333,12811.66 -103.8235,40.07185,12943.33 -103.8191666667,40.0696666667,13038.43 -103.81895,40.0697,13044.53 -103.81495,40.06785,13185.04 -103.8110166667,40.0662833333,13271.6 -103.811,40.0661666667,13272.21 -103.8077833333,40.0643833333,13397.18 -103.8045833333,40.0625666667,13489.84 -103.8041666667,40.0623333333,13502.94 -103.8008166667,40.0606666667,13671.19 -103.7976666667,40.0588333333,13745.57 -103.7945833333,40.0580833333,13897.05 -103.79145,40.0573166667,13950.7 -103.7905,40.0571666667,13975.99 -103.78635,40.05615,14114.37 -103.7835,40.0555333333,14148.82 -103.7823333333,40.0553333333,14188.74 -103.7782166667,40.0546833333,14351.2 -103.7754333333,40.0542666667,14413.69 -103.7738333333,40.0536666667,14464.89 -103.7702333333,40.0523666667,14595.35 -103.7680166667,40.0516166667,14623.69 -103.7663333333,40.0511666667,14675.82 -103.7626333333,40.0498166667,14816.63 -103.7611,40.0489166667,14837.97 -103.7596666667,40.0478333333,14887.35 -103.7567,40.0455,15026.34 -103.7555666667,40.0444,15047.98 -103.7545,40.0433333333,15090.95 -103.7525166667,40.04095,15234.82 -103.7516833333,40.0399333333,15262.86 -103.7503333333,40.039,15351.25 -103.7480333333,40.03795,15521.94 -103.7470333333,40.0378,15515.84 -103.7448333333,40.0373333333,15588.08 -103.7413333333,40.03615,15731.34 -103.7376666667,40.0345,15835.58 -103.7346833333,40.03255,15976.09 -103.7341833333,40.0322333333,15959.02 -103.732,40.0306666667,16015.41 -103.7293333333,40.0292166667,16105.63 -103.726,40.0276666667,16129.71 -103.7232833333,40.0266166667,16265.04 -103.7230166667,40.0265666667,16237.92 -103.7198333333,40.0255,16381.17 -103.7163333333,40.0241,16486.94 -103.7163166667,40.0240333333,16453.1 -103.7126666667,40.023,16522.9 -103.7089333333,40.0218833333,16619.83 -103.7051666667,40.0206666667,16652.75 -103.7024166667,40.0196,16730.17 -103.7022,40.0194666667,16777.72 -103.6996666667,40.0183333333,16834.1 -103.6976166667,40.0172,16901.16 -103.6971,40.0169833333,16944.75 -103.6941666667,40.0151666667,16997.17 -103.6921166667,40.0138833333,17042.28 -103.6914333333,40.0135166667,17105.68 -103.689,40.0116666667,17142.56 -103.6871333333,40.0101666667,17242.54 -103.6851666667,40.0085,17272.71 -103.6838833333,40.0072,17318.13 -103.6831,40.0064166667,17376.65 -103.6813333333,40.0043333333,17404.08 -103.6801333333,40.003,17439.13 -103.6792666667,40.00185,17503.75 -103.6778333333,39.9993333333,17539.11 -103.6771833333,39.9984166667,17573.24 -103.67655,39.9974166667,17640.6 -103.6755,39.9953333333,17712.54 -103.67365,39.9942,17892.06 -103.6708333333,39.993,18009.11 -103.6675833333,39.99175,18216.07 -103.6648333333,39.9898333333,18301.41 -103.66465,39.9895333333,18318.18 -103.6629666667,39.9885166667,18404.74 -103.6596666667,39.9853,18554.7 -103.6581666667,39.9841666667,18631.51 -103.6580666667,39.9841333333,18650.41 -103.6566833333,39.9837166667,18751.91 -103.6551666667,39.9825,18786.04 -103.6535333333,39.9814166667,18878.7 -103.652,39.9803333333,18912.84 -103.6506833333,39.9792,19007.63 -103.6493,39.9781333333,19032.32 -103.6491666667,39.978,19035.98 -103.6480666667,39.9767666667,19133.52 -103.6469166667,39.9755833333,19155.46 -103.6466666667,39.9753333333,19164.3 -103.6457,39.97435,19258.79 -103.6448833333,39.9734,19275.55 -103.6445,39.9731666667,19292.93 -103.6433333333,39.9725,19399.61 -103.6423,39.9720333333,19425.51 -103.642,39.9716666667,19436.49 -103.6405833333,39.971,19548.35 -103.6398,39.97065,19570.6 -103.6393333333,39.9703333333,19590.11 -103.6377666667,39.9700333333,19709.89 -103.636,39.9696666667,19779.39 -103.63455,39.9694666667,19890.64 -103.6335166667,39.9695666667,19915.63 -103.6323333333,39.9695,19953.12 -103.6302166667,39.9694666667,20065.59 -103.6281666667,39.9691666667,20118.63 -103.6264333333,39.969,20234.76 -103.62575,39.9688166667,20235.67 -103.6245,39.9685,20278.34 -103.6230666667,39.968,20387.77 -103.6223666667,39.9677333333,20384.41 -103.6215,39.967,20431.05 -103.6197,39.9657,20538.03 -103.6192166667,39.9653666667,20525.54 -103.618,39.9643333333,20571.56 -103.6161666667,39.9626,20686.78 -103.61585,39.96225,20674.58 -103.6146666667,39.9608333333,20749.87 -103.6133166667,39.9595333333,20878.19 -103.6121666667,39.9581666667,20912.02 -103.6111666667,39.9568,21012.3 -103.6110666667,39.9567833333,20989.75 -103.6098333333,39.9558333333,21047.66 -103.60895,39.9546333333,21124.77 -103.6089666667,39.9546,21155.25 -103.6078333333,39.953,21198.54 -103.6069833333,39.9522833333,21292.72 -103.6069333333,39.9521,21329.6 -103.6053333333,39.9505,21406.1 -103.6039166667,39.9496166667,21468.59 -103.6037333333,39.9493666667,21514.61 -103.6013333333,39.9478333333,21581.06 -103.5998166667,39.94685,21642.63 -103.5995166667,39.9464166667,21686.52 -103.598,39.9445,21711.82 -103.5971166667,39.9436,21763.63 -103.5968666667,39.9432,21808.44 -103.5955,39.9415,21839.53 -103.5948333333,39.9398833333,21934.32 -103.594,39.9383333333,21971.2 -103.5934,39.9377666667,22005.65 -103.5932,39.9372666667,22073.31 -103.593,39.9363333333,22147.68 -103.5927166667,39.9364333333,22194.93 -103.5924666667,39.9360666667,22259.24 -103.5916666667,39.9355,22294.29 -103.59085,39.9353666667,22408.59 -103.5898333333,39.9348333333,22445.47 -103.5889,39.9345,22554.9 -103.5885,39.9341666667,22596.04 -103.5884666667,39.9342333333,22620.73 -103.5885333333,39.9343166667,22710.95 -103.5881666667,39.9341666667,22764.29 -103.58825,39.93435,22782.89 -103.588,39.9344166667,22876.15 -103.5875,39.9346666667,22913.95 -103.5874333333,39.9347833333,22906.94 -103.5866666667,39.9352833333,23024.9 -103.5855,39.936,23064.83 -103.5840333333,39.937,23179.13 -103.5823333333,39.9373333333,23245.57 -103.5808166667,39.9371166667,23365.36 -103.5789833333,39.93705,23405.9 -103.579,39.937,23406.2 -103.5769666667,39.9371833333,23513.49 -103.5749333333,39.9374666667,23545.8 -103.5746666667,39.9373333333,23550.68 -103.5724,39.938,23650.35 -103.5704166667,39.9384166667,23678.08 -103.57,39.9385,23684.18 -103.5673833333,39.93885,23788.42 -103.5653833333,39.9392166667,23810.06 -103.5648333333,39.9391666667,23826.83 -103.5625,39.9396,23936.86 -103.5603333333,39.9395,23975.87 -103.5584833333,39.9397,24085.3 -103.5568666667,39.9397166667,24116.08 -103.5556666667,39.9395,24145.65 -103.5530666667,39.9393166667,24264.21 -103.5514333333,39.93895,24277.93 -103.5503333333,39.9386666667,24305.97 -103.5471166667,39.9381833333,24417.22 -103.5455333333,39.9377833333,24426.98 -103.5441666667,39.9375,24458.07 -103.5415666667,39.93665,24566.58 -103.5404,39.9362333333,24571.15 -103.5391666667,39.9356666667,24606.2 -103.5366333333,39.9348166667,24716.23 -103.5355833333,39.9345333333,24714.1 -103.5341666667,39.9336666667,24757.08 -103.5321666667,39.9327333333,24863.45 -103.5298333333,39.9318333333,24897.89 -103.5276666667,39.9313,25002.13 -103.5269833333,39.93115,24989.03 -103.5255,39.9308333333,25044.5 -103.5236166667,39.9306166667,25150.57 -103.5232666667,39.9306166667,25134.11 -103.5213333333,39.9305,25186.84 -103.5195333333,39.9305,25291.08 -103.5192666667,39.93045,25268.22 -103.5176666667,39.9303333333,25328.58 -103.5161166667,39.9301666667,25437.08 -103.5160333333,39.9301666667,25410.26 -103.5145,39.9298333333,25477.62 -103.5130833333,39.9297,25587.66 -103.5125666667,39.9296333333,25576.07 -103.511,39.9295,25636.73 -103.50885,39.9290666667,25751.94 -103.5065,39.9286666667,25797.05 -103.5039,39.9282,25904.95 -103.5035,39.9281333333,25878.13 -103.5015,39.9275,25950.37 -103.49945,39.9267666667,26060.4 -103.4993,39.9267666667,26031.14 -103.4950166667,39.9249166667,26197.26 -103.4949666667,39.9249,26163.42 -103.493,39.9236666667,26235.36 -103.49175,39.9225833333,26299.36 -103.4916166667,39.9225,26335.94 -103.4903333333,39.9215,26370.69 -103.4886,39.92055,26470.66 -103.4863333333,39.9198333333,26506.93 -103.4846333333,39.9190833333,26564.23 -103.4842833333,39.9188333333,26614.53 -103.4825,39.9176666667,26662.99 -103.4814166667,39.9170166667,26724.25 -103.4811833333,39.9167666667,26781.25 -103.4798333333,39.916,26840.08 -103.4789333333,39.9154166667,26900.43 -103.47845,39.915,26959.86 -103.4771666667,39.914,27019.3 -103.4767333333,39.91365,27078.43 -103.4766,39.9132333333,27144.57 -103.476,39.9125,27203.1 -103.47555,39.9123833333,27321.36 -103.4746666667,39.9121666667,27372.56 -103.4742166667,39.9122333333,27425.29 -103.4736833333,39.91215,27501.49 -103.472,39.9118333333,27550.57 -103.4713166667,39.91205,27587.45 -103.4702166667,39.9122666667,27666.09 -103.4685,39.9125,27708.76 -103.46785,39.9125833333,27734.36 -103.467,39.91265,27808.12 -103.4653333333,39.9128333333,27843.48 -103.46515,39.9129,27865.43 -103.4639,39.9129666667,27947.72 -103.4618333333,39.913,27977.29 -103.4601,39.9134166667,28069.34 -103.4588333333,39.9136666667,28097.07 -103.4575666667,39.9140833333,28188.82 -103.456,39.9145,28211.07 -103.4542333333,39.915,28301.9 -103.4524333333,39.9159333333,28332.68 -103.4523333333,39.9158333333,28331.16 -103.45055,39.9164166667,28432.35 -103.44885,39.9168333333,28472.59 -103.4488333333,39.9166666667,28469.54 -103.44695,39.9170333333,28584.45 -103.4448333333,39.9173333333,28632.3 -103.4428333333,39.9176333333,28757.27 -103.44125,39.9177,28795.68 -103.4408333333,39.9176666667,28812.74 -103.4390166667,39.9178333333,28936.8 -103.4373,39.9181,28969.72 -103.4365,39.918,28991.97 -103.4341,39.9183666667,29111.75 -103.4313333333,39.9183333333,29162.96 -103.4282666667,39.9185833333,29271.77 -103.4266666667,39.9186333333,29284.57 -103.4258333333,39.9186666667,29311.09 -103.42335,39.91935,29404.67 -103.4211666667,39.9198333333,29434.84 -103.4189833333,39.9203666667,29529.63 -103.418,39.9205,29525.67 -103.4165,39.9206666667,29555.54 -103.4140833333,39.92155,29649.42 -103.4130666667,39.9218333333,29641.8 -103.4115,39.9223333333,29676.85 -103.40855,39.923,29771.64 -103.4073833333,39.92325,29761.59 -103.4053333333,39.9236666667,29798.77 -103.4017666667,39.9242333333,29902.1 -103.3978333333,39.9246666667,29936.85 -103.3940166667,39.925,30041.7 -103.3932,39.9250833333,30021.89 -103.3906666667,39.925,30076.75 -103.3868666667,39.92515,30186.17 -103.3864,39.9251666667,30160.87 -103.3833333333,39.9251666667,30224.88 -103.3800833333,39.9254166667,30328.82 -103.37985,39.92545,30299.86 -103.3765,39.9258333333,30363.26 -103.3732,39.9264333333,30462.93 -103.3695,39.9268333333,30495.24 -103.3663333333,39.9272666667,30555.9 -103.36605,39.92725,30593.39</coordinates>
                    </LineString>
                </Placemark>
                <Placemark id="11">
                    <name>EOSS-303 Descent</name>
                    <styleUrl>#12</styleUrl>
                    <LineString id="10">
                        <extrude>0</extrude>
                        <altitudeMode>absolute</altitudeMode>
                        <coordinates>-103.36605,39.92725,30593.39 -103.3590833333,39.9277166667,29723.79 -103.3584,39.92775,29635.7 -103.3553333333,39.9278333333,28839.26 -103.35345,39.9282166667,28264.41 -103.35325,39.9285333333,28146.76 -103.3506666667,39.9288333333,27442.06 -103.3491333333,39.92915,26980.29 -103.3487666667,39.9287,26840.08 -103.348,39.9276666667,26222.55 -103.3464166667,39.92725,25665.68 -103.3445,39.9266666667,25085.04 -103.3426833333,39.92635,24777.19 -103.34215,39.9265833333,24598.27 -103.3391666667,39.9258333333,24062.13 -103.3364333333,39.9269333333,23651.87 -103.3348333333,39.927,23139.5 -103.3343666667,39.9279833333,22935.9 -103.3337,39.9287,22741.74 -103.3333333333,39.9283333333,22280.88 -103.33255,39.9279833333,21879.76 -103.3301166667,39.9268,21303.69 -103.3290166667,39.92535,21087.89 -103.3278333333,39.9226666667,20705.98 -103.32795,39.9224333333,20618.5 -103.3261833333,39.92205,20401.48 -103.324,39.9208333333,20025.36 -103.3233,39.9211666667,19957.39 -103.3215333333,39.9206,19715.07 -103.3203333333,39.9193333333,19349.62 -103.3204666667,39.9196,19306.34 -103.3189666667,39.9185,19034.46 -103.3173333333,39.9171666667,18680.58 -103.3156666667,39.9165666667,18385.54 -103.3128333333,39.9158333333,18049.95 -103.31295,39.9159833333,18051.17 -103.3110833333,39.9149,17773.8 -103.3098333333,39.9133333333,17450.41 -103.3084666667,39.9116,17183.1 -103.30645,39.91,16915.18 -103.306,39.9095,16873.73 -103.3033166667,39.9078166667,16655.19 -103.2998333333,39.9065,16377.82 -103.2957833333,39.9054,16150.74 -103.2935166667,39.9044833333,15941.95 -103.2921666667,39.9041666667,15873.37 -103.28905,39.90205,15656.36 -103.2866,39.9014166667,15474.09 -103.2858333333,39.9005,15395.14 -103.2840333333,39.8988166667,15196.11 -103.2825333333,39.8977166667,15034.87 -103.2815,39.8963333333,14947.39 -103.2783666667,39.8943666667,14756.28 -103.2763833333,39.8937666667,14612.72 -103.2743333333,39.8925,14513.36 -103.2704,39.8917666667,14342.06 -103.2661666667,39.8913333333,14104.62 -103.26195,39.8906333333,13917.17 -103.258,39.89,13690.4 -103.2551166667,39.8886166667,13515.44 -103.2515,39.8863333333,13283.49 -103.2481,39.8843166667,13105.18 -103.2472333333,39.8838833333,13022.58 -103.2441666667,39.8816666667,12876.58 -103.23955,39.8794666667,12721.13 -103.2301166667,39.8761166667,12367.56 -103.2255,39.8746666667,12161.82 -103.2211333333,39.8736166667,12018.26 -103.2208666667,39.8734333333,11974.37 -103.2166666667,39.8723333333,11820.14 -103.2128666667,39.87095,11688.17 -103.213,39.8710166667,11657.38 -103.2091666667,39.8698333333,11494.01 -103.2058333333,39.8688,11346.48 -103.2055166667,39.8689,11361.42 -103.2021666667,39.8673333333,11170.31 -103.20065,39.8653,11049.0 -103.1991666667,39.8631666667,10866.42 -103.1976833333,39.8618833333,10747.86 -103.195,39.8603333333,10570.16 -103.1936166667,39.8590166667,10458.3 -103.1933166667,39.8582166667,10450.37 -103.1918333333,39.8555,10273.89 -103.1895166667,39.85295,10171.48 -103.187,39.8505,10001.71 -103.1853,39.8496833333,9913.32 -103.1841,39.8491166667,9891.98 -103.1811666667,39.8473333333,9719.46 -103.1788666667,39.8462833333,9610.34 -103.1771666667,39.8451666667,9432.65 -103.1766666667,39.8447,9366.2 -103.1761166667,39.8439666667,9326.27 -103.1748333333,39.8423333333,9154.36 -103.1744333333,39.8415666667,9094.01 -103.1733,39.84035,9040.67 -103.1706666667,39.8386666667,8868.16 -103.1697,39.8382666667,8823.05 -103.1679333333,39.8377666667,8761.78 -103.1655,39.8368333333,8598.1 -103.1647,39.8365833333,8552.08 -103.1627333333,39.8359166667,8487.77 -103.1601666667,39.835,8323.48 -103.1576333333,39.8341,8223.81 -103.1551666667,39.8331666667,8072.63 -103.1548666667,39.8330333333,8043.98 -103.1531166667,39.83195,7956.19 -103.1516666667,39.8301666667,7794.96 -103.1516666667,39.8300666667,7784.9 -103.1502,39.82875,7696.5 -103.1486666667,39.827,7534.96 -103.1486666667,39.827,7537.09 -103.1467833333,39.8254833333,7436.51 -103.1450833333,39.8241333333,7285.94 -103.1448333333,39.824,7278.01 -103.1425666667,39.82255,7181.39 -103.1408833333,39.8213166667,7040.88 -103.1403333333,39.8211666667,7027.16 -103.1378833333,39.8194666667,6936.03 -103.1362,39.8177833333,6805.88 -103.1356666667,39.8175,6782.41 -103.1331833333,39.8155333333,6691.27 -103.1314166667,39.81405,6572.71 -103.1308333333,39.8136666667,6537.96 -103.1283833333,39.81195,6448.96 -103.1263333333,39.8107833333,6341.67 -103.1256666667,39.8098333333,6301.44 -103.1235,39.8083333333,6213.04 -103.1211666667,39.8063333333,6063.39 -103.1188666667,39.8044833333,5974.69 -103.1161666667,39.8023333333,5827.47 -103.11365,39.8006166667,5740.6 -103.1123333333,39.7999333333,5654.65 -103.1108333333,39.7985,5592.17 -103.1084,39.7969333333,5503.16 -103.1072666667,39.7962833333,5423.61 -103.1058333333,39.7948333333,5354.42 -103.1031166667,39.7932666667,5265.72 -103.1006666667,39.7916666667,5123.99 -103.0977833333,39.7901333333,5031.33 -103.095,39.7886666667,4888.08 -103.0922666667,39.7874333333,4800.3 -103.09175,39.7872,4741.47 -103.0898333333,39.7856666667,4657.04 -103.0874,39.7839,4579.32 -103.0870166667,39.7836666667,4530.55 -103.085,39.782,4437.28 -103.0828,39.7800333333,4358.34 -103.0827,39.77995,4315.66 -103.0796666667,39.7783333333,4215.99 -103.0769666667,39.77715,4139.79 -103.0768166667,39.7770833333,4106.57 -103.0741666667,39.7758333333,4000.5 -103.0718666667,39.7747,3924.0 -103.07,39.7733333333,3787.44 -103.0680333333,39.7722,3688.38 -103.0675833333,39.7719833333,3708.5 -103.0658333333,39.7701666667,3571.95 -103.0641833333,39.7691666667,3490.57 -103.0636166667,39.7687666667,3502.46 -103.0615,39.7663333333,3367.43 -103.0606,39.76495,3290.32 -103.0602333333,39.7646333333,3297.33 -103.0578333333,39.7626666667,3161.39 -103.0568666667,39.7614166667,3088.54 -103.0565666667,39.76085,3088.84 -103.0545,39.7595,2952.9 -103.0533666667,39.75865,2884.32 -103.0530166667,39.7581166667,2880.36 -103.0515,39.7573333333,2754.48 -103.0507166667,39.7566833333,2701.44 -103.05045,39.7561333333,2695.65 -103.05,39.7555,2569.77 -103.0497333333,39.7555,2519.17 -103.04915,39.75555,2505.15 -103.0478333333,39.7551666667,2382.62 -103.0474166667,39.7549166667,2334.16 -103.0472666667,39.7549166667,2312.82 -103.0458333333,39.7551666667,2187.55 -103.0454,39.75515,2154.33 -103.0449,39.75515,2123.54 -103.0434,39.7567,1981.2 -103.04195,39.7577166667,1954.38 -103.0401666667,39.7585,1819.05 -103.0394,39.7601166667,1748.03 -103.0381666667,39.7623333333,1601.11 -103.03805,39.7626333333,1584.35 -103.0367,39.7639,1532.53 -103.0359333333,39.76525,1402.38</coordinates>
                    </LineString>
                </Placemark>
            </Folder>
            <Folder id="4">
                <Style id="37">
                    <IconStyle id="38">
                        <color>ff0000ff</color>
                        <colorMode>normal</colorMode>
                        <scale>1</scale>
                        <heading>0</heading>
                        <Icon id="39">
                            <href>https://maps.google.com/mapfiles/kml/shapes/placemark_circle.png</href>
                        </Icon>
                    </IconStyle>
                </Style>
                <Style id="42">
                    <IconStyle id="43">
                        <color>ff0000ff</color>
                        <colorMode>normal</colorMode>
                        <scale>1</scale>
                        <heading>0</heading>
                        <Icon id="44">
                            <href>https://maps.google.com/mapfiles/kml/shapes/placemark_circle.png</href>
                        </Icon>
                    </IconStyle>
                </Style>
                <Style id="47">
                    <IconStyle id="48">
                        <color>ff0000ff</color>
                        <colorMode>normal</colorMode>
                        <scale>1</scale>
                        <heading>0</heading>
                        <Icon id="49">
                            <href>https://maps.google.com/mapfiles/kml/shapes/placemark_circle.png</href>
                        </Icon>
                    </IconStyle>
                </Style>
                <Style id="52">
                    <IconStyle id="53">
                        <color>ff0000ff</color>
                        <colorMode>normal</colorMode>
                        <scale>1</scale>
                        <heading>0</heading>
                        <Icon id="54">
                            <href>https://maps.google.com/mapfiles/kml/shapes/placemark_circle.png</href>
                        </Icon>
                    </IconStyle>
                </Style>
                <Style id="57">
                    <IconStyle id="58">
                        <color>ff0000ff</color>
                        <colorMode>normal</colorMode>
                        <scale>1</scale>
                        <heading>0</heading>
                        <Icon id="59">
                            <href>https://maps.google.com/mapfiles/kml/shapes/placemark_circle.png</href>
                        </Icon>
                    </IconStyle>
                </Style>
                <Style id="62">
                    <IconStyle id="63">
                        <color>ff0000ff</color>
                        <colorMode>normal</colorMode>
                        <scale>1</scale>
                        <heading>0</heading>
                        <Icon id="64">
                            <href>https://maps.google.com/mapfiles/kml/shapes/placemark_circle.png</href>
                        </Icon>
                    </IconStyle>
                </Style>
                <Style id="67">
                    <IconStyle id="68">
                        <color>ff0000ff</color>
                        <colorMode>normal</colorMode>
                        <scale>1</scale>
                        <heading>0</heading>
                        <Icon id="69">
                            <href>https://maps.google.com/mapfiles/kml/shapes/placemark_circle.png</href>
                        </Icon>
                    </IconStyle>
                </Style>
                <Style id="72">
                    <IconStyle id="73">
                        <color>ff0000ff</color>
                        <colorMode>normal</colorMode>
                        <scale>1</scale>
                        <heading>0</heading>
                        <Icon id="74">
                            <href>https://maps.google.com/mapfiles/kml/shapes/placemark_circle.png</href>
                        </Icon>
                    </IconStyle>
                </Style>
                <Style id="77">
                    <IconStyle id="78">
                        <color>ff0000ff</color>
                        <colorMode>normal</colorMode>
                        <scale>1</scale>
                        <heading>0</heading>
                        <Icon id="79">
                            <href>https://maps.google.com/mapfiles/kml/shapes/placemark_circle.png</href>
                        </Icon>
                    </IconStyle>
                </Style>
                <Style id="82">
                    <IconStyle id="83">
                        <color>ff0000ff</color>
                        <colorMode>normal</colorMode>
                        <scale>1</scale>
                        <heading>0</heading>
                        <Icon id="84">
                            <href>https://maps.google.com/mapfiles/kml/shapes/placemark_circle.png</href>
                        </Icon>
                    </IconStyle>
                </Style>
                <Style id="87">
                    <IconStyle id="88">
                        <color>ffff0000</color>
                        <colorMode>normal</colorMode>
                        <scale>1</scale>
                        <heading>0</heading>
                        <Icon id="89">
                            <href>https://maps.google.com/mapfiles/kml/shapes/placemark_circle.png</href>
                        </Icon>
                    </IconStyle>
                </Style>
                <Style id="92">
                    <IconStyle id="93">
                        <color>ffff0000</color>
                        <colorMode>normal</colorMode>
                        <scale>1</scale>
                        <heading>0</heading>
                        <Icon id="94">
                            <href>https://maps.google.com/mapfiles/kml/shapes/placemark_circle.png</href>
                        </Icon>
                    </IconStyle>
                </Style>
                <Style id="97">
                    <IconStyle id="98">
                        <color>ffff0000</color>
                        <colorMode>normal</colorMode>
                        <scale>1</scale>
                        <heading>0</heading>
                        <Icon id="99">
                            <href>https://maps.google.com/mapfiles/kml/shapes/placemark_circle.png</href>
                        </Icon>
                    </IconStyle>
                </Style>
                <Style id="102">
                    <IconStyle id="103">
                        <color>ffff0000</color>
                        <colorMode>normal</colorMode>
                        <scale>1</scale>
                        <heading>0</heading>
                        <Icon id="104">
                            <href>https://maps.google.com/mapfiles/kml/shapes/placemark_circle.png</href>
                        </Icon>
                    </IconStyle>
                </Style>
                <Style id="107">
                    <IconStyle id="108">
                        <color>ffff0000</color>
                        <colorMode>normal</colorMode>
                        <scale>1</scale>
                        <heading>0</heading>
                        <Icon id="109">
                            <href>https://maps.google.com/mapfiles/kml/shapes/placemark_circle.png</href>
                        </Icon>
                    </IconStyle>
                </Style>
                <Style id="112">
                    <IconStyle id="113">
                        <color>ffff0000</color>
                        <colorMode>normal</colorMode>
                        <scale>1</scale>
                        <heading>0</heading>
                        <Icon id="114">
                            <href>https://maps.google.com/mapfiles/kml/shapes/placemark_circle.png</href>
                        </Icon>
                    </IconStyle>
                </Style>
                <Style id="117">
                    <IconStyle id="118">
                        <color>ffff0000</color>
                        <colorMode>normal</colorMode>
                        <scale>1</scale>
                        <heading>0</heading>
                        <Icon id="119">
                            <href>https://maps.google.com/mapfiles/kml/shapes/placemark_circle.png</href>
                        </Icon>
                    </IconStyle>
                </Style>
                <Style id="122">
                    <IconStyle id="123">
                        <color>ffff0000</color>
                        <colorMode>normal</colorMode>
                        <scale>1</scale>
                        <heading>0</heading>
                        <Icon id="124">
                            <href>https://maps.google.com/mapfiles/kml/shapes/placemark_circle.png</href>
                        </Icon>
                    </IconStyle>
                </Style>
                <Style id="127">
                    <IconStyle id="128">
                        <color>ffff0000</color>
                        <colorMode>normal</colorMode>
                        <scale>1</scale>
                        <heading>0</heading>
                        <Icon id="129">
                            <href>https://maps.google.com/mapfiles/kml/shapes/placemark_circle.png</href>
                        </Icon>
                    </IconStyle>
                </Style>
                <name>Waypoints</name>
                <Placemark id="36">
                    <name>10k</name>
                    <description><![CDATA[
        <h1>Waypoint</h1>
        <table style="width: 100%;" cellpadding=0 cellspacing=0 border=0>
        <tr><td style="padding: 10px; border: solid 1px black;border-bottom: 0;"><strong>Local Time</strong></td><td style="border: solid 1px black;border-left: 0; border-bottom: 0; padding: 10px;">07:01:17</td></tr>
        <tr><td style="padding: 10px; border: solid 1px black;border-bottom: 0;"><strong>Altitude</strong></td><td style="border: solid 1px black;border-left: 0; border-bottom: 0; padding: 10px;">10,142ft (3,091.3m)</td></tr>
        <tr><td style="padding: 10px; border: solid 1px black;"><strong>Coordinates</strong></td><td style="border: solid 1px black; border-left: 0; padding: 10px;">40.22285, -104.05593333</td></tr>
        </table>
        ]]></description>
                    <styleUrl>#37</styleUrl>
                    <Point id="35">
                        <coordinates>-104.0559333333,40.22285,3091.28</coordinates>
                        <altitudeMode>absolute</altitudeMode>
                    </Point>
                </Placemark>
                <Placemark id="41">
                    <name>20k</name>
                    <description><![CDATA[
        <h1>Waypoint</h1>
        <table style="width: 100%;" cellpadding=0 cellspacing=0 border=0>
        <tr><td style="padding: 10px; border: solid 1px black;border-bottom: 0;"><strong>Local Time</strong></td><td style="border: solid 1px black;border-left: 0; border-bottom: 0; padding: 10px;">07:08:30</td></tr>
        <tr><td style="padding: 10px; border: solid 1px black;border-bottom: 0;"><strong>Altitude</strong></td><td style="border: solid 1px black;border-left: 0; border-bottom: 0; padding: 10px;">20,050ft (6,111.2m)</td></tr>
        <tr><td style="padding: 10px; border: solid 1px black;"><strong>Coordinates</strong></td><td style="border: solid 1px black; border-left: 0; padding: 10px;">40.177, -103.98666667</td></tr>
        </table>
        ]]></description>
                    <styleUrl>#42</styleUrl>
                    <Point id="40">
                        <coordinates>-103.9866666667,40.177,6111.24</coordinates>
                        <altitudeMode>absolute</altitudeMode>
                    </Point>
                </Placemark>
                <Placemark id="46">
                    <name>30k</name>
                    <description><![CDATA[
        <h1>Waypoint</h1>
        <table style="width: 100%;" cellpadding=0 cellspacing=0 border=0>
        <tr><td style="padding: 10px; border: solid 1px black;border-bottom: 0;"><strong>Local Time</strong></td><td style="border: solid 1px black;border-left: 0; border-bottom: 0; padding: 10px;">07:15:18</td></tr>
        <tr><td style="padding: 10px; border: solid 1px black;border-bottom: 0;"><strong>Altitude</strong></td><td style="border: solid 1px black;border-left: 0; border-bottom: 0; padding: 10px;">30,151ft (9,190.0m)</td></tr>
        <tr><td style="padding: 10px; border: solid 1px black;"><strong>Coordinates</strong></td><td style="border: solid 1px black; border-left: 0; padding: 10px;">40.13135, -103.91606667</td></tr>
        </table>
        ]]></description>
                    <styleUrl>#47</styleUrl>
                    <Point id="45">
                        <coordinates>-103.9160666667,40.13135,9190.02</coordinates>
                        <altitudeMode>absolute</altitudeMode>
                    </Point>
                </Placemark>
                <Placemark id="51">
                    <name>40k</name>
                    <description><![CDATA[
        <h1>Waypoint</h1>
        <table style="width: 100%;" cellpadding=0 cellspacing=0 border=0>
        <tr><td style="padding: 10px; border: solid 1px black;border-bottom: 0;"><strong>Local Time</strong></td><td style="border: solid 1px black;border-left: 0; border-bottom: 0; padding: 10px;">07:21:35</td></tr>
        <tr><td style="padding: 10px; border: solid 1px black;border-bottom: 0;"><strong>Altitude</strong></td><td style="border: solid 1px black;border-left: 0; border-bottom: 0; padding: 10px;">40,048ft (12,206.6m)</td></tr>
        <tr><td style="padding: 10px; border: solid 1px black;"><strong>Coordinates</strong></td><td style="border: solid 1px black; border-left: 0; padding: 10px;">40.08311667, -103.8564</td></tr>
        </table>
        ]]></description>
                    <styleUrl>#52</styleUrl>
                    <Point id="50">
                        <coordinates>-103.8564,40.0831166667,12206.63</coordinates>
                        <altitudeMode>absolute</altitudeMode>
                    </Point>
                </Placemark>
                <Placemark id="56">
                    <name>50k</name>
                    <description><![CDATA[
        <h1>Waypoint</h1>
        <table style="width: 100%;" cellpadding=0 cellspacing=0 border=0>
        <tr><td style="padding: 10px; border: solid 1px black;border-bottom: 0;"><strong>Local Time</strong></td><td style="border: solid 1px black;border-left: 0; border-bottom: 0; padding: 10px;">07:28:15</td></tr>
        <tr><td style="padding: 10px; border: solid 1px black;border-bottom: 0;"><strong>Altitude</strong></td><td style="border: solid 1px black;border-left: 0; border-bottom: 0; padding: 10px;">49,983ft (15,234.8m)</td></tr>
        <tr><td style="padding: 10px; border: solid 1px black;"><strong>Coordinates</strong></td><td style="border: solid 1px black; border-left: 0; padding: 10px;">40.04095, -103.75251667</td></tr>
        </table>
        ]]></description>
                    <styleUrl>#57</styleUrl>
                    <Point id="55">
                        <coordinates>-103.7525166667,40.04095,15234.82</coordinates>
                        <altitudeMode>absolute</altitudeMode>
                    </Point>
                </Placemark>
                <Placemark id="61">
                    <name>60k</name>
                    <description><![CDATA[
        <h1>Waypoint</h1>
        <table style="width: 100%;" cellpadding=0 cellspacing=0 border=0>
        <tr><td style="padding: 10px; border: solid 1px black;border-bottom: 0;"><strong>Local Time</strong></td><td style="border: solid 1px black;border-left: 0; border-bottom: 0; padding: 10px;">07:36:30</td></tr>
        <tr><td style="padding: 10px; border: solid 1px black;border-bottom: 0;"><strong>Altitude</strong></td><td style="border: solid 1px black;border-left: 0; border-bottom: 0; padding: 10px;">60,044ft (18,301.4m)</td></tr>
        <tr><td style="padding: 10px; border: solid 1px black;"><strong>Coordinates</strong></td><td style="border: solid 1px black; border-left: 0; padding: 10px;">39.98983333, -103.66483333</td></tr>
        </table>
        ]]></description>
                    <styleUrl>#62</styleUrl>
                    <Point id="60">
                        <coordinates>-103.6648333333,39.9898333333,18301.41</coordinates>
                        <altitudeMode>absolute</altitudeMode>
                    </Point>
                </Placemark>
                <Placemark id="66">
                    <name>70k</name>
                    <description><![CDATA[
        <h1>Waypoint</h1>
        <table style="width: 100%;" cellpadding=0 cellspacing=0 border=0>
        <tr><td style="padding: 10px; border: solid 1px black;border-bottom: 0;"><strong>Local Time</strong></td><td style="border: solid 1px black;border-left: 0; border-bottom: 0; padding: 10px;">07:46:15</td></tr>
        <tr><td style="padding: 10px; border: solid 1px black;border-bottom: 0;"><strong>Altitude</strong></td><td style="border: solid 1px black;border-left: 0; border-bottom: 0; padding: 10px;">69,979ft (21,329.6m)</td></tr>
        <tr><td style="padding: 10px; border: solid 1px black;"><strong>Coordinates</strong></td><td style="border: solid 1px black; border-left: 0; padding: 10px;">39.9521, -103.60693333</td></tr>
        </table>
        ]]></description>
                    <styleUrl>#67</styleUrl>
                    <Point id="65">
                        <coordinates>-103.6069333333,39.9521,21329.6</coordinates>
                        <altitudeMode>absolute</altitudeMode>
                    </Point>
                </Placemark>
                <Placemark id="71">
                    <name>80k</name>
                    <description><![CDATA[
        <h1>Waypoint</h1>
        <table style="width: 100%;" cellpadding=0 cellspacing=0 border=0>
        <tr><td style="padding: 10px; border: solid 1px black;border-bottom: 0;"><strong>Local Time</strong></td><td style="border: solid 1px black;border-left: 0; border-bottom: 0; padding: 10px;">07:56:15</td></tr>
        <tr><td style="padding: 10px; border: solid 1px black;border-bottom: 0;"><strong>Altitude</strong></td><td style="border: solid 1px black;border-left: 0; border-bottom: 0; padding: 10px;">80,109ft (24,417.2m)</td></tr>
        <tr><td style="padding: 10px; border: solid 1px black;"><strong>Coordinates</strong></td><td style="border: solid 1px black; border-left: 0; padding: 10px;">39.93818333, -103.54711667</td></tr>
        </table>
        ]]></description>
                    <styleUrl>#72</styleUrl>
                    <Point id="70">
                        <coordinates>-103.5471166667,39.9381833333,24417.22</coordinates>
                        <altitudeMode>absolute</altitudeMode>
                    </Point>
                </Placemark>
                <Placemark id="76">
                    <name>90k</name>
                    <description><![CDATA[
        <h1>Waypoint</h1>
        <table style="width: 100%;" cellpadding=0 cellspacing=0 border=0>
        <tr><td style="padding: 10px; border: solid 1px black;border-bottom: 0;"><strong>Local Time</strong></td><td style="border: solid 1px black;border-left: 0; border-bottom: 0; padding: 10px;">08:06:07</td></tr>
        <tr><td style="padding: 10px; border: solid 1px black;border-bottom: 0;"><strong>Altitude</strong></td><td style="border: solid 1px black;border-left: 0; border-bottom: 0; padding: 10px;">89,978ft (27,425.3m)</td></tr>
        <tr><td style="padding: 10px; border: solid 1px black;"><strong>Coordinates</strong></td><td style="border: solid 1px black; border-left: 0; padding: 10px;">39.91223333, -103.47421667</td></tr>
        </table>
        ]]></description>
                    <styleUrl>#77</styleUrl>
                    <Point id="75">
                        <coordinates>-103.4742166667,39.9122333333,27425.29</coordinates>
                        <altitudeMode>absolute</altitudeMode>
                    </Point>
                </Placemark>
                <Placemark id="81">
                    <name>100k</name>
                    <description><![CDATA[
        <h1>Waypoint</h1>
        <table style="width: 100%;" cellpadding=0 cellspacing=0 border=0>
        <tr><td style="padding: 10px; border: solid 1px black;border-bottom: 0;"><strong>Local Time</strong></td><td style="border: solid 1px black;border-left: 0; border-bottom: 0; padding: 10px;">08:17:00</td></tr>
        <tr><td style="padding: 10px; border: solid 1px black;border-bottom: 0;"><strong>Altitude</strong></td><td style="border: solid 1px black;border-left: 0; border-bottom: 0; padding: 10px;">100,050ft (30,495.2m)</td></tr>
        <tr><td style="padding: 10px; border: solid 1px black;"><strong>Coordinates</strong></td><td style="border: solid 1px black; border-left: 0; padding: 10px;">39.92683333, -103.3695</td></tr>
        </table>
        ]]></description>
                    <styleUrl>#82</styleUrl>
                    <Point id="80">
                        <coordinates>-103.3695,39.9268333333,30495.24</coordinates>
                        <altitudeMode>absolute</altitudeMode>
                    </Point>
                </Placemark>
                <Placemark id="86">
                    <name>10k</name>
                    <description><![CDATA[
        <h1>Waypoint</h1>
        <table style="width: 100%;" cellpadding=0 cellspacing=0 border=0>
        <tr><td style="padding: 10px; border: solid 1px black;border-bottom: 0;"><strong>Local Time</strong></td><td style="border: solid 1px black;border-left: 0; border-bottom: 0; padding: 10px;">08:48:10</td></tr>
        <tr><td style="padding: 10px; border: solid 1px black;border-bottom: 0;"><strong>Altitude</strong></td><td style="border: solid 1px black;border-left: 0; border-bottom: 0; padding: 10px;">10,133ft (3,088.5m)</td></tr>
        <tr><td style="padding: 10px; border: solid 1px black;"><strong>Coordinates</strong></td><td style="border: solid 1px black; border-left: 0; padding: 10px;">39.76141667, -103.05686667</td></tr>
        </table>
        ]]></description>
                    <styleUrl>#87</styleUrl>
                    <Point id="85">
                        <coordinates>-103.0568666667,39.7614166667,3088.54</coordinates>
                        <altitudeMode>absolute</altitudeMode>
                    </Point>
                </Placemark>
                <Placemark id="91">
                    <name>20k</name>
                    <description><![CDATA[
        <h1>Waypoint</h1>
        <table style="width: 100%;" cellpadding=0 cellspacing=0 border=0>
        <tr><td style="padding: 10px; border: solid 1px black;border-bottom: 0;"><strong>Local Time</strong></td><td style="border: solid 1px black;border-left: 0; border-bottom: 0; padding: 10px;">08:41:30</td></tr>
        <tr><td style="padding: 10px; border: solid 1px black;border-bottom: 0;"><strong>Altitude</strong></td><td style="border: solid 1px black;border-left: 0; border-bottom: 0; padding: 10px;">19,893ft (6,063.4m)</td></tr>
        <tr><td style="padding: 10px; border: solid 1px black;"><strong>Coordinates</strong></td><td style="border: solid 1px black; border-left: 0; padding: 10px;">39.80633333, -103.12116667</td></tr>
        </table>
        ]]></description>
                    <styleUrl>#92</styleUrl>
                    <Point id="90">
                        <coordinates>-103.1211666667,39.8063333333,6063.39</coordinates>
                        <altitudeMode>absolute</altitudeMode>
                    </Point>
                </Placemark>
                <Placemark id="96">
                    <name>30k</name>
                    <description><![CDATA[
        <h1>Waypoint</h1>
        <table style="width: 100%;" cellpadding=0 cellspacing=0 border=0>
        <tr><td style="padding: 10px; border: solid 1px black;border-bottom: 0;"><strong>Local Time</strong></td><td style="border: solid 1px black;border-left: 0; border-bottom: 0; padding: 10px;">08:35:30</td></tr>
        <tr><td style="padding: 10px; border: solid 1px black;border-bottom: 0;"><strong>Altitude</strong></td><td style="border: solid 1px black;border-left: 0; border-bottom: 0; padding: 10px;">30,034ft (9,154.4m)</td></tr>
        <tr><td style="padding: 10px; border: solid 1px black;"><strong>Coordinates</strong></td><td style="border: solid 1px black; border-left: 0; padding: 10px;">39.84233333, -103.17483333</td></tr>
        </table>
        ]]></description>
                    <styleUrl>#97</styleUrl>
                    <Point id="95">
                        <coordinates>-103.1748333333,39.8423333333,9154.36</coordinates>
                        <altitudeMode>absolute</altitudeMode>
                    </Point>
                </Placemark>
                <Placemark id="101">
                    <name>40k</name>
                    <description><![CDATA[
        <h1>Waypoint</h1>
        <table style="width: 100%;" cellpadding=0 cellspacing=0 border=0>
        <tr><td style="padding: 10px; border: solid 1px black;border-bottom: 0;"><strong>Local Time</strong></td><td style="border: solid 1px black;border-left: 0; border-bottom: 0; padding: 10px;">08:30:30</td></tr>
        <tr><td style="padding: 10px; border: solid 1px black;border-bottom: 0;"><strong>Altitude</strong></td><td style="border: solid 1px black;border-left: 0; border-bottom: 0; padding: 10px;">39,901ft (12,161.8m)</td></tr>
        <tr><td style="padding: 10px; border: solid 1px black;"><strong>Coordinates</strong></td><td style="border: solid 1px black; border-left: 0; padding: 10px;">39.87466667, -103.2255</td></tr>
        </table>
        ]]></description>
                    <styleUrl>#102</styleUrl>
                    <Point id="100">
                        <coordinates>-103.2255,39.8746666667,12161.82</coordinates>
                        <altitudeMode>absolute</altitudeMode>
                    </Point>
                </Placemark>
                <Placemark id="106">
                    <name>50k</name>
                    <description><![CDATA[
        <h1>Waypoint</h1>
        <table style="width: 100%;" cellpadding=0 cellspacing=0 border=0>
        <tr><td style="padding: 10px; border: solid 1px black;border-bottom: 0;"><strong>Local Time</strong></td><td style="border: solid 1px black;border-left: 0; border-bottom: 0; padding: 10px;">08:26:45</td></tr>
        <tr><td style="padding: 10px; border: solid 1px black;border-bottom: 0;"><strong>Altitude</strong></td><td style="border: solid 1px black;border-left: 0; border-bottom: 0; padding: 10px;">49,856ft (15,196.1m)</td></tr>
        <tr><td style="padding: 10px; border: solid 1px black;"><strong>Coordinates</strong></td><td style="border: solid 1px black; border-left: 0; padding: 10px;">39.89881667, -103.28403333</td></tr>
        </table>
        ]]></description>
                    <styleUrl>#107</styleUrl>
                    <Point id="105">
                        <coordinates>-103.2840333333,39.8988166667,15196.11</coordinates>
                        <altitudeMode>absolute</altitudeMode>
                    </Point>
                </Placemark>
                <Placemark id="111">
                    <name>60k</name>
                    <description><![CDATA[
        <h1>Waypoint</h1>
        <table style="width: 100%;" cellpadding=0 cellspacing=0 border=0>
        <tr><td style="padding: 10px; border: solid 1px black;border-bottom: 0;"><strong>Local Time</strong></td><td style="border: solid 1px black;border-left: 0; border-bottom: 0; padding: 10px;">08:23:45</td></tr>
        <tr><td style="padding: 10px; border: solid 1px black;border-bottom: 0;"><strong>Altitude</strong></td><td style="border: solid 1px black;border-left: 0; border-bottom: 0; padding: 10px;">60,320ft (18,385.5m)</td></tr>
        <tr><td style="padding: 10px; border: solid 1px black;"><strong>Coordinates</strong></td><td style="border: solid 1px black; border-left: 0; padding: 10px;">39.91656667, -103.31566667</td></tr>
        </table>
        ]]></description>
                    <styleUrl>#112</styleUrl>
                    <Point id="110">
                        <coordinates>-103.3156666667,39.9165666667,18385.54</coordinates>
                        <altitudeMode>absolute</altitudeMode>
                    </Point>
                </Placemark>
                <Placemark id="116">
                    <name>70k</name>
                    <description><![CDATA[
        <h1>Waypoint</h1>
        <table style="width: 100%;" cellpadding=0 cellspacing=0 border=0>
        <tr><td style="padding: 10px; border: solid 1px black;border-bottom: 0;"><strong>Local Time</strong></td><td style="border: solid 1px black;border-left: 0; border-bottom: 0; padding: 10px;">08:21:35</td></tr>
        <tr><td style="padding: 10px; border: solid 1px black;border-bottom: 0;"><strong>Altitude</strong></td><td style="border: solid 1px black;border-left: 0; border-bottom: 0; padding: 10px;">69,894ft (21,303.7m)</td></tr>
        <tr><td style="padding: 10px; border: solid 1px black;"><strong>Coordinates</strong></td><td style="border: solid 1px black; border-left: 0; padding: 10px;">39.9268, -103.33011667</td></tr>
        </table>
        ]]></description>
                    <styleUrl>#117</styleUrl>
                    <Point id="115">
                        <coordinates>-103.3301166667,39.9268,21303.69</coordinates>
                        <altitudeMode>absolute</altitudeMode>
                    </Point>
                </Placemark>
                <Placemark id="121">
                    <name>81k</name>
                    <description><![CDATA[
        <h1>Waypoint</h1>
        <table style="width: 100%;" cellpadding=0 cellspacing=0 border=0>
        <tr><td style="padding: 10px; border: solid 1px black;border-bottom: 0;"><strong>Local Time</strong></td><td style="border: solid 1px black;border-left: 0; border-bottom: 0; padding: 10px;">08:19:45</td></tr>
        <tr><td style="padding: 10px; border: solid 1px black;border-bottom: 0;"><strong>Altitude</strong></td><td style="border: solid 1px black;border-left: 0; border-bottom: 0; padding: 10px;">80,703ft (24,598.3m)</td></tr>
        <tr><td style="padding: 10px; border: solid 1px black;"><strong>Coordinates</strong></td><td style="border: solid 1px black; border-left: 0; padding: 10px;">39.92658333, -103.34215</td></tr>
        </table>
        ]]></description>
                    <styleUrl>#122</styleUrl>
                    <Point id="120">
                        <coordinates>-103.34215,39.9265833333,24598.27</coordinates>
                        <altitudeMode>absolute</altitudeMode>
                    </Point>
                </Placemark>
                <Placemark id="126">
                    <name>90k</name>
                    <description><![CDATA[
        <h1>Waypoint</h1>
        <table style="width: 100%;" cellpadding=0 cellspacing=0 border=0>
        <tr><td style="padding: 10px; border: solid 1px black;border-bottom: 0;"><strong>Local Time</strong></td><td style="border: solid 1px black;border-left: 0; border-bottom: 0; padding: 10px;">08:18:30</td></tr>
        <tr><td style="padding: 10px; border: solid 1px black;border-bottom: 0;"><strong>Altitude</strong></td><td style="border: solid 1px black;border-left: 0; border-bottom: 0; padding: 10px;">90,033ft (27,442.1m)</td></tr>
        <tr><td style="padding: 10px; border: solid 1px black;"><strong>Coordinates</strong></td><td style="border: solid 1px black; border-left: 0; padding: 10px;">39.92883333, -103.35066667</td></tr>
        </table>
        ]]></description>
                    <styleUrl>#127</styleUrl>
                    <Point id="125">
                        <coordinates>-103.3506666667,39.9288333333,27442.06</coordinates>
                        <altitudeMode>absolute</altitudeMode>
                    </Point>
                </Placemark>
            </Folder>
            <Folder id="5">
                <Style id="16">
                    <IconStyle id="17">
                        <color>ff008cff</color>
                        <colorMode>normal</colorMode>
                        <scale>1</scale>
                        <heading>0</heading>
                        <Icon id="18">
                            <href>https://maps.google.com/mapfiles/kml/shapes/placemark_circle.png</href>
                        </Icon>
                    </IconStyle>
                </Style>
                <Style id="21">
                    <IconStyle id="22">
                        <color>ff008cff</color>
                        <colorMode>normal</colorMode>
                        <scale>1</scale>
                        <heading>0</heading>
                        <Icon id="23">
                            <href>https://maps.google.com/mapfiles/kml/shapes/placemark_circle.png</href>
                        </Icon>
                    </IconStyle>
                </Style>
                <Style id="26">
                    <IconStyle id="27">
                        <color>ff00ffff</color>
                        <colorMode>normal</colorMode>
                        <scale>1</scale>
                        <heading>0</heading>
                        <Icon id="28">
                            <href>https://maps.google.com/mapfiles/kml/shapes/placemark_circle.png</href>
                        </Icon>
                    </IconStyle>
                </Style>
                <Style id="31">
                    <IconStyle id="32">
                        <color>ff006400</color>
                        <colorMode>normal</colorMode>
                        <scale>1</scale>
                        <heading>0</heading>
                        <Icon id="33">
                            <href>https://maps.google.com/mapfiles/kml/shapes/placemark_circle.png</href>
                        </Icon>
                    </IconStyle>
                    <LabelStyle id="34">
                        <color>ff006400</color>
                        <colorMode>normal</colorMode>
                        <scale>1</scale>
                    </LabelStyle>
                </Style>
                <name>Points of Interest</name>
                <Placemark id="15">
                    <name>Launch</name>
                    <description><![CDATA[
    <h1>Launch</h1>
    <table style="width: 100%;" cellpadding=0 cellspacing=0 border=0>
    <tr><td style="padding: 10px; border: solid 1px black;border-bottom: 0;"><strong>Local Time</strong></td><td style="border: solid 1px black;border-bottom: 0; border-left: 0; padding: 10px;">06:56:52</td></tr>
    <tr><td style="padding: 10px; border: solid 1px black;border-bottom: 0;"><strong>Altitude</strong></td><td style="border: solid 1px black;border-left: 0; border-bottom: 0; padding: 10px;">4,561ft (1,390.2m)</td></tr>
    <tr><td style="padding: 10px; border: solid 1px black;"><strong>Coordinates</strong></td><td style="border: solid 1px black; border-left: 0; padding: 10px;">40.22576667, -104.07695</td></tr>
    </table>
    ]]></description>
                    <styleUrl>#16</styleUrl>
                    <Point id="14">
                        <coordinates>-104.07695,40.2257666667,1390.19</coordinates>
                        <altitudeMode>absolute</altitudeMode>
                    </Point>
                </Placemark>
                <Placemark id="20">
                    <name>Landing</name>
                    <description><![CDATA[
    <h1>Landing</h1>
    <table style="width: 100%;" cellpadding=0 cellspacing=0 border=0>
    <tr><td style="padding: 10px; border: solid 1px black;border-bottom: 0;"><strong>Local Time</strong></td><td style="border: solid 1px black;border-left: 0; border-bottom: 0; padding: 10px;">08:54:15</td></tr>
    <tr><td style="padding: 10px; border: solid 1px black;border-bottom: 0;"><strong>Altitude</strong></td><td style="border: solid 1px black;border-bottom: 0; border-left: 0; padding: 10px;">4,601ft (1,402.4m)</td></tr>
    <tr><td style="padding: 10px; border: solid 1px black;"><strong>Coordinates</strong></td><td style="border: solid 1px black; border-left: 0; padding: 10px;">39.76525, -103.03593333</td></tr>
    </table>
    ]]></description>
                    <styleUrl>#21</styleUrl>
                    <Point id="19">
                        <coordinates>-103.0359333333,39.76525,1402.38</coordinates>
                        <altitudeMode>absolute</altitudeMode>
                    </Point>
                </Placemark>
                <Placemark id="25">
                    <name>Burst 100,372ft</name>
                    <description><![CDATA[
    <h1>Burst: 100,372ft</h1>
    <table style="width: 100%;" cellpadding=0 cellspacing=0 border=0>
    <tr><td style="padding: 10px; border: solid 1px black;border-bottom: 0;"><strong>Local Time</strong></td><td style="border: solid 1px black;border-left: 0; border-bottom: 0; padding: 10px;">08:17:15</td></tr>
    <tr><td style="padding: 10px; border: solid 1px black;border-bottom: 0;"><strong>Altitude</strong></td><td style="border: solid 1px black;border-left: 0; border-bottom: 0; padding: 10px;">100,372ft (30,593.4m)</td></tr>
    <tr><td style="padding: 10px; border: solid 1px black;"><strong>Coordinates</strong></td><td style="border: solid 1px black; border-left: 0; padding: 10px;">39.92725, -103.36605</td></tr>
    </table>
    ]]></description>
                    <styleUrl>#26</styleUrl>
                    <Point id="24">
                        <coordinates>-103.36605,39.92725,30593.39</coordinates>
                        <altitudeMode>absolute</altitudeMode>
                    </Point>
                </Placemark>
                <Placemark id="30">
                    <name>52k, Turbulent-to-Laminar</name>
                    <description><![CDATA[
        <h1>Airflow Transitioning from Turbulent-to-Laminar</h1>
        <table style="width: 100%;" cellpadding=0 cellspacing=0 border=0>
        <tr><td style="padding: 10px; border: solid 1px black;border-bottom: 0;"><strong>Local Time</strong></td><td style="border: solid 1px black;border-left: 0; border-bottom: 0; padding: 10px;">07:29:45</td></tr>
        <tr><td style="padding: 10px; border: solid 1px black;border-bottom: 0;"><strong>Altitude</strong></td><td style="border: solid 1px black;border-left: 0; border-bottom: 0; padding: 10px;">52,415ft (15,976.1m)</td></tr>
        <tr><td style="padding: 10px; border: solid 1px black;"><strong>Coordinates</strong></td><td style="border: solid 1px black; border-left: 0; padding: 10px;">40.03255, -103.73468333</td></tr>
        </table>
        ]]></description>
                    <styleUrl>#31</styleUrl>
                    <Point id="29">
                        <coordinates>-103.7346833333,40.03255,15976.09</coordinates>
                        <altitudeMode>absolute</altitudeMode>
                    </Point>
                </Placemark>
            </Folder>
        </Document>
    </Document>
</kml>
