<?xml version="1.0" encoding="UTF-8"?>
<kml xmlns="http://www.opengis.net/kml/2.2" xmlns:gx="http://www.google.com/kml/ext/2.2">
    <Document id="1">
        <Document id="2">
            <name>EOSS-351</name>
            <description><![CDATA[
    <h1>EOSS-351</h1>
    <table style="width: 100%;" cellpadding=0 cellspacing=0 border=0>
    <tr><td style="border: solid 1px black;border-bottom: 0; padding: 10px;"><strong>Launch Local Date/Time</strong></td><td style=" padding: 10px;border: solid 1px black;border-bottom: 0; border-left: 0;">2023-12-02 07:00:27</td></tr>
    <tr><td style="border: solid 1px black;border-bottom: 0; padding: 10px;"><strong>Flight Duration</strong></td><td style=" padding: 10px;border: solid 1px black;border-bottom: 0; border-left: 0; ">1hrs 33mins 18secs</td></tr>
    <tr><td style="border: solid 1px black;border-bottom: 0; padding: 10px;"><strong>Down Range Distance</strong></td><td style=" padding: 10px;border: solid 1px black;border-bottom: 0; border-left: 0; ">40.8mi (65.7km)</td></tr>
    <tr><td style="border: solid 1px black; padding: 10px;"><strong>Approx. Burst Altitude</strong></td><td style=" padding: 10px;border: solid 1px black; border-left: 0; ">67,108ft (20,454.5m)</td></tr>
    </table>
    ]]></description>
            <Folder id="3">
                <Style id="8">
                    <LineStyle id="9">
                        <color>ff0000ff</color>
                        <colorMode>normal</colorMode>
                        <width>3</width>
                    </LineStyle>
                </Style>
                <Style id="12">
                    <LineStyle id="13">
                        <color>ffff0000</color>
                        <colorMode>normal</colorMode>
                        <width>3</width>
                    </LineStyle>
                </Style>
                <name>Paths</name>
                <Placemark id="7">
                    <name>EOSS-351 Ascent</name>
                    <styleUrl>#8</styleUrl>
                    <LineString id="6">
                        <extrude>0</extrude>
                        <altitudeMode>absolute</altitudeMode>
                        <coordinates>-104.042,39.6084333333,1577.34 -104.0418333333,39.6083333333,1636.17 -104.0413333333,39.6081166667,1699.26 -104.0403333333,39.6073333333,1834.59 -104.0397,39.6069833333,1882.14 -104.0385,39.6063333333,2018.69 -104.0379333333,39.60585,2067.15 -104.0375,39.605,2212.85 -104.0376666667,39.6038333333,2436.27 -104.03745,39.6033166667,2489.3 -104.037,39.6026666667,2642.92 -104.0361333333,39.6022666667,2689.25 -104.0348333333,39.6013333333,2839.82 -104.0341,39.60085,2899.26 -104.0325,39.6001666667,3055.62 -104.0303333333,39.5985,3254.35 -104.0294166667,39.5980333333,3313.48 -104.0278333333,39.5968333333,3477.77 -104.0270166667,39.5958833333,3543.3 -104.0258333333,39.5945,3692.65 -104.0249666667,39.5936166667,3750.56 -104.0235,39.5923333333,3903.88 -104.0225166667,39.5914833333,3966.36 -104.0205,39.5901666667,4099.86 -104.0194333333,39.58945,4156.56 -104.0178333333,39.5883333333,4304.39 -104.0171166667,39.5876333333,4358.64 -104.0155,39.5866666667,4493.67 -104.0148666667,39.5861166667,4550.66 -104.0136666667,39.5853333333,4703.67 -104.01275,39.58485,4762.5 -104.0113333333,39.584,4913.07 -104.0098333333,39.583,5118.2 -104.008,39.5816666667,5326.08 -104.0069,39.58105,5383.68 -104.0055,39.5803333333,5529.07 -104.004,39.5795333333,5587.59 -104.0018333333,39.5788333333,5745.48 -104.0000166667,39.5786,5815.58 -103.9978333333,39.5781666667,5972.56 -103.9962833333,39.5777666667,6030.77 -103.994,39.5775,6188.35 -103.9924666667,39.57705,6253.89 -103.9895,39.5768333333,6401.71 -103.9880166667,39.5766833333,6468.77 -103.9855,39.5765,6632.45 -103.9836833333,39.57615,6690.97 -103.981,39.5765,6846.11 -103.9793833333,39.5766833333,6905.85 -103.9768333333,39.5771666667,7058.25 -103.9751333333,39.5777333333,7125.0 -103.9731666667,39.5788333333,7293.56 -103.9691666667,39.5813333333,7512.41 -103.96775,39.5823666667,7588.91 -103.9648333333,39.5843333333,7753.81 -103.9598333333,39.5868333333,7962.9 -103.9574833333,39.5875,8022.95 -103.954,39.5886666667,8178.39 -103.9517333333,39.5896,8239.96 -103.9473333333,39.5906666667,8398.46 -103.9445333333,39.5917166667,8467.95 -103.94,39.5935,8622.79 -103.9368,39.5945,8691.07 -103.9323333333,39.5958333333,8853.22 -103.9295333333,39.5965333333,8910.22 -103.9256666667,39.5973333333,9053.47 -103.9230166667,39.5976833333,9122.05 -103.9201666667,39.5981666667,9288.48 -103.9181666667,39.5987166667,9360.1 -103.9151666667,39.5998333333,9521.65 -103.91355,39.60115,9582.3 -103.91,39.603,9755.12 -103.90725,39.60435,9821.27 -103.903,39.6061666667,9984.94 -103.8998333333,39.60715,10059.31 -103.8948333333,39.6083333333,10210.19 -103.8916,39.6092833333,10269.32 -103.887,39.6103333333,10414.41 -103.8836666667,39.61135,10470.18 -103.8785,39.6126666667,10647.58 -103.8715,39.6155,10889.89 -103.86855,39.6166166667,10955.43 -103.8645,39.6178333333,11117.88 -103.8612166667,39.6187833333,11179.45 -103.8561666667,39.62,11345.57 -103.8526666667,39.6206333333,11411.41 -103.8468333333,39.6213333333,11576.91 -103.8427666667,39.6220166667,11649.46 -103.8373333333,39.6223333333,11832.95 -103.8341666667,39.6225166667,11895.43 -103.8298333333,39.6235,12062.16 -103.8268666667,39.6239166667,12121.59 -103.8225,39.6246666667,12290.45 -103.8199833333,39.6252333333,12350.5 -103.8155,39.6261666667,12523.32 -103.8129833333,39.6263833333,12584.58 -103.8091666667,39.627,12736.07 -103.8067166667,39.62755,12795.5 -103.803,39.6286666667,12952.48 -103.8007,39.6297833333,13023.49 -103.7965,39.6311666667,13177.42 -103.794,39.6318166667,13251.79 -103.7893333333,39.6326666667,13425.22 -103.7861,39.6331333333,13502.64 -103.7813333333,39.6341666667,13666.01 -103.7783666667,39.6353833333,13747.7 -103.7743333333,39.6371666667,13924.79 -103.7710166667,39.6383,13984.83 -103.7661666667,39.6403333333,14122.6 -103.7634166667,39.64155,14193.93 -103.7593333333,39.6433333333,14330.17 -103.7571333333,39.6447166667,14382.9 -103.7528333333,39.6465,14552.98 -103.75,39.64755,14613.94 -103.7465,39.6491666667,14766.04 -103.7444833333,39.6500166667,14839.8 -103.7413333333,39.651,14987.93 -103.74005,39.6516,15059.86 -103.7373333333,39.6525,15225.67 -103.7349333333,39.6534166667,15314.98 -103.7316666667,39.6545,15480.79 -103.72895,39.6554333333,15560.95 -103.7245,39.6571666667,15719.45 -103.72135,39.6580333333,15789.86 -103.7171666667,39.6596666667,15989.81 -103.7135333333,39.6610333333,16082.16 -103.708,39.6623333333,16276.62 -103.7045333333,39.6631166667,16358.01 -103.6986666667,39.6633333333,16550.94 -103.6951,39.66345,16616.17 -103.6893333333,39.6643333333,16736.57 -103.6857,39.6644833333,16799.05 -103.6811666667,39.6645,16949.93 -103.6790333333,39.6645666667,17022.17 -103.6755,39.6653333333,17158.11 -103.6732,39.6659666667,17216.02 -103.6706666667,39.666,17345.25 -103.66915,39.6661166667,17392.19 -103.6681666667,39.6663333333,17576.9 -103.66715,39.6667666667,17656.15 -103.666,39.6673333333,17798.49 -103.6650833333,39.6675833333,17860.37 -103.6635,39.6678333333,18027.7 -103.6618333333,39.66795,18096.28 -103.6598333333,39.6681666667,18231.0 -103.6589833333,39.6683666667,18326.4 -103.6576666667,39.6693333333,18522.09 -103.65625,39.66965,18619.32 -103.6543333333,39.671,18765.62 -103.6505,39.6733333333,19003.06 -103.6488666667,39.6741666667,19066.46 -103.6461666667,39.6753333333,19203.01 -103.6444666667,39.6760666667,19256.35 -103.642,39.677,19388.94 -103.6401666667,39.6771333333,19480.38 -103.6376666667,39.6768333333,19681.55 -103.6362833333,39.6766166667,19763.54 -103.6343333333,39.6761666667,19897.34 -103.6332,39.6758666667,19988.48 -103.6316666667,39.6758333333,20161.91 -103.63055,39.6763,20228.66 -103.6288333333,39.677,20380.45 -103.6281833333,39.6774333333,20454.52</coordinates>
                    </LineString>
                </Placemark>
                <Placemark id="11">
                    <name>EOSS-351 Descent</name>
                    <styleUrl>#12</styleUrl>
                    <LineString id="10">
                        <extrude>0</extrude>
                        <altitudeMode>absolute</altitudeMode>
                        <coordinates>-103.6281833333,39.6774333333,20454.52 -103.6276666667,39.678,20369.78 -103.6266166667,39.6786,20150.63 -103.6251666667,39.6785,19788.23 -103.6237,39.6783833333,19565.42 -103.6208333333,39.6791666667,19198.74 -103.6166666667,39.6813333333,18654.67 -103.6156833333,39.68175,18458.38 -103.6138333333,39.682,18163.64 -103.6128166667,39.6823,17981.37 -103.6116666667,39.6828333333,17716.8 -103.6091666667,39.6836666667,17239.18 -103.6071166667,39.6842,17043.2 -103.603,39.6841666667,16742.36 -103.5992833333,39.6845166667,16552.16 -103.5935,39.6845,16267.18 -103.5895333333,39.68525,16105.02 -103.5836666667,39.687,15855.7 -103.58045,39.68805,15702.99 -103.5755,39.6898333333,15501.82 -103.5691666667,39.692,15180.56 -103.56645,39.6930333333,15054.99 -103.5626666667,39.6951666667,14867.84 -103.56015,39.6962166667,14739.82 -103.5563333333,39.698,14556.94 -103.55415,39.69905,14423.75 -103.5506666667,39.7005,14231.42 -103.5484166667,39.7017166667,14097.91 -103.5455,39.7033333333,13908.63 -103.5439,39.7046,13778.79 -103.5406666667,39.7055,13586.46 -103.5385833333,39.7063333333,13453.57 -103.5355,39.7068333333,13261.54 -103.5301666667,39.7071666667,12952.48 -103.5280166667,39.70715,12832.69 -103.5253333333,39.7083333333,12674.5 -103.5237666667,39.7093166667,12557.46 -103.5201666667,39.7108333333,12399.26 -103.51775,39.7113333333,12286.49 -103.5135,39.7125,12141.1 -103.5101166667,39.7135,12031.37 -103.5051666667,39.7145,11890.86 -103.5020166667,39.7150833333,11775.34 -103.4966666667,39.7163333333,11627.82 -103.4861666667,39.7183333333,11358.98 -103.4815333333,39.7191166667,11241.33 -103.4756666667,39.7211666667,11092.59 -103.4722833333,39.7219666667,10977.37 -103.4668333333,39.7238333333,10831.68 -103.463,39.7255166667,10715.24 -103.4575,39.7275,10581.13 -103.4485,39.73,10338.21 -103.4398333333,39.733,10102.29 -103.4366333333,39.73425,9993.17 -103.4328333333,39.7363333333,9863.33 -103.4283333333,39.7396666667,9623.76 -103.4267,39.7410333333,9517.08 -103.4246666667,39.7425,9387.23 -103.4233333333,39.7429666667,9288.17 -103.421,39.7441666667,9159.24 -103.4165,39.7456666667,8944.05 -103.4143333333,39.7465,8846.21 -103.4108333333,39.7475,8736.48 -103.4036666667,39.7501666667,8538.67 -103.3958333333,39.7533333333,8348.47 -103.39325,39.7541666667,8256.12 -103.3888333333,39.7556666667,8157.06 -103.3865166667,39.75655,8065.92 -103.3823333333,39.7581666667,7961.07 -103.3801166667,39.7596166667,7872.07 -103.3761666667,39.7613333333,7765.69 -103.37425,39.7623833333,7673.95 -103.3711666667,39.7636666667,7569.4 -103.3694666667,39.7646166667,7477.05 -103.3661666667,39.7653333333,7377.99 -103.362,39.7663333333,7185.96 -103.3583333333,39.7668333333,6998.51 -103.3573,39.7668333333,6909.82 -103.3548333333,39.7663333333,6816.85 -103.3534666667,39.7664333333,6728.76 -103.3513333333,39.7658333333,6636.41 -103.3499333333,39.7658166667,6548.93 -103.3481666667,39.7653333333,6455.36 -103.3466,39.7652333333,6368.8 -103.345,39.7651666667,6279.49 -103.3436333333,39.7649333333,6193.84 -103.3423333333,39.7648333333,6107.28 -103.3395,39.7645,5941.47 -103.3386166667,39.7641,5857.65 -103.3366666667,39.7641666667,5774.13 -103.3335,39.7635,5610.76 -103.3325166667,39.7630333333,5527.55 -103.3305,39.7626666667,5443.73 -103.3296833333,39.7621,5356.56 -103.3278333333,39.7611666667,5276.7 -103.32695,39.7607666667,5196.54 -103.325,39.7596666667,5114.54 -103.3243166667,39.7594,5034.69 -103.3225,39.7586666667,4945.08 -103.32215,39.7582333333,4864.61 -103.3211666667,39.7581666667,4782.92 -103.3205166667,39.7582333333,4698.49 -103.3198333333,39.7583333333,4620.77 -103.3186666667,39.7585,4468.06 -103.3168333333,39.7578333333,4310.79 -103.3153333333,39.7576666667,4151.99 -103.314,39.7575,3997.45 -103.3128666667,39.7574,3916.38 -103.312,39.7566666667,3840.48 -103.3116,39.7565,3764.58 -103.31,39.7561666667,3687.17 -103.3094666667,39.7555666667,3613.4 -103.3086666667,39.7553333333,3540.86 -103.3066666667,39.7545,3396.69 -103.3051666667,39.7543333333,3254.96 -103.3043333333,39.7538333333,3111.4 -103.3031666667,39.7531666667,2976.07 -103.303,39.7528333333,2842.87 -103.3026666667,39.7518333333,2702.05 -103.302,39.7501666667,2558.8 -103.3016833333,39.7498833333,2485.34 -103.3003333333,39.7491666667,2422.86 -103.2991666667,39.7471666667,2283.87 -103.2984833333,39.7460833333,2208.28 -103.2971666667,39.7446666667,2136.65 -103.295,39.7411666667,1992.17 -103.29435,39.7397666667,1916.28 -103.2936666667,39.7378333333,1847.39 -103.2925,39.7358333333,1710.84 -103.2923,39.7350666667,1636.17 -103.2918333333,39.7346666667,1573.07 -103.2911666667,39.735,1515.16 -103.2911666667,39.735,1514.55 -103.2911666667,39.735,1513.64 -103.2911666667,39.735,1513.33 -103.2911666667,39.735,1513.94 -103.2911666667,39.735,1514.55 -103.2911666667,39.735,1513.94 -103.2911666667,39.735,1513.33 -103.2911666667,39.735,1513.33</coordinates>
                    </LineString>
                </Placemark>
            </Folder>
            <Folder id="4">
                <Style id="37">
                    <IconStyle id="38">
                        <color>ff0000ff</color>
                        <colorMode>normal</colorMode>
                        <scale>1</scale>
                        <heading>0</heading>
                        <Icon id="39">
                            <href>https://maps.google.com/mapfiles/kml/shapes/placemark_circle.png</href>
                        </Icon>
                    </IconStyle>
                </Style>
                <Style id="42">
                    <IconStyle id="43">
                        <color>ff0000ff</color>
                        <colorMode>normal</colorMode>
                        <scale>1</scale>
                        <heading>0</heading>
                        <Icon id="44">
                            <href>https://maps.google.com/mapfiles/kml/shapes/placemark_circle.png</href>
                        </Icon>
                    </IconStyle>
                </Style>
                <Style id="47">
                    <IconStyle id="48">
                        <color>ff0000ff</color>
                        <colorMode>normal</colorMode>
                        <scale>1</scale>
                        <heading>0</heading>
                        <Icon id="49">
                            <href>https://maps.google.com/mapfiles/kml/shapes/placemark_circle.png</href>
                        </Icon>
                    </IconStyle>
                </Style>
                <Style id="52">
                    <IconStyle id="53">
                        <color>ff0000ff</color>
                        <colorMode>normal</colorMode>
                        <scale>1</scale>
                        <heading>0</heading>
                        <Icon id="54">
                            <href>https://maps.google.com/mapfiles/kml/shapes/placemark_circle.png</href>
                        </Icon>
                    </IconStyle>
                </Style>
                <Style id="57">
                    <IconStyle id="58">
                        <color>ff0000ff</color>
                        <colorMode>normal</colorMode>
                        <scale>1</scale>
                        <heading>0</heading>
                        <Icon id="59">
                            <href>https://maps.google.com/mapfiles/kml/shapes/placemark_circle.png</href>
                        </Icon>
                    </IconStyle>
                </Style>
                <Style id="62">
                    <IconStyle id="63">
                        <color>ff0000ff</color>
                        <colorMode>normal</colorMode>
                        <scale>1</scale>
                        <heading>0</heading>
                        <Icon id="64">
                            <href>https://maps.google.com/mapfiles/kml/shapes/placemark_circle.png</href>
                        </Icon>
                    </IconStyle>
                </Style>
                <Style id="67">
                    <IconStyle id="68">
                        <color>ffff0000</color>
                        <colorMode>normal</colorMode>
                        <scale>1</scale>
                        <heading>0</heading>
                        <Icon id="69">
                            <href>https://maps.google.com/mapfiles/kml/shapes/placemark_circle.png</href>
                        </Icon>
                    </IconStyle>
                </Style>
                <Style id="72">
                    <IconStyle id="73">
                        <color>ffff0000</color>
                        <colorMode>normal</colorMode>
                        <scale>1</scale>
                        <heading>0</heading>
                        <Icon id="74">
                            <href>https://maps.google.com/mapfiles/kml/shapes/placemark_circle.png</href>
                        </Icon>
                    </IconStyle>
                </Style>
                <Style id="77">
                    <IconStyle id="78">
                        <color>ffff0000</color>
                        <colorMode>normal</colorMode>
                        <scale>1</scale>
                        <heading>0</heading>
                        <Icon id="79">
                            <href>https://maps.google.com/mapfiles/kml/shapes/placemark_circle.png</href>
                        </Icon>
                    </IconStyle>
                </Style>
                <Style id="82">
                    <IconStyle id="83">
                        <color>ffff0000</color>
                        <colorMode>normal</colorMode>
                        <scale>1</scale>
                        <heading>0</heading>
                        <Icon id="84">
                            <href>https://maps.google.com/mapfiles/kml/shapes/placemark_circle.png</href>
                        </Icon>
                    </IconStyle>
                </Style>
                <Style id="87">
                    <IconStyle id="88">
                        <color>ffff0000</color>
                        <colorMode>normal</colorMode>
                        <scale>1</scale>
                        <heading>0</heading>
                        <Icon id="89">
                            <href>https://maps.google.com/mapfiles/kml/shapes/placemark_circle.png</href>
                        </Icon>
                    </IconStyle>
                </Style>
                <Style id="92">
                    <IconStyle id="93">
                        <color>ffff0000</color>
                        <colorMode>normal</colorMode>
                        <scale>1</scale>
                        <heading>0</heading>
                        <Icon id="94">
                            <href>https://maps.google.com/mapfiles/kml/shapes/placemark_circle.png</href>
                        </Icon>
                    </IconStyle>
                </Style>
                <name>Waypoints</name>
                <Placemark id="36">
                    <name>10k</name>
                    <description><![CDATA[
        <h1>Waypoint</h1>
        <table style="width: 100%;" cellpadding=0 cellspacing=0 border=0>
        <tr><td style="padding: 10px; border: solid 1px black;border-bottom: 0;"><strong>Local Time</strong></td><td style="border: solid 1px black;border-left: 0; border-bottom: 0; padding: 10px;">07:04:15</td></tr>
        <tr><td style="padding: 10px; border: solid 1px black;border-bottom: 0;"><strong>Altitude</strong></td><td style="border: solid 1px black;border-left: 0; border-bottom: 0; padding: 10px;">10,025ft (3,055.6m)</td></tr>
        <tr><td style="padding: 10px; border: solid 1px black;"><strong>Coordinates</strong></td><td style="border: solid 1px black; border-left: 0; padding: 10px;">39.60016667, -104.0325</td></tr>
        </table>
        ]]></description>
                    <styleUrl>#37</styleUrl>
                    <Point id="35">
                        <coordinates>-104.0325,39.6001666667,3055.62</coordinates>
                        <altitudeMode>absolute</altitudeMode>
                    </Point>
                </Placemark>
                <Placemark id="41">
                    <name>20k</name>
                    <description><![CDATA[
        <h1>Waypoint</h1>
        <table style="width: 100%;" cellpadding=0 cellspacing=0 border=0>
        <tr><td style="padding: 10px; border: solid 1px black;border-bottom: 0;"><strong>Local Time</strong></td><td style="border: solid 1px black;border-left: 0; border-bottom: 0; padding: 10px;">07:11:27</td></tr>
        <tr><td style="padding: 10px; border: solid 1px black;border-bottom: 0;"><strong>Altitude</strong></td><td style="border: solid 1px black;border-left: 0; border-bottom: 0; padding: 10px;">19,786ft (6,030.8m)</td></tr>
        <tr><td style="padding: 10px; border: solid 1px black;"><strong>Coordinates</strong></td><td style="border: solid 1px black; border-left: 0; padding: 10px;">39.57776667, -103.99628333</td></tr>
        </table>
        ]]></description>
                    <styleUrl>#42</styleUrl>
                    <Point id="40">
                        <coordinates>-103.9962833333,39.5777666667,6030.77</coordinates>
                        <altitudeMode>absolute</altitudeMode>
                    </Point>
                </Placemark>
                <Placemark id="46">
                    <name>30k</name>
                    <description><![CDATA[
        <h1>Waypoint</h1>
        <table style="width: 100%;" cellpadding=0 cellspacing=0 border=0>
        <tr><td style="padding: 10px; border: solid 1px black;border-bottom: 0;"><strong>Local Time</strong></td><td style="border: solid 1px black;border-left: 0; border-bottom: 0; padding: 10px;">07:18:27</td></tr>
        <tr><td style="padding: 10px; border: solid 1px black;border-bottom: 0;"><strong>Altitude</strong></td><td style="border: solid 1px black;border-left: 0; border-bottom: 0; padding: 10px;">29,928ft (9,122.0m)</td></tr>
        <tr><td style="padding: 10px; border: solid 1px black;"><strong>Coordinates</strong></td><td style="border: solid 1px black; border-left: 0; padding: 10px;">39.59768333, -103.92301667</td></tr>
        </table>
        ]]></description>
                    <styleUrl>#47</styleUrl>
                    <Point id="45">
                        <coordinates>-103.9230166667,39.5976833333,9122.05</coordinates>
                        <altitudeMode>absolute</altitudeMode>
                    </Point>
                </Placemark>
                <Placemark id="51">
                    <name>40k</name>
                    <description><![CDATA[
        <h1>Waypoint</h1>
        <table style="width: 100%;" cellpadding=0 cellspacing=0 border=0>
        <tr><td style="padding: 10px; border: solid 1px black;border-bottom: 0;"><strong>Local Time</strong></td><td style="border: solid 1px black;border-left: 0; border-bottom: 0; padding: 10px;">07:24:57</td></tr>
        <tr><td style="padding: 10px; border: solid 1px black;border-bottom: 0;"><strong>Altitude</strong></td><td style="border: solid 1px black;border-left: 0; border-bottom: 0; padding: 10px;">39,769ft (12,121.6m)</td></tr>
        <tr><td style="padding: 10px; border: solid 1px black;"><strong>Coordinates</strong></td><td style="border: solid 1px black; border-left: 0; padding: 10px;">39.62391667, -103.82686667</td></tr>
        </table>
        ]]></description>
                    <styleUrl>#52</styleUrl>
                    <Point id="50">
                        <coordinates>-103.8268666667,39.6239166667,12121.59</coordinates>
                        <altitudeMode>absolute</altitudeMode>
                    </Point>
                </Placemark>
                <Placemark id="56">
                    <name>50k</name>
                    <description><![CDATA[
        <h1>Waypoint</h1>
        <table style="width: 100%;" cellpadding=0 cellspacing=0 border=0>
        <tr><td style="padding: 10px; border: solid 1px black;border-bottom: 0;"><strong>Local Time</strong></td><td style="border: solid 1px black;border-left: 0; border-bottom: 0; padding: 10px;">07:31:45</td></tr>
        <tr><td style="padding: 10px; border: solid 1px black;border-bottom: 0;"><strong>Altitude</strong></td><td style="border: solid 1px black;border-left: 0; border-bottom: 0; padding: 10px;">49,953ft (15,225.7m)</td></tr>
        <tr><td style="padding: 10px; border: solid 1px black;"><strong>Coordinates</strong></td><td style="border: solid 1px black; border-left: 0; padding: 10px;">39.6525, -103.73733333</td></tr>
        </table>
        ]]></description>
                    <styleUrl>#57</styleUrl>
                    <Point id="55">
                        <coordinates>-103.7373333333,39.6525,15225.67</coordinates>
                        <altitudeMode>absolute</altitudeMode>
                    </Point>
                </Placemark>
                <Placemark id="61">
                    <name>60k</name>
                    <description><![CDATA[
        <h1>Waypoint</h1>
        <table style="width: 100%;" cellpadding=0 cellspacing=0 border=0>
        <tr><td style="padding: 10px; border: solid 1px black;border-bottom: 0;"><strong>Local Time</strong></td><td style="border: solid 1px black;border-left: 0; border-bottom: 0; padding: 10px;">07:38:27</td></tr>
        <tr><td style="padding: 10px; border: solid 1px black;border-bottom: 0;"><strong>Altitude</strong></td><td style="border: solid 1px black;border-left: 0; border-bottom: 0; padding: 10px;">60,126ft (18,326.4m)</td></tr>
        <tr><td style="padding: 10px; border: solid 1px black;"><strong>Coordinates</strong></td><td style="border: solid 1px black; border-left: 0; padding: 10px;">39.66836667, -103.65898333</td></tr>
        </table>
        ]]></description>
                    <styleUrl>#62</styleUrl>
                    <Point id="60">
                        <coordinates>-103.6589833333,39.6683666667,18326.4</coordinates>
                        <altitudeMode>absolute</altitudeMode>
                    </Point>
                </Placemark>
                <Placemark id="66">
                    <name>10k</name>
                    <description><![CDATA[
        <h1>Waypoint</h1>
        <table style="width: 100%;" cellpadding=0 cellspacing=0 border=0>
        <tr><td style="padding: 10px; border: solid 1px black;border-bottom: 0;"><strong>Local Time</strong></td><td style="border: solid 1px black;border-left: 0; border-bottom: 0; padding: 10px;">08:17:15</td></tr>
        <tr><td style="padding: 10px; border: solid 1px black;border-bottom: 0;"><strong>Altitude</strong></td><td style="border: solid 1px black;border-left: 0; border-bottom: 0; padding: 10px;">10,208ft (3,111.4m)</td></tr>
        <tr><td style="padding: 10px; border: solid 1px black;"><strong>Coordinates</strong></td><td style="border: solid 1px black; border-left: 0; padding: 10px;">39.75383333, -103.30433333</td></tr>
        </table>
        ]]></description>
                    <styleUrl>#67</styleUrl>
                    <Point id="65">
                        <coordinates>-103.3043333333,39.7538333333,3111.4</coordinates>
                        <altitudeMode>absolute</altitudeMode>
                    </Point>
                </Placemark>
                <Placemark id="71">
                    <name>20k</name>
                    <description><![CDATA[
        <h1>Waypoint</h1>
        <table style="width: 100%;" cellpadding=0 cellspacing=0 border=0>
        <tr><td style="padding: 10px; border: solid 1px black;border-bottom: 0;"><strong>Local Time</strong></td><td style="border: solid 1px black;border-left: 0; border-bottom: 0; padding: 10px;">08:07:45</td></tr>
        <tr><td style="padding: 10px; border: solid 1px black;border-bottom: 0;"><strong>Altitude</strong></td><td style="border: solid 1px black;border-left: 0; border-bottom: 0; padding: 10px;">20,037ft (6,107.3m)</td></tr>
        <tr><td style="padding: 10px; border: solid 1px black;"><strong>Coordinates</strong></td><td style="border: solid 1px black; border-left: 0; padding: 10px;">39.76483333, -103.34233333</td></tr>
        </table>
        ]]></description>
                    <styleUrl>#72</styleUrl>
                    <Point id="70">
                        <coordinates>-103.3423333333,39.7648333333,6107.28</coordinates>
                        <altitudeMode>absolute</altitudeMode>
                    </Point>
                </Placemark>
                <Placemark id="76">
                    <name>30k</name>
                    <description><![CDATA[
        <h1>Waypoint</h1>
        <table style="width: 100%;" cellpadding=0 cellspacing=0 border=0>
        <tr><td style="padding: 10px; border: solid 1px black;border-bottom: 0;"><strong>Local Time</strong></td><td style="border: solid 1px black;border-left: 0; border-bottom: 0; padding: 10px;">07:59:45</td></tr>
        <tr><td style="padding: 10px; border: solid 1px black;border-bottom: 0;"><strong>Altitude</strong></td><td style="border: solid 1px black;border-left: 0; border-bottom: 0; padding: 10px;">30,050ft (9,159.2m)</td></tr>
        <tr><td style="padding: 10px; border: solid 1px black;"><strong>Coordinates</strong></td><td style="border: solid 1px black; border-left: 0; padding: 10px;">39.74416667, -103.421</td></tr>
        </table>
        ]]></description>
                    <styleUrl>#77</styleUrl>
                    <Point id="75">
                        <coordinates>-103.421,39.7441666667,9159.24</coordinates>
                        <altitudeMode>absolute</altitudeMode>
                    </Point>
                </Placemark>
                <Placemark id="81">
                    <name>40k</name>
                    <description><![CDATA[
        <h1>Waypoint</h1>
        <table style="width: 100%;" cellpadding=0 cellspacing=0 border=0>
        <tr><td style="padding: 10px; border: solid 1px black;border-bottom: 0;"><strong>Local Time</strong></td><td style="border: solid 1px black;border-left: 0; border-bottom: 0; padding: 10px;">07:53:45</td></tr>
        <tr><td style="padding: 10px; border: solid 1px black;border-bottom: 0;"><strong>Altitude</strong></td><td style="border: solid 1px black;border-left: 0; border-bottom: 0; padding: 10px;">39,833ft (12,141.1m)</td></tr>
        <tr><td style="padding: 10px; border: solid 1px black;"><strong>Coordinates</strong></td><td style="border: solid 1px black; border-left: 0; padding: 10px;">39.7125, -103.5135</td></tr>
        </table>
        ]]></description>
                    <styleUrl>#82</styleUrl>
                    <Point id="80">
                        <coordinates>-103.5135,39.7125,12141.1</coordinates>
                        <altitudeMode>absolute</altitudeMode>
                    </Point>
                </Placemark>
                <Placemark id="86">
                    <name>50k</name>
                    <description><![CDATA[
        <h1>Waypoint</h1>
        <table style="width: 100%;" cellpadding=0 cellspacing=0 border=0>
        <tr><td style="padding: 10px; border: solid 1px black;border-bottom: 0;"><strong>Local Time</strong></td><td style="border: solid 1px black;border-left: 0; border-bottom: 0; padding: 10px;">07:48:45</td></tr>
        <tr><td style="padding: 10px; border: solid 1px black;border-bottom: 0;"><strong>Altitude</strong></td><td style="border: solid 1px black;border-left: 0; border-bottom: 0; padding: 10px;">49,805ft (15,180.6m)</td></tr>
        <tr><td style="padding: 10px; border: solid 1px black;"><strong>Coordinates</strong></td><td style="border: solid 1px black; border-left: 0; padding: 10px;">39.692, -103.56916667</td></tr>
        </table>
        ]]></description>
                    <styleUrl>#87</styleUrl>
                    <Point id="85">
                        <coordinates>-103.5691666667,39.692,15180.56</coordinates>
                        <altitudeMode>absolute</altitudeMode>
                    </Point>
                </Placemark>
                <Placemark id="91">
                    <name>60k</name>
                    <description><![CDATA[
        <h1>Waypoint</h1>
        <table style="width: 100%;" cellpadding=0 cellspacing=0 border=0>
        <tr><td style="padding: 10px; border: solid 1px black;border-bottom: 0;"><strong>Local Time</strong></td><td style="border: solid 1px black;border-left: 0; border-bottom: 0; padding: 10px;">07:45:15</td></tr>
        <tr><td style="padding: 10px; border: solid 1px black;border-bottom: 0;"><strong>Altitude</strong></td><td style="border: solid 1px black;border-left: 0; border-bottom: 0; padding: 10px;">59,592ft (18,163.6m)</td></tr>
        <tr><td style="padding: 10px; border: solid 1px black;"><strong>Coordinates</strong></td><td style="border: solid 1px black; border-left: 0; padding: 10px;">39.682, -103.61383333</td></tr>
        </table>
        ]]></description>
                    <styleUrl>#92</styleUrl>
                    <Point id="90">
                        <coordinates>-103.6138333333,39.682,18163.64</coordinates>
                        <altitudeMode>absolute</altitudeMode>
                    </Point>
                </Placemark>
            </Folder>
            <Folder id="5">
                <Style id="16">
                    <IconStyle id="17">
                        <color>ff008cff</color>
                        <colorMode>normal</colorMode>
                        <scale>1</scale>
                        <heading>0</heading>
                        <Icon id="18">
                            <href>https://maps.google.com/mapfiles/kml/shapes/placemark_circle.png</href>
                        </Icon>
                    </IconStyle>
                </Style>
                <Style id="21">
                    <IconStyle id="22">
                        <color>ff008cff</color>
                        <colorMode>normal</colorMode>
                        <scale>1</scale>
                        <heading>0</heading>
                        <Icon id="23">
                            <href>https://maps.google.com/mapfiles/kml/shapes/placemark_circle.png</href>
                        </Icon>
                    </IconStyle>
                </Style>
                <Style id="26">
                    <IconStyle id="27">
                        <color>ff00ffff</color>
                        <colorMode>normal</colorMode>
                        <scale>1</scale>
                        <heading>0</heading>
                        <Icon id="28">
                            <href>https://maps.google.com/mapfiles/kml/shapes/placemark_circle.png</href>
                        </Icon>
                    </IconStyle>
                </Style>
                <Style id="31">
                    <IconStyle id="32">
                        <color>ff006400</color>
                        <colorMode>normal</colorMode>
                        <scale>1</scale>
                        <heading>0</heading>
                        <Icon id="33">
                            <href>https://maps.google.com/mapfiles/kml/shapes/placemark_circle.png</href>
                        </Icon>
                    </IconStyle>
                    <LabelStyle id="34">
                        <color>ff006400</color>
                        <colorMode>normal</colorMode>
                        <scale>1</scale>
                    </LabelStyle>
                </Style>
                <name>Points of Interest</name>
                <Placemark id="15">
                    <name>Launch</name>
                    <description><![CDATA[
    <h1>Launch</h1>
    <table style="width: 100%;" cellpadding=0 cellspacing=0 border=0>
    <tr><td style="padding: 10px; border: solid 1px black;border-bottom: 0;"><strong>Local Time</strong></td><td style="border: solid 1px black;border-bottom: 0; border-left: 0; padding: 10px;">07:00:27</td></tr>
    <tr><td style="padding: 10px; border: solid 1px black;border-bottom: 0;"><strong>Altitude</strong></td><td style="border: solid 1px black;border-left: 0; border-bottom: 0; padding: 10px;">5,175ft (1,577.3m)</td></tr>
    <tr><td style="padding: 10px; border: solid 1px black;"><strong>Coordinates</strong></td><td style="border: solid 1px black; border-left: 0; padding: 10px;">39.60843333, -104.042</td></tr>
    </table>
    ]]></description>
                    <styleUrl>#16</styleUrl>
                    <Point id="14">
                        <coordinates>-104.042,39.6084333333,1577.34</coordinates>
                        <altitudeMode>absolute</altitudeMode>
                    </Point>
                </Placemark>
                <Placemark id="20">
                    <name>Landing</name>
                    <description><![CDATA[
    <h1>Landing</h1>
    <table style="width: 100%;" cellpadding=0 cellspacing=0 border=0>
    <tr><td style="padding: 10px; border: solid 1px black;border-bottom: 0;"><strong>Local Time</strong></td><td style="border: solid 1px black;border-left: 0; border-bottom: 0; padding: 10px;">08:33:45</td></tr>
    <tr><td style="padding: 10px; border: solid 1px black;border-bottom: 0;"><strong>Altitude</strong></td><td style="border: solid 1px black;border-bottom: 0; border-left: 0; padding: 10px;">4,965ft (1,513.3m)</td></tr>
    <tr><td style="padding: 10px; border: solid 1px black;"><strong>Coordinates</strong></td><td style="border: solid 1px black; border-left: 0; padding: 10px;">39.735, -103.29116667</td></tr>
    </table>
    ]]></description>
                    <styleUrl>#21</styleUrl>
                    <Point id="19">
                        <coordinates>-103.2911666667,39.735,1513.33</coordinates>
                        <altitudeMode>absolute</altitudeMode>
                    </Point>
                </Placemark>
                <Placemark id="25">
                    <name>Burst 67,108ft</name>
                    <description><![CDATA[
    <h1>Burst: 67,108ft</h1>
    <table style="width: 100%;" cellpadding=0 cellspacing=0 border=0>
    <tr><td style="padding: 10px; border: solid 1px black;border-bottom: 0;"><strong>Local Time</strong></td><td style="border: solid 1px black;border-left: 0; border-bottom: 0; padding: 10px;">07:42:57</td></tr>
    <tr><td style="padding: 10px; border: solid 1px black;border-bottom: 0;"><strong>Altitude</strong></td><td style="border: solid 1px black;border-left: 0; border-bottom: 0; padding: 10px;">67,108ft (20,454.5m)</td></tr>
    <tr><td style="padding: 10px; border: solid 1px black;"><strong>Coordinates</strong></td><td style="border: solid 1px black; border-left: 0; padding: 10px;">39.67743333, -103.62818333</td></tr>
    </table>
    ]]></description>
                    <styleUrl>#26</styleUrl>
                    <Point id="24">
                        <coordinates>-103.6281833333,39.6774333333,20454.52</coordinates>
                        <altitudeMode>absolute</altitudeMode>
                    </Point>
                </Placemark>
                <Placemark id="30">
                    <name>30k, Laminar-to-Turbulent</name>
                    <description><![CDATA[
        <h1>Airflow Transitioning from Laminar-to-Turbulent</h1>
        <table style="width: 100%;" cellpadding=0 cellspacing=0 border=0>
        <tr><td style="padding: 10px; border: solid 1px black;border-bottom: 0;"><strong>Local Time</strong></td><td style="border: solid 1px black;border-left: 0; border-bottom: 0; padding: 10px;">07:18:27</td></tr>
        <tr><td style="padding: 10px; border: solid 1px black;border-bottom: 0;"><strong>Altitude</strong></td><td style="border: solid 1px black;border-left: 0; border-bottom: 0; padding: 10px;">29,928ft (9,122.0m)</td></tr>
        <tr><td style="padding: 10px; border: solid 1px black;"><strong>Coordinates</strong></td><td style="border: solid 1px black; border-left: 0; padding: 10px;">39.59768333, -103.92301667</td></tr>
        </table>
        ]]></description>
                    <styleUrl>#31</styleUrl>
                    <Point id="29">
                        <coordinates>-103.9230166667,39.5976833333,9122.05</coordinates>
                        <altitudeMode>absolute</altitudeMode>
                    </Point>
                </Placemark>
            </Folder>
        </Document>
    </Document>
</kml>
