<?xml version="1.0" encoding="UTF-8"?>
<kml xmlns="http://www.opengis.net/kml/2.2" xmlns:gx="http://www.google.com/kml/ext/2.2">
    <Document id="1">
        <Document id="2">
            <name>EOSS-324</name>
            <description><![CDATA[
    <h1>EOSS-324</h1>
    <table style="width: 100%;" cellpadding=0 cellspacing=0 border=0>
    <tr><td style="border: solid 1px black;border-bottom: 0; padding: 10px;"><strong>Launch Local Date/Time</strong></td><td style=" padding: 10px;border: solid 1px black;border-bottom: 0; border-left: 0;">2022-04-09 07:16:43</td></tr>
    <tr><td style="border: solid 1px black;border-bottom: 0; padding: 10px;"><strong>Flight Duration</strong></td><td style=" padding: 10px;border: solid 1px black;border-bottom: 0; border-left: 0; ">2hrs 10mins 24secs</td></tr>
    <tr><td style="border: solid 1px black;border-bottom: 0; padding: 10px;"><strong>Down Range Distance</strong></td><td style=" padding: 10px;border: solid 1px black;border-bottom: 0; border-left: 0; ">52.0mi (83.7km)</td></tr>
    <tr><td style="border: solid 1px black; padding: 10px;"><strong>Approx. Burst Altitude</strong></td><td style=" padding: 10px;border: solid 1px black; border-left: 0; ">92,462ft (28,182.4m)</td></tr>
    </table>
    ]]></description>
            <Folder id="3">
                <Style id="8">
                    <LineStyle id="9">
                        <color>ff0000ff</color>
                        <colorMode>normal</colorMode>
                        <width>3</width>
                    </LineStyle>
                </Style>
                <Style id="12">
                    <LineStyle id="13">
                        <color>ffff0000</color>
                        <colorMode>normal</colorMode>
                        <width>3</width>
                    </LineStyle>
                </Style>
                <name>Paths</name>
                <Placemark id="7">
                    <name>EOSS-324 Ascent</name>
                    <styleUrl>#8</styleUrl>
                    <LineString id="6">
                        <extrude>0</extrude>
                        <altitudeMode>absolute</altitudeMode>
                        <coordinates>-104.0413333333,39.6076666667,1590.45 -104.0413333333,39.6078333333,1601.72 -104.04,39.6088333333,1734.62 -104.0383333333,39.6091666667,1800.15 -104.0358333333,39.609,1902.26 -104.035,39.6088333333,1939.44 -104.0348333333,39.6088333333,1950.11 -104.0323333333,39.6083333333,2069.9 -104.029,39.6076666667,2244.55 -104.0276666667,39.6068333333,2338.43 -104.0256666667,39.606,2420.42 -104.0245,39.6056666667,2478.63 -104.0243333333,39.6056666667,2491.44 -104.0215,39.6041666667,2612.44 -104.0181666667,39.6023333333,2766.97 -104.0173333333,39.6016666667,2798.67 -104.0151666667,39.6003333333,2926.69 -104.0138333333,39.5993333333,3005.63 -104.0126666667,39.5981666667,3100.73 -104.0113333333,39.5966666667,3189.12 -104.0091666667,39.5946666667,3370.17 -104.009,39.5941666667,3395.47 -104.0076666667,39.5926666667,3526.54 -104.0075,39.5925,3539.34 -104.007,39.5916666667,3578.66 -104.0045,39.5891666667,3753.31 -104.0023333333,39.587,3938.63 -104.0023333333,39.5868333333,3934.36 -104.0,39.585,4088.28 -104.0,39.5848333333,4094.68 -103.9995,39.5845,4114.19 -103.9971666667,39.5816666667,4282.74 -103.9966666667,39.5808333333,4333.95 -103.9945,39.579,4466.84 -103.9943333333,39.579,4484.52 -103.9941666667,39.5788333333,4497.93 -103.9911666667,39.576,4646.98 -103.9875,39.5733333333,4818.89 -103.9865,39.5723333333,4880.46 -103.9843333333,39.5711666667,4973.73 -103.984,39.5708333333,5010.3 -103.9836666667,39.5706666667,5024.02 -103.9813333333,39.5693333333,5147.16 -103.9791666667,39.5681666667,5269.38 -103.978,39.5673333333,5337.35 -103.9748333333,39.5653333333,5545.23 -103.9738333333,39.5648333333,5614.11 -103.9736666667,39.5648333333,5619.6 -103.9713333333,39.5636666667,5757.98 -103.9691666667,39.5625,5923.48 -103.968,39.5618333333,5964.33 -103.9663333333,39.5606666667,6081.37 -103.9663333333,39.5605,6088.08 -103.9648333333,39.5598333333,6165.8 -103.9611666667,39.5575,6394.7 -103.9576666667,39.5561666667,6570.57 -103.9571666667,39.5558333333,6588.25 -103.9543333333,39.5545,6719.93 -103.954,39.5543333333,6734.25 -103.953,39.5538333333,6782.1 -103.9486666667,39.5523333333,6991.81 -103.9483333333,39.5521666667,7022.59 -103.9431666667,39.5516666667,7175.6 -103.939,39.5508333333,7330.44 -103.9386666667,39.5508333333,7340.5 -103.9375,39.5508333333,7362.75 -103.9321666667,39.5498333333,7541.36 -103.9306666667,39.5495,7607.2 -103.9261666667,39.5486666667,7719.67 -103.9258333333,39.5485,7745.88 -103.9256666667,39.5485,7752.28 -103.92,39.5473333333,7908.65 -103.9126666667,39.546,8085.73 -103.9103333333,39.5453333333,8161.93 -103.9046666667,39.5448333333,8282.94 -103.9038333333,39.5446666667,8320.74 -103.9033333333,39.5446666667,8335.98 -103.8961666667,39.544,8479.23 -103.8915,39.5433333333,8602.07 -103.888,39.5431666667,8681.92 -103.8846666667,39.5428333333,8786.47 -103.8798333333,39.5425,8883.4 -103.8708333333,39.5418333333,9085.78 -103.865,39.5411666667,9244.28 -103.862,39.541,9304.93 -103.8576666667,39.5406666667,9437.52 -103.8571666667,39.5406666667,9453.07 -103.853,39.5406666667,9537.19 -103.8436666667,39.5395,9719.16 -103.8373333333,39.5391666667,9886.49 -103.8346666667,39.539,9930.99 -103.8295,39.5388333333,10077.6 -103.8291666667,39.5388333333,10082.17 -103.8256666667,39.5388333333,10153.19 -103.8163333333,39.5388333333,10382.71 -103.816,39.5386666667,10407.4 -103.809,39.5388333333,10565.89 -103.8085,39.5388333333,10577.17 -103.8075,39.5388333333,10583.57 -103.798,39.5391666667,10792.05 -103.7878333333,39.5388333333,11009.07 -103.7865,39.539,11041.08 -103.778,39.539,11195.61 -103.7773333333,39.539,11209.63 -103.7771666667,39.5391666667,11200.49 -103.7666666667,39.5386666667,11425.73 -103.7628333333,39.5383333333,11519.61 -103.7565,39.5378333333,11619.89 -103.7458333333,39.5368333333,11856.42 -103.7458333333,39.5368333333,11841.18 -103.7451666667,39.5366666667,11872.87 -103.7358333333,39.5356666667,12045.09 -103.7308333333,39.5353333333,12152.07 -103.7256666667,39.535,12244.12 -103.7233333333,39.5348333333,12312.4 -103.7226666667,39.535,12326.42 -103.7155,39.5348333333,12447.42 -103.7056666667,39.5346666667,12582.14 -103.7005,39.5343333333,12665.05 -103.6956666667,39.5341666667,12707.11 -103.6926666667,39.5338333333,12753.75 -103.692,39.5336666667,12761.06 -103.6858333333,39.533,12818.97 -103.6773333333,39.5313333333,13001.85 -103.673,39.5303333333,13117.07 -103.67,39.5296666667,13177.11 -103.6676666667,39.529,13256.06 -103.6675,39.529,13264.59 -103.664,39.528,13416.08 -103.6591666667,39.5268333333,13586.76 -103.658,39.5265,13601.09 -103.6555,39.5256666667,13738.25 -103.6541666667,39.5253333333,13799.21 -103.6518333333,39.5253333333,13929.97 -103.649,39.5255,14040.61 -103.643,39.525,14218.62 -103.6418333333,39.525,14230.2 -103.637,39.525,14407.9 -103.6366666667,39.525,14413.99 -103.6348333333,39.5246666667,14455.14 -103.6273333333,39.5241666667,14716.66 -103.6191666667,39.5245,14869.67 -103.6185,39.5246666667,14868.75 -103.6131666667,39.524,15012.31 -103.613,39.524,15019.63 -103.6113333333,39.524,15059.56 -103.6051666667,39.523,15192.76 -103.6045,39.5228333333,15222.02 -103.6003333333,39.5218333333,15371.98 -103.5968333333,39.5201666667,15489.94 -103.5965,39.52,15501.21 -103.5956666667,39.5198333333,15526.82 -103.593,39.5178333333,15746.58 -103.5923333333,39.5175,15790.47 -103.5896666667,39.5166666667,15893.19 -103.5896666667,39.5166666667,15880.99 -103.5895,39.5165,15902.33 -103.5863333333,39.5155,16009.92 -103.5833333333,39.5143333333,16144.34 -103.5825,39.5141666667,16188.23 -103.58,39.5136666667,16292.17 -103.5798333333,39.5136666667,16309.85 -103.5796666667,39.5135,16320.82 -103.5751666667,39.5126666667,16438.47 -103.5728333333,39.512,16507.97 -103.5695,39.5113333333,16572.28 -103.5638333333,39.511,16719.5 -103.5633333333,39.511,16745.41 -103.5631666667,39.511,16749.67 -103.5588333333,39.511,16838.68 -103.5563333333,39.511,16921.28 -103.554,39.511,16967.3 -103.5526666667,39.5108333333,17020.03 -103.5523333333,39.5106666667,17027.96 -103.55,39.5103333333,17094.1 -103.5476666667,39.5103333333,17300.75 -103.546,39.5096666667,17456.81 -103.5448333333,39.5098333333,17533.92 -103.5438333333,39.5093333333,17618.66 -103.5436666667,39.5093333333,17624.45 -103.5425,39.509,17695.77 -103.5396666667,39.5083333333,17882.01 -103.5375,39.5078333333,17979.85 -103.5361666667,39.5076666667,18029.53 -103.5351666667,39.5073333333,18100.24 -103.535,39.5071666667,18107.25 -103.5333333333,39.5065,18169.13 -103.531,39.506,18295.32 -103.5306666667,39.506,18312.99 -103.5293333333,39.5055,18411.44 -103.5288333333,39.5055,18459.6 -103.5276666667,39.5058333333,18578.78 -103.5266666667,39.506,18648.27 -103.5243333333,39.5063333333,18785.13 -103.5241666667,39.5065,18789.4 -103.5225,39.5065,18909.49 -103.5223333333,39.5065,18914.97 -103.5218333333,39.5065,18942.1 -103.52,39.5056666667,19092.37 -103.5191666667,39.505,19242.02 -103.5193333333,39.505,19243.85 -103.5188333333,39.5048333333,19338.65 -103.5188333333,39.5048333333,19342.91 -103.5186666667,39.5048333333,19371.26 -103.5173333333,39.5043333333,19497.75 -103.517,39.5043333333,19528.23 -103.5158333333,39.5045,19628.21 -103.5141666667,39.5048333333,19740.37 -103.5141666667,39.5048333333,19744.64 -103.5136666667,39.505,19759.57 -103.511,39.5051666667,19897.95 -103.5106666667,39.5048333333,19935.14 -103.5091666667,39.504,20043.34 -103.5093333333,39.504,20032.68 -103.5091666667,39.5038333333,20052.49 -103.5085,39.502,20171.05 -103.509,39.5005,20314.31 -103.5091666667,39.5003333333,20363.99 -103.5098333333,39.5006666667,20465.19 -103.5098333333,39.5006666667,20487.44 -103.5098333333,39.5008333333,20493.53 -103.5096666667,39.5013333333,20629.47 -103.5095,39.501,20634.96 -103.5093333333,39.5008333333,20779.13 -103.5103333333,39.5,20919.95 -103.5105,39.4998333333,20866.61 -103.5106666667,39.4998333333,20878.5 -103.5121666667,39.5003333333,21061.98 -103.5126666667,39.5005,21069.0 -103.5128333333,39.5006666667,21198.84 -103.5128333333,39.5005,21146.72 -103.513,39.5005,21151.29 -103.5121666667,39.5006666667,21337.83 -103.5103333333,39.5001666667,21477.73 -103.51,39.4991666667,21497.24 -103.5096666667,39.499,21617.03 -103.5098333333,39.4985,21606.05 -103.5098333333,39.4985,21613.06 -103.5096666667,39.4988333333,21765.16 -103.5091666667,39.4986666667,21912.07 -103.5095,39.4981666667,22048.93 -103.5098333333,39.4975,21985.83 -103.5098333333,39.4975,21993.45 -103.5093333333,39.4973333333,22189.74 -103.5086666667,39.4966666667,22254.67 -103.5086666667,39.4966666667,22328.12 -103.509,39.4963333333,22464.98 -103.5093333333,39.4956666667,22359.82 -103.5098333333,39.4955,22599.4 -103.5108333333,39.4948333333,22702.72 -103.511,39.4948333333,22731.98 -103.5116666667,39.4946666667,22828.61 -103.5118333333,39.4946666667,22839.27 -103.5123333333,39.4945,22872.5 -103.5143333333,39.494,23010.88 -103.5155,39.4938333333,23158.4 -103.5156666667,39.494,23157.18 -103.5168333333,39.4936666667,23280.62 -103.5168333333,39.4936666667,23285.81 -103.5173333333,39.4938333333,23310.49 -103.5181666667,39.4941666667,23457.71 -103.5181666667,39.494,23418.7 -103.5186666667,39.4938333333,23605.85 -103.5191666667,39.4928333333,23651.26 -103.5193333333,39.4928333333,23668.02 -103.5193333333,39.4926666667,23751.84 -103.5208333333,39.4915,23892.05 -103.5213333333,39.4911666667,23887.79 -103.5223333333,39.4905,24034.7 -103.5223333333,39.4905,24036.22 -103.5223333333,39.4903333333,24046.28 -103.524,39.4901666667,24176.13 -103.5246666667,39.4901666667,24321.21 -103.5246666667,39.4898333333,24326.7 -103.5246666667,39.4895,24477.88 -103.5245,39.4891666667,24468.43 -103.5245,39.489,24479.1 -103.5245,39.4886666667,24616.87 -103.5243333333,39.4881666667,24667.16 -103.5243333333,39.4875,24762.26 -103.5241666667,39.4858333333,24907.65 -103.5241666667,39.4853333333,24938.43 -103.5241666667,39.4853333333,24948.49 -103.525,39.4843333333,25050.6 -103.5253333333,39.4831666667,25149.66 -103.5255,39.4823333333,25192.63 -103.5258333333,39.4811666667,25265.18 -103.5258333333,39.481,25274.32 -103.5266666667,39.4796666667,25342.29 -103.5291666667,39.4775,25487.99 -103.5311666667,39.4768333333,25606.86 -103.5321666667,39.4766666667,25642.52 -103.533,39.4766666667,25727.25 -103.5331666667,39.4766666667,25737.31 -103.5343333333,39.4765,25792.79 -103.536,39.476,25942.44 -103.5363333333,39.476,25942.75 -103.5378333333,39.4753333333,26083.87 -103.5385,39.4748333333,26165.86 -103.5385,39.4748333333,26175.31 -103.5396666667,39.4748333333,26219.2 -103.5411666667,39.4743333333,26356.06 -103.5415,39.4745,26354.53 -103.5428333333,39.474,26471.27 -103.543,39.474,26476.15 -103.5436666667,39.4741666667,26491.69 -103.5458333333,39.4741666667,26627.02 -103.5471666667,39.4738333333,26781.56 -103.5473333333,39.474,26770.28 -103.5485,39.4735,26896.16 -103.5485,39.4735,26906.52 -103.5488333333,39.4735,26913.23 -103.55,39.4725,27054.66 -103.5506666667,39.4713333333,27197.0 -103.5515,39.4705,27329.89 -103.5515,39.4705,27334.46 -103.5516666667,39.4705,27336.6 -103.5523333333,39.47,27471.93 -103.5525,39.4695,27510.64 -103.5531666667,39.4685,27601.77 -103.5531666667,39.4683333333,27624.33 -103.5533333333,39.4683333333,27633.78 -103.5543333333,39.4675,27734.06 -103.5551666667,39.4666666667,27870.0 -103.5553333333,39.4665,27927.3 -103.5558333333,39.4668333333,28013.86 -103.556,39.4666666667,28018.74 -103.556,39.4666666667,28028.8 -103.5565,39.4668333333,28155.9 -103.5565,39.4673333333,28133.04 -103.5588333333,39.468,28182.42</coordinates>
                    </LineString>
                </Placemark>
                <Placemark id="11">
                    <name>EOSS-324 Descent</name>
                    <styleUrl>#12</styleUrl>
                    <LineString id="10">
                        <extrude>0</extrude>
                        <altitudeMode>absolute</altitudeMode>
                        <coordinates>-103.5588333333,39.468,28182.42 -103.5571666667,39.4656666667,27289.35 -103.5591666667,39.4653333333,26404.52 -103.5606666667,39.4635,25639.78 -103.5623333333,39.4623333333,24807.98 -103.5621666667,39.4613333333,24026.16 -103.5631666667,39.4606666667,23296.47 -103.565,39.4603333333,22593.0 -103.5653333333,39.4598333333,21922.13 -103.5651666667,39.4595,21300.34 -103.5655,39.4595,20722.74 -103.5656666667,39.4598333333,20172.27 -103.5641666667,39.4585,19650.76 -103.5625,39.4585,19139.92 -103.56,39.4588333333,18649.49 -103.558,39.459,18183.15 -103.5546666667,39.4593333333,17726.25 -103.5511666667,39.4591666667,17299.84 -103.5481666667,39.4578333333,16894.15 -103.5426666667,39.4561666667,16507.97 -103.5373333333,39.4556666667,16120.87 -103.5333333333,39.4561666667,15742.01 -103.529,39.4553333333,15364.66 -103.5235,39.4538333333,15001.04 -103.5155,39.4535,14651.13 -103.5083333333,39.4528333333,14321.64 -103.5013333333,39.4525,14010.44 -103.4966666667,39.4518333333,13700.46 -103.4918333333,39.4511666667,13400.23 -103.4851666667,39.45,13104.57 -103.476,39.4491666667,12815.93 -103.4658333333,39.4486666667,12537.03 -103.4551666667,39.4481666667,12260.88 -103.4441666667,39.4476666667,11997.23 -103.4338333333,39.4475,11740.29 -103.4236666667,39.447,11485.78 -103.414,39.4473333333,11238.89 -103.404,39.4476666667,10994.75 -103.3943333333,39.4475,10760.96 -103.3848333333,39.4473333333,10532.67 -103.3756666667,39.4471666667,10313.82 -103.3663333333,39.4466666667,10100.46 -103.3571666667,39.4455,9886.19 -103.3543333333,39.445,9830.1 -103.354,39.445,9823.09 -103.3481666667,39.4443333333,9680.14 -103.3413333333,39.4436666667,9539.02 -103.339,39.4435,9478.37 -103.3336666667,39.4428333333,9374.12 -103.3333333333,39.4426666667,9367.42 -103.3295,39.4425,9279.94 -103.3203333333,39.4413333333,9094.93 -103.313,39.4406666667,8953.5 -103.3113333333,39.4406666667,8910.83 -103.306,39.44,8814.21 -103.3055,39.4398333333,8802.01 -103.302,39.4395,8731.3 -103.2933333333,39.4386666667,8556.04 -103.2855,39.4378333333,8422.84 -103.284,39.4376666667,8381.7 -103.2786666667,39.4371666667,8281.72 -103.2781666667,39.437,8270.75 -103.2758333333,39.4368333333,8206.74 -103.2681666667,39.436,8029.96 -103.2676666667,39.4358333333,8029.96 -103.2613333333,39.4346666667,7856.52 -103.2565,39.4336666667,7747.71 -103.2563333333,39.4336666667,7741.92 -103.2545,39.4333333333,7685.53 -103.2483333333,39.432,7508.75 -103.2473333333,39.4318333333,7500.52 -103.2423333333,39.4308333333,7374.33 -103.2418333333,39.4308333333,7368.84 -103.2416666667,39.4308333333,7332.88 -103.2356666667,39.4296666667,7157.01 -103.2293333333,39.4283333333,6983.58 -103.2286666667,39.4281666667,6976.57 -103.2243333333,39.4268333333,6838.49 -103.224,39.4268333333,6827.22 -103.224,39.4268333333,6807.1 -103.2188333333,39.4248333333,6631.53 -103.217,39.4243333333,6583.68 -103.2138333333,39.4233333333,6453.23 -103.2096666667,39.4211666667,6296.56 -103.2095,39.4211666667,6274.31 -103.2093333333,39.421,6285.28 -103.205,39.4193333333,6103.62 -103.2036666667,39.4186666667,6053.33 -103.2016666667,39.4176666667,5935.98 -103.2008333333,39.4171666667,5918.91 -103.2006666667,39.417,5907.63 -103.1985,39.4155,5772.0 -103.1956666667,39.4133333333,5615.64 -103.1945,39.4126666667,5565.95 -103.193,39.4118333333,5465.37 -103.1925,39.4113333333,5447.69 -103.1923333333,39.4111666667,5442.81 -103.1906666667,39.4101666667,5322.42 -103.188,39.4085,5186.48 -103.1868333333,39.4076666667,5145.02 -103.1853333333,39.4065,5060.29 -103.1848333333,39.406,5049.01 -103.1848333333,39.406,5045.35 -103.1828333333,39.4045,4945.08 -103.1813333333,39.4033333333,4892.95 -103.1803333333,39.4026666667,4834.43 -103.178,39.401,4729.89 -103.1773333333,39.4005,4726.84 -103.1771666667,39.4005,4719.83 -103.1743333333,39.3991666667,4633.87 -103.1726666667,39.398,4596.08 -103.17,39.396,4518.05 -103.17,39.396,4514.7 -103.1685,39.3948333333,4435.75 -103.1666666667,39.3928333333,4322.67 -103.1655,39.3916666667,4276.65 -103.1648333333,39.3911666667,4201.36 -103.1641666667,39.3905,4178.2 -103.164,39.3903333333,4169.97 -103.163,39.39,4082.49 -103.1613333333,39.3885,3965.45 -103.1596666667,39.388,3913.33 -103.1588333333,39.3873333333,3849.01 -103.1581666667,39.3866666667,3824.02 -103.158,39.3865,3816.71 -103.1568333333,39.3856666667,3736.85 -103.1553333333,39.3846666667,3662.48 -103.1551666667,39.3846666667,3616.45 -103.1535,39.3838333333,3496.97 -103.1526666667,39.3831666667,3470.45 -103.1525,39.383,3462.83 -103.1521666667,39.3828333333,3380.54 -103.1511666667,39.382,3308.91 -103.1506666667,39.3818333333,3263.8 -103.1491666667,39.3806666667,3144.93 -103.1488333333,39.3801666667,3117.8 -103.1488333333,39.3801666667,3113.84 -103.1473333333,39.3793333333,3024.84 -103.1463333333,39.378,2951.07 -103.146,39.3778333333,2903.83 -103.1451666667,39.3766666667,2855.37 -103.1451666667,39.3766666667,2851.1 -103.1443333333,39.3761666667,2783.43 -103.1426666667,39.3743333333,2664.56 -103.1406666667,39.373,2590.19 -103.1396666667,39.3726666667,2544.78 -103.1386666667,39.3718333333,2499.36 -103.1385,39.3716666667,2495.4 -103.1373333333,39.3708333333,2424.07 -103.1335,39.3695,2301.24 -103.131,39.3686666667,2238.76 -103.13,39.3686666667,2184.2 -103.1286666667,39.3681666667,2149.14 -103.1285,39.368,2141.52 -103.127,39.3678333333,2068.98 -103.1245,39.3671666667,1991.56 -103.124,39.3673333333,1958.04 -103.1215,39.367,1850.44 -103.1201666667,39.3668333333,1830.63 -103.12,39.3668333333,1826.97 -103.1185,39.3671666667,1731.57 -103.1161666667,39.3678333333,1653.54</coordinates>
                    </LineString>
                </Placemark>
            </Folder>
            <Folder id="4">
                <Style id="37">
                    <IconStyle id="38">
                        <color>ff0000ff</color>
                        <colorMode>normal</colorMode>
                        <scale>1</scale>
                        <heading>0</heading>
                        <Icon id="39">
                            <href>https://maps.google.com/mapfiles/kml/shapes/placemark_circle.png</href>
                        </Icon>
                    </IconStyle>
                </Style>
                <Style id="42">
                    <IconStyle id="43">
                        <color>ff0000ff</color>
                        <colorMode>normal</colorMode>
                        <scale>1</scale>
                        <heading>0</heading>
                        <Icon id="44">
                            <href>https://maps.google.com/mapfiles/kml/shapes/placemark_circle.png</href>
                        </Icon>
                    </IconStyle>
                </Style>
                <Style id="47">
                    <IconStyle id="48">
                        <color>ff0000ff</color>
                        <colorMode>normal</colorMode>
                        <scale>1</scale>
                        <heading>0</heading>
                        <Icon id="49">
                            <href>https://maps.google.com/mapfiles/kml/shapes/placemark_circle.png</href>
                        </Icon>
                    </IconStyle>
                </Style>
                <Style id="52">
                    <IconStyle id="53">
                        <color>ff0000ff</color>
                        <colorMode>normal</colorMode>
                        <scale>1</scale>
                        <heading>0</heading>
                        <Icon id="54">
                            <href>https://maps.google.com/mapfiles/kml/shapes/placemark_circle.png</href>
                        </Icon>
                    </IconStyle>
                </Style>
                <Style id="57">
                    <IconStyle id="58">
                        <color>ff0000ff</color>
                        <colorMode>normal</colorMode>
                        <scale>1</scale>
                        <heading>0</heading>
                        <Icon id="59">
                            <href>https://maps.google.com/mapfiles/kml/shapes/placemark_circle.png</href>
                        </Icon>
                    </IconStyle>
                </Style>
                <Style id="62">
                    <IconStyle id="63">
                        <color>ff0000ff</color>
                        <colorMode>normal</colorMode>
                        <scale>1</scale>
                        <heading>0</heading>
                        <Icon id="64">
                            <href>https://maps.google.com/mapfiles/kml/shapes/placemark_circle.png</href>
                        </Icon>
                    </IconStyle>
                </Style>
                <Style id="67">
                    <IconStyle id="68">
                        <color>ff0000ff</color>
                        <colorMode>normal</colorMode>
                        <scale>1</scale>
                        <heading>0</heading>
                        <Icon id="69">
                            <href>https://maps.google.com/mapfiles/kml/shapes/placemark_circle.png</href>
                        </Icon>
                    </IconStyle>
                </Style>
                <Style id="72">
                    <IconStyle id="73">
                        <color>ff0000ff</color>
                        <colorMode>normal</colorMode>
                        <scale>1</scale>
                        <heading>0</heading>
                        <Icon id="74">
                            <href>https://maps.google.com/mapfiles/kml/shapes/placemark_circle.png</href>
                        </Icon>
                    </IconStyle>
                </Style>
                <Style id="77">
                    <IconStyle id="78">
                        <color>ff0000ff</color>
                        <colorMode>normal</colorMode>
                        <scale>1</scale>
                        <heading>0</heading>
                        <Icon id="79">
                            <href>https://maps.google.com/mapfiles/kml/shapes/placemark_circle.png</href>
                        </Icon>
                    </IconStyle>
                </Style>
                <Style id="82">
                    <IconStyle id="83">
                        <color>ffff0000</color>
                        <colorMode>normal</colorMode>
                        <scale>1</scale>
                        <heading>0</heading>
                        <Icon id="84">
                            <href>https://maps.google.com/mapfiles/kml/shapes/placemark_circle.png</href>
                        </Icon>
                    </IconStyle>
                </Style>
                <Style id="87">
                    <IconStyle id="88">
                        <color>ffff0000</color>
                        <colorMode>normal</colorMode>
                        <scale>1</scale>
                        <heading>0</heading>
                        <Icon id="89">
                            <href>https://maps.google.com/mapfiles/kml/shapes/placemark_circle.png</href>
                        </Icon>
                    </IconStyle>
                </Style>
                <Style id="92">
                    <IconStyle id="93">
                        <color>ffff0000</color>
                        <colorMode>normal</colorMode>
                        <scale>1</scale>
                        <heading>0</heading>
                        <Icon id="94">
                            <href>https://maps.google.com/mapfiles/kml/shapes/placemark_circle.png</href>
                        </Icon>
                    </IconStyle>
                </Style>
                <Style id="97">
                    <IconStyle id="98">
                        <color>ffff0000</color>
                        <colorMode>normal</colorMode>
                        <scale>1</scale>
                        <heading>0</heading>
                        <Icon id="99">
                            <href>https://maps.google.com/mapfiles/kml/shapes/placemark_circle.png</href>
                        </Icon>
                    </IconStyle>
                </Style>
                <Style id="102">
                    <IconStyle id="103">
                        <color>ffff0000</color>
                        <colorMode>normal</colorMode>
                        <scale>1</scale>
                        <heading>0</heading>
                        <Icon id="104">
                            <href>https://maps.google.com/mapfiles/kml/shapes/placemark_circle.png</href>
                        </Icon>
                    </IconStyle>
                </Style>
                <Style id="107">
                    <IconStyle id="108">
                        <color>ffff0000</color>
                        <colorMode>normal</colorMode>
                        <scale>1</scale>
                        <heading>0</heading>
                        <Icon id="109">
                            <href>https://maps.google.com/mapfiles/kml/shapes/placemark_circle.png</href>
                        </Icon>
                    </IconStyle>
                </Style>
                <Style id="112">
                    <IconStyle id="113">
                        <color>ffff0000</color>
                        <colorMode>normal</colorMode>
                        <scale>1</scale>
                        <heading>0</heading>
                        <Icon id="114">
                            <href>https://maps.google.com/mapfiles/kml/shapes/placemark_circle.png</href>
                        </Icon>
                    </IconStyle>
                </Style>
                <Style id="117">
                    <IconStyle id="118">
                        <color>ffff0000</color>
                        <colorMode>normal</colorMode>
                        <scale>1</scale>
                        <heading>0</heading>
                        <Icon id="119">
                            <href>https://maps.google.com/mapfiles/kml/shapes/placemark_circle.png</href>
                        </Icon>
                    </IconStyle>
                </Style>
                <name>Waypoints</name>
                <Placemark id="36">
                    <name>10k</name>
                    <description><![CDATA[
        <h1>Waypoint</h1>
        <table style="width: 100%;" cellpadding=0 cellspacing=0 border=0>
        <tr><td style="padding: 10px; border: solid 1px black;border-bottom: 0;"><strong>Local Time</strong></td><td style="border: solid 1px black;border-left: 0; border-bottom: 0; padding: 10px;">07:20:45</td></tr>
        <tr><td style="padding: 10px; border: solid 1px black;border-bottom: 0;"><strong>Altitude</strong></td><td style="border: solid 1px black;border-left: 0; border-bottom: 0; padding: 10px;">9,861ft (3,005.6m)</td></tr>
        <tr><td style="padding: 10px; border: solid 1px black;"><strong>Coordinates</strong></td><td style="border: solid 1px black; border-left: 0; padding: 10px;">39.59933333, -104.01383333</td></tr>
        </table>
        ]]></description>
                    <styleUrl>#37</styleUrl>
                    <Point id="35">
                        <coordinates>-104.0138333333,39.5993333333,3005.63</coordinates>
                        <altitudeMode>absolute</altitudeMode>
                    </Point>
                </Placemark>
                <Placemark id="41">
                    <name>20k</name>
                    <description><![CDATA[
        <h1>Waypoint</h1>
        <table style="width: 100%;" cellpadding=0 cellspacing=0 border=0>
        <tr><td style="padding: 10px; border: solid 1px black;border-bottom: 0;"><strong>Local Time</strong></td><td style="border: solid 1px black;border-left: 0; border-bottom: 0; padding: 10px;">07:29:02</td></tr>
        <tr><td style="padding: 10px; border: solid 1px black;border-bottom: 0;"><strong>Altitude</strong></td><td style="border: solid 1px black;border-left: 0; border-bottom: 0; padding: 10px;">19,974ft (6,088.1m)</td></tr>
        <tr><td style="padding: 10px; border: solid 1px black;"><strong>Coordinates</strong></td><td style="border: solid 1px black; border-left: 0; padding: 10px;">39.5605, -103.96633333</td></tr>
        </table>
        ]]></description>
                    <styleUrl>#42</styleUrl>
                    <Point id="40">
                        <coordinates>-103.9663333333,39.5605,6088.08</coordinates>
                        <altitudeMode>absolute</altitudeMode>
                    </Point>
                </Placemark>
                <Placemark id="46">
                    <name>30k</name>
                    <description><![CDATA[
        <h1>Waypoint</h1>
        <table style="width: 100%;" cellpadding=0 cellspacing=0 border=0>
        <tr><td style="padding: 10px; border: solid 1px black;border-bottom: 0;"><strong>Local Time</strong></td><td style="border: solid 1px black;border-left: 0; border-bottom: 0; padding: 10px;">07:36:45</td></tr>
        <tr><td style="padding: 10px; border: solid 1px black;border-bottom: 0;"><strong>Altitude</strong></td><td style="border: solid 1px black;border-left: 0; border-bottom: 0; padding: 10px;">29,809ft (9,085.8m)</td></tr>
        <tr><td style="padding: 10px; border: solid 1px black;"><strong>Coordinates</strong></td><td style="border: solid 1px black; border-left: 0; padding: 10px;">39.54183333, -103.87083333</td></tr>
        </table>
        ]]></description>
                    <styleUrl>#47</styleUrl>
                    <Point id="45">
                        <coordinates>-103.8708333333,39.5418333333,9085.78</coordinates>
                        <altitudeMode>absolute</altitudeMode>
                    </Point>
                </Placemark>
                <Placemark id="51">
                    <name>40k</name>
                    <description><![CDATA[
        <h1>Waypoint</h1>
        <table style="width: 100%;" cellpadding=0 cellspacing=0 border=0>
        <tr><td style="padding: 10px; border: solid 1px black;border-bottom: 0;"><strong>Local Time</strong></td><td style="border: solid 1px black;border-left: 0; border-bottom: 0; padding: 10px;">07:43:58</td></tr>
        <tr><td style="padding: 10px; border: solid 1px black;border-bottom: 0;"><strong>Altitude</strong></td><td style="border: solid 1px black;border-left: 0; border-bottom: 0; padding: 10px;">39,869ft (12,152.1m)</td></tr>
        <tr><td style="padding: 10px; border: solid 1px black;"><strong>Coordinates</strong></td><td style="border: solid 1px black; border-left: 0; padding: 10px;">39.53533333, -103.73083333</td></tr>
        </table>
        ]]></description>
                    <styleUrl>#52</styleUrl>
                    <Point id="50">
                        <coordinates>-103.7308333333,39.5353333333,12152.07</coordinates>
                        <altitudeMode>absolute</altitudeMode>
                    </Point>
                </Placemark>
                <Placemark id="56">
                    <name>50k</name>
                    <description><![CDATA[
        <h1>Waypoint</h1>
        <table style="width: 100%;" cellpadding=0 cellspacing=0 border=0>
        <tr><td style="padding: 10px; border: solid 1px black;border-bottom: 0;"><strong>Local Time</strong></td><td style="border: solid 1px black;border-left: 0; border-bottom: 0; padding: 10px;">07:52:18</td></tr>
        <tr><td style="padding: 10px; border: solid 1px black;border-bottom: 0;"><strong>Altitude</strong></td><td style="border: solid 1px black;border-left: 0; border-bottom: 0; padding: 10px;">49,941ft (15,222.0m)</td></tr>
        <tr><td style="padding: 10px; border: solid 1px black;"><strong>Coordinates</strong></td><td style="border: solid 1px black; border-left: 0; padding: 10px;">39.52283333, -103.6045</td></tr>
        </table>
        ]]></description>
                    <styleUrl>#57</styleUrl>
                    <Point id="55">
                        <coordinates>-103.6045,39.5228333333,15222.02</coordinates>
                        <altitudeMode>absolute</altitudeMode>
                    </Point>
                </Placemark>
                <Placemark id="61">
                    <name>60k</name>
                    <description><![CDATA[
        <h1>Waypoint</h1>
        <table style="width: 100%;" cellpadding=0 cellspacing=0 border=0>
        <tr><td style="padding: 10px; border: solid 1px black;border-bottom: 0;"><strong>Local Time</strong></td><td style="border: solid 1px black;border-left: 0; border-bottom: 0; padding: 10px;">08:02:09</td></tr>
        <tr><td style="padding: 10px; border: solid 1px black;border-bottom: 0;"><strong>Altitude</strong></td><td style="border: solid 1px black;border-left: 0; border-bottom: 0; padding: 10px;">60,024ft (18,295.3m)</td></tr>
        <tr><td style="padding: 10px; border: solid 1px black;"><strong>Coordinates</strong></td><td style="border: solid 1px black; border-left: 0; padding: 10px;">39.506, -103.531</td></tr>
        </table>
        ]]></description>
                    <styleUrl>#62</styleUrl>
                    <Point id="60">
                        <coordinates>-103.531,39.506,18295.32</coordinates>
                        <altitudeMode>absolute</altitudeMode>
                    </Point>
                </Placemark>
                <Placemark id="66">
                    <name>70k</name>
                    <description><![CDATA[
        <h1>Waypoint</h1>
        <table style="width: 100%;" cellpadding=0 cellspacing=0 border=0>
        <tr><td style="padding: 10px; border: solid 1px black;border-bottom: 0;"><strong>Local Time</strong></td><td style="border: solid 1px black;border-left: 0; border-bottom: 0; padding: 10px;">08:12:45</td></tr>
        <tr><td style="padding: 10px; border: solid 1px black;border-bottom: 0;"><strong>Altitude</strong></td><td style="border: solid 1px black;border-left: 0; border-bottom: 0; padding: 10px;">70,006ft (21,337.8m)</td></tr>
        <tr><td style="padding: 10px; border: solid 1px black;"><strong>Coordinates</strong></td><td style="border: solid 1px black; border-left: 0; padding: 10px;">39.50066667, -103.51216667</td></tr>
        </table>
        ]]></description>
                    <styleUrl>#67</styleUrl>
                    <Point id="65">
                        <coordinates>-103.5121666667,39.5006666667,21337.83</coordinates>
                        <altitudeMode>absolute</altitudeMode>
                    </Point>
                </Placemark>
                <Placemark id="71">
                    <name>80k</name>
                    <description><![CDATA[
        <h1>Waypoint</h1>
        <table style="width: 100%;" cellpadding=0 cellspacing=0 border=0>
        <tr><td style="padding: 10px; border: solid 1px black;border-bottom: 0;"><strong>Local Time</strong></td><td style="border: solid 1px black;border-left: 0; border-bottom: 0; padding: 10px;">08:23:23</td></tr>
        <tr><td style="padding: 10px; border: solid 1px black;border-bottom: 0;"><strong>Altitude</strong></td><td style="border: solid 1px black;border-left: 0; border-bottom: 0; padding: 10px;">79,812ft (24,326.7m)</td></tr>
        <tr><td style="padding: 10px; border: solid 1px black;"><strong>Coordinates</strong></td><td style="border: solid 1px black; border-left: 0; padding: 10px;">39.48983333, -103.52466667</td></tr>
        </table>
        ]]></description>
                    <styleUrl>#72</styleUrl>
                    <Point id="70">
                        <coordinates>-103.5246666667,39.4898333333,24326.7</coordinates>
                        <altitudeMode>absolute</altitudeMode>
                    </Point>
                </Placemark>
                <Placemark id="76">
                    <name>90k</name>
                    <description><![CDATA[
        <h1>Waypoint</h1>
        <table style="width: 100%;" cellpadding=0 cellspacing=0 border=0>
        <tr><td style="padding: 10px; border: solid 1px black;border-bottom: 0;"><strong>Local Time</strong></td><td style="border: solid 1px black;border-left: 0; border-bottom: 0; padding: 10px;">08:34:15</td></tr>
        <tr><td style="padding: 10px; border: solid 1px black;border-bottom: 0;"><strong>Altitude</strong></td><td style="border: solid 1px black;border-left: 0; border-bottom: 0; padding: 10px;">90,131ft (27,471.9m)</td></tr>
        <tr><td style="padding: 10px; border: solid 1px black;"><strong>Coordinates</strong></td><td style="border: solid 1px black; border-left: 0; padding: 10px;">39.47, -103.55233333</td></tr>
        </table>
        ]]></description>
                    <styleUrl>#77</styleUrl>
                    <Point id="75">
                        <coordinates>-103.5523333333,39.47,27471.93</coordinates>
                        <altitudeMode>absolute</altitudeMode>
                    </Point>
                </Placemark>
                <Placemark id="81">
                    <name>10k</name>
                    <description><![CDATA[
        <h1>Waypoint</h1>
        <table style="width: 100%;" cellpadding=0 cellspacing=0 border=0>
        <tr><td style="padding: 10px; border: solid 1px black;border-bottom: 0;"><strong>Local Time</strong></td><td style="border: solid 1px black;border-left: 0; border-bottom: 0; padding: 10px;">09:21:15</td></tr>
        <tr><td style="padding: 10px; border: solid 1px black;border-bottom: 0;"><strong>Altitude</strong></td><td style="border: solid 1px black;border-left: 0; border-bottom: 0; padding: 10px;">9,924ft (3,024.8m)</td></tr>
        <tr><td style="padding: 10px; border: solid 1px black;"><strong>Coordinates</strong></td><td style="border: solid 1px black; border-left: 0; padding: 10px;">39.37933333, -103.14733333</td></tr>
        </table>
        ]]></description>
                    <styleUrl>#82</styleUrl>
                    <Point id="80">
                        <coordinates>-103.1473333333,39.3793333333,3024.84</coordinates>
                        <altitudeMode>absolute</altitudeMode>
                    </Point>
                </Placemark>
                <Placemark id="86">
                    <name>20k</name>
                    <description><![CDATA[
        <h1>Waypoint</h1>
        <table style="width: 100%;" cellpadding=0 cellspacing=0 border=0>
        <tr><td style="padding: 10px; border: solid 1px black;border-bottom: 0;"><strong>Local Time</strong></td><td style="border: solid 1px black;border-left: 0; border-bottom: 0; padding: 10px;">09:08:45</td></tr>
        <tr><td style="padding: 10px; border: solid 1px black;border-bottom: 0;"><strong>Altitude</strong></td><td style="border: solid 1px black;border-left: 0; border-bottom: 0; padding: 10px;">20,025ft (6,103.6m)</td></tr>
        <tr><td style="padding: 10px; border: solid 1px black;"><strong>Coordinates</strong></td><td style="border: solid 1px black; border-left: 0; padding: 10px;">39.41933333, -103.205</td></tr>
        </table>
        ]]></description>
                    <styleUrl>#87</styleUrl>
                    <Point id="85">
                        <coordinates>-103.205,39.4193333333,6103.62</coordinates>
                        <altitudeMode>absolute</altitudeMode>
                    </Point>
                </Placemark>
                <Placemark id="91">
                    <name>30k</name>
                    <description><![CDATA[
        <h1>Waypoint</h1>
        <table style="width: 100%;" cellpadding=0 cellspacing=0 border=0>
        <tr><td style="padding: 10px; border: solid 1px black;border-bottom: 0;"><strong>Local Time</strong></td><td style="border: solid 1px black;border-left: 0; border-bottom: 0; padding: 10px;">09:00:15</td></tr>
        <tr><td style="padding: 10px; border: solid 1px black;border-bottom: 0;"><strong>Altitude</strong></td><td style="border: solid 1px black;border-left: 0; border-bottom: 0; padding: 10px;">29,839ft (9,094.9m)</td></tr>
        <tr><td style="padding: 10px; border: solid 1px black;"><strong>Coordinates</strong></td><td style="border: solid 1px black; border-left: 0; padding: 10px;">39.44133333, -103.32033333</td></tr>
        </table>
        ]]></description>
                    <styleUrl>#92</styleUrl>
                    <Point id="90">
                        <coordinates>-103.3203333333,39.4413333333,9094.93</coordinates>
                        <altitudeMode>absolute</altitudeMode>
                    </Point>
                </Placemark>
                <Placemark id="96">
                    <name>40k</name>
                    <description><![CDATA[
        <h1>Waypoint</h1>
        <table style="width: 100%;" cellpadding=0 cellspacing=0 border=0>
        <tr><td style="padding: 10px; border: solid 1px black;border-bottom: 0;"><strong>Local Time</strong></td><td style="border: solid 1px black;border-left: 0; border-bottom: 0; padding: 10px;">08:53:15</td></tr>
        <tr><td style="padding: 10px; border: solid 1px black;border-bottom: 0;"><strong>Altitude</strong></td><td style="border: solid 1px black;border-left: 0; border-bottom: 0; padding: 10px;">40,226ft (12,260.9m)</td></tr>
        <tr><td style="padding: 10px; border: solid 1px black;"><strong>Coordinates</strong></td><td style="border: solid 1px black; border-left: 0; padding: 10px;">39.44816667, -103.45516667</td></tr>
        </table>
        ]]></description>
                    <styleUrl>#97</styleUrl>
                    <Point id="95">
                        <coordinates>-103.4551666667,39.4481666667,12260.88</coordinates>
                        <altitudeMode>absolute</altitudeMode>
                    </Point>
                </Placemark>
                <Placemark id="101">
                    <name>50k</name>
                    <description><![CDATA[
        <h1>Waypoint</h1>
        <table style="width: 100%;" cellpadding=0 cellspacing=0 border=0>
        <tr><td style="padding: 10px; border: solid 1px black;border-bottom: 0;"><strong>Local Time</strong></td><td style="border: solid 1px black;border-left: 0; border-bottom: 0; padding: 10px;">08:48:15</td></tr>
        <tr><td style="padding: 10px; border: solid 1px black;border-bottom: 0;"><strong>Altitude</strong></td><td style="border: solid 1px black;border-left: 0; border-bottom: 0; padding: 10px;">50,409ft (15,364.7m)</td></tr>
        <tr><td style="padding: 10px; border: solid 1px black;"><strong>Coordinates</strong></td><td style="border: solid 1px black; border-left: 0; padding: 10px;">39.45533333, -103.529</td></tr>
        </table>
        ]]></description>
                    <styleUrl>#102</styleUrl>
                    <Point id="100">
                        <coordinates>-103.529,39.4553333333,15364.66</coordinates>
                        <altitudeMode>absolute</altitudeMode>
                    </Point>
                </Placemark>
                <Placemark id="106">
                    <name>60k</name>
                    <description><![CDATA[
        <h1>Waypoint</h1>
        <table style="width: 100%;" cellpadding=0 cellspacing=0 border=0>
        <tr><td style="padding: 10px; border: solid 1px black;border-bottom: 0;"><strong>Local Time</strong></td><td style="border: solid 1px black;border-left: 0; border-bottom: 0; padding: 10px;">08:44:45</td></tr>
        <tr><td style="padding: 10px; border: solid 1px black;border-bottom: 0;"><strong>Altitude</strong></td><td style="border: solid 1px black;border-left: 0; border-bottom: 0; padding: 10px;">59,656ft (18,183.2m)</td></tr>
        <tr><td style="padding: 10px; border: solid 1px black;"><strong>Coordinates</strong></td><td style="border: solid 1px black; border-left: 0; padding: 10px;">39.459, -103.558</td></tr>
        </table>
        ]]></description>
                    <styleUrl>#107</styleUrl>
                    <Point id="105">
                        <coordinates>-103.558,39.459,18183.15</coordinates>
                        <altitudeMode>absolute</altitudeMode>
                    </Point>
                </Placemark>
                <Placemark id="111">
                    <name>70k</name>
                    <description><![CDATA[
        <h1>Waypoint</h1>
        <table style="width: 100%;" cellpadding=0 cellspacing=0 border=0>
        <tr><td style="padding: 10px; border: solid 1px black;border-bottom: 0;"><strong>Local Time</strong></td><td style="border: solid 1px black;border-left: 0; border-bottom: 0; padding: 10px;">08:41:45</td></tr>
        <tr><td style="padding: 10px; border: solid 1px black;border-bottom: 0;"><strong>Altitude</strong></td><td style="border: solid 1px black;border-left: 0; border-bottom: 0; padding: 10px;">69,883ft (21,300.3m)</td></tr>
        <tr><td style="padding: 10px; border: solid 1px black;"><strong>Coordinates</strong></td><td style="border: solid 1px black; border-left: 0; padding: 10px;">39.4595, -103.56516667</td></tr>
        </table>
        ]]></description>
                    <styleUrl>#112</styleUrl>
                    <Point id="110">
                        <coordinates>-103.5651666667,39.4595,21300.34</coordinates>
                        <altitudeMode>absolute</altitudeMode>
                    </Point>
                </Placemark>
                <Placemark id="116">
                    <name>79k</name>
                    <description><![CDATA[
        <h1>Waypoint</h1>
        <table style="width: 100%;" cellpadding=0 cellspacing=0 border=0>
        <tr><td style="padding: 10px; border: solid 1px black;border-bottom: 0;"><strong>Local Time</strong></td><td style="border: solid 1px black;border-left: 0; border-bottom: 0; padding: 10px;">08:39:45</td></tr>
        <tr><td style="padding: 10px; border: solid 1px black;border-bottom: 0;"><strong>Altitude</strong></td><td style="border: solid 1px black;border-left: 0; border-bottom: 0; padding: 10px;">78,826ft (24,026.2m)</td></tr>
        <tr><td style="padding: 10px; border: solid 1px black;"><strong>Coordinates</strong></td><td style="border: solid 1px black; border-left: 0; padding: 10px;">39.46133333, -103.56216667</td></tr>
        </table>
        ]]></description>
                    <styleUrl>#117</styleUrl>
                    <Point id="115">
                        <coordinates>-103.5621666667,39.4613333333,24026.16</coordinates>
                        <altitudeMode>absolute</altitudeMode>
                    </Point>
                </Placemark>
            </Folder>
            <Folder id="5">
                <Style id="16">
                    <IconStyle id="17">
                        <color>ff008cff</color>
                        <colorMode>normal</colorMode>
                        <scale>1</scale>
                        <heading>0</heading>
                        <Icon id="18">
                            <href>https://maps.google.com/mapfiles/kml/shapes/placemark_circle.png</href>
                        </Icon>
                    </IconStyle>
                </Style>
                <Style id="21">
                    <IconStyle id="22">
                        <color>ff008cff</color>
                        <colorMode>normal</colorMode>
                        <scale>1</scale>
                        <heading>0</heading>
                        <Icon id="23">
                            <href>https://maps.google.com/mapfiles/kml/shapes/placemark_circle.png</href>
                        </Icon>
                    </IconStyle>
                </Style>
                <Style id="26">
                    <IconStyle id="27">
                        <color>ff00ffff</color>
                        <colorMode>normal</colorMode>
                        <scale>1</scale>
                        <heading>0</heading>
                        <Icon id="28">
                            <href>https://maps.google.com/mapfiles/kml/shapes/placemark_circle.png</href>
                        </Icon>
                    </IconStyle>
                </Style>
                <Style id="31">
                    <IconStyle id="32">
                        <color>ff006400</color>
                        <colorMode>normal</colorMode>
                        <scale>1</scale>
                        <heading>0</heading>
                        <Icon id="33">
                            <href>https://maps.google.com/mapfiles/kml/shapes/placemark_circle.png</href>
                        </Icon>
                    </IconStyle>
                    <LabelStyle id="34">
                        <color>ff006400</color>
                        <colorMode>normal</colorMode>
                        <scale>1</scale>
                    </LabelStyle>
                </Style>
                <name>Points of Interest</name>
                <Placemark id="15">
                    <name>Launch</name>
                    <description><![CDATA[
    <h1>Launch</h1>
    <table style="width: 100%;" cellpadding=0 cellspacing=0 border=0>
    <tr><td style="padding: 10px; border: solid 1px black;border-bottom: 0;"><strong>Local Time</strong></td><td style="border: solid 1px black;border-bottom: 0; border-left: 0; padding: 10px;">07:16:43</td></tr>
    <tr><td style="padding: 10px; border: solid 1px black;border-bottom: 0;"><strong>Altitude</strong></td><td style="border: solid 1px black;border-left: 0; border-bottom: 0; padding: 10px;">5,218ft (1,590.4m)</td></tr>
    <tr><td style="padding: 10px; border: solid 1px black;"><strong>Coordinates</strong></td><td style="border: solid 1px black; border-left: 0; padding: 10px;">39.60766667, -104.04133333</td></tr>
    </table>
    ]]></description>
                    <styleUrl>#16</styleUrl>
                    <Point id="14">
                        <coordinates>-104.0413333333,39.6076666667,1590.45</coordinates>
                        <altitudeMode>absolute</altitudeMode>
                    </Point>
                </Placemark>
                <Placemark id="20">
                    <name>Landing</name>
                    <description><![CDATA[
    <h1>Landing</h1>
    <table style="width: 100%;" cellpadding=0 cellspacing=0 border=0>
    <tr><td style="padding: 10px; border: solid 1px black;border-bottom: 0;"><strong>Local Time</strong></td><td style="border: solid 1px black;border-left: 0; border-bottom: 0; padding: 10px;">09:27:07</td></tr>
    <tr><td style="padding: 10px; border: solid 1px black;border-bottom: 0;"><strong>Altitude</strong></td><td style="border: solid 1px black;border-bottom: 0; border-left: 0; padding: 10px;">5,425ft (1,653.5m)</td></tr>
    <tr><td style="padding: 10px; border: solid 1px black;"><strong>Coordinates</strong></td><td style="border: solid 1px black; border-left: 0; padding: 10px;">39.36783333, -103.11616667</td></tr>
    </table>
    ]]></description>
                    <styleUrl>#21</styleUrl>
                    <Point id="19">
                        <coordinates>-103.1161666667,39.3678333333,1653.54</coordinates>
                        <altitudeMode>absolute</altitudeMode>
                    </Point>
                </Placemark>
                <Placemark id="25">
                    <name>Burst 92,462ft</name>
                    <description><![CDATA[
    <h1>Burst: 92,462ft</h1>
    <table style="width: 100%;" cellpadding=0 cellspacing=0 border=0>
    <tr><td style="padding: 10px; border: solid 1px black;border-bottom: 0;"><strong>Local Time</strong></td><td style="border: solid 1px black;border-left: 0; border-bottom: 0; padding: 10px;">08:37:27</td></tr>
    <tr><td style="padding: 10px; border: solid 1px black;border-bottom: 0;"><strong>Altitude</strong></td><td style="border: solid 1px black;border-left: 0; border-bottom: 0; padding: 10px;">92,462ft (28,182.4m)</td></tr>
    <tr><td style="padding: 10px; border: solid 1px black;"><strong>Coordinates</strong></td><td style="border: solid 1px black; border-left: 0; padding: 10px;">39.468, -103.55883333</td></tr>
    </table>
    ]]></description>
                    <styleUrl>#26</styleUrl>
                    <Point id="24">
                        <coordinates>-103.5588333333,39.468,28182.42</coordinates>
                        <altitudeMode>absolute</altitudeMode>
                    </Point>
                </Placemark>
                <Placemark id="30">
                    <name>52k, Turbulent-to-Laminar</name>
                    <description><![CDATA[
        <h1>Airflow Transitioning from Turbulent-to-Laminar</h1>
        <table style="width: 100%;" cellpadding=0 cellspacing=0 border=0>
        <tr><td style="padding: 10px; border: solid 1px black;border-bottom: 0;"><strong>Local Time</strong></td><td style="border: solid 1px black;border-left: 0; border-bottom: 0; padding: 10px;">07:53:51</td></tr>
        <tr><td style="padding: 10px; border: solid 1px black;border-bottom: 0;"><strong>Altitude</strong></td><td style="border: solid 1px black;border-left: 0; border-bottom: 0; padding: 10px;">51,806ft (15,790.5m)</td></tr>
        <tr><td style="padding: 10px; border: solid 1px black;"><strong>Coordinates</strong></td><td style="border: solid 1px black; border-left: 0; padding: 10px;">39.5175, -103.59233333</td></tr>
        </table>
        ]]></description>
                    <styleUrl>#31</styleUrl>
                    <Point id="29">
                        <coordinates>-103.5923333333,39.5175,15790.47</coordinates>
                        <altitudeMode>absolute</altitudeMode>
                    </Point>
                </Placemark>
            </Folder>
        </Document>
    </Document>
</kml>
