<?xml version="1.0" encoding="UTF-8"?>
<kml xmlns="http://www.opengis.net/kml/2.2" xmlns:gx="http://www.google.com/kml/ext/2.2">
    <Document id="1">
        <Document id="2">
            <name>EOSS-374</name>
            <description><![CDATA[
    <h1>EOSS-374</h1>
    <table style="width: 100%;" cellpadding=0 cellspacing=0 border=0>
    <tr><td style="border: solid 1px black;border-bottom: 0; padding: 10px;"><strong>Launch Local Date/Time</strong></td><td style=" padding: 10px;border: solid 1px black;border-bottom: 0; border-left: 0;">2025-05-03 07:57:20</td></tr>
    <tr><td style="border: solid 1px black;border-bottom: 0; padding: 10px;"><strong>Flight Duration</strong></td><td style=" padding: 10px;border: solid 1px black;border-bottom: 0; border-left: 0; ">1hrs 59mins 30secs</td></tr>
    <tr><td style="border: solid 1px black;border-bottom: 0; padding: 10px;"><strong>Down Range Distance</strong></td><td style=" padding: 10px;border: solid 1px black;border-bottom: 0; border-left: 0; ">25.0mi (40.3km)</td></tr>
    <tr><td style="border: solid 1px black; padding: 10px;"><strong>Approx. Burst Altitude</strong></td><td style=" padding: 10px;border: solid 1px black; border-left: 0; ">89,886ft (27,397.2m)</td></tr>
    </table>
    ]]></description>
            <Folder id="3">
                <Style id="8">
                    <LineStyle id="9">
                        <color>ff0000ff</color>
                        <colorMode>normal</colorMode>
                        <width>3</width>
                    </LineStyle>
                </Style>
                <Style id="12">
                    <LineStyle id="13">
                        <color>ffff0000</color>
                        <colorMode>normal</colorMode>
                        <width>3</width>
                    </LineStyle>
                </Style>
                <name>Paths</name>
                <Placemark id="7">
                    <name>EOSS-374 Ascent</name>
                    <styleUrl>#8</styleUrl>
                    <LineString id="6">
                        <extrude>0</extrude>
                        <altitudeMode>absolute</altitudeMode>
                        <coordinates>-103.6968333333,39.2361666667,1648.36 -103.697,39.2361666667,1652.02 -103.697,39.2365,1766.32 -103.6968333333,39.2371666667,1844.65 -103.6955,39.2381666667,1970.53 -103.695,39.2383333333,2046.73 -103.6935,39.2385,2232.36 -103.693,39.2386666667,2334.77 -103.6926666667,39.2386666667,2421.33 -103.6923333333,39.238,2530.75 -103.692,39.2376666667,2607.87 -103.6915,39.2365,2725.22 -103.6913333333,39.2361666667,2805.99 -103.6908333333,39.235,2918.16 -103.6908333333,39.2345,3000.15 -103.6905,39.2333333333,3112.92 -103.6905,39.2326666667,3198.27 -103.6903333333,39.2315,3308.6 -103.6903333333,39.231,3381.15 -103.6898333333,39.2298333333,3503.07 -103.6898333333,39.229,3578.96 -103.6895,39.2278333333,3701.19 -103.6893333333,39.2273333333,3777.39 -103.6891666667,39.2261666667,3894.43 -103.6888333333,39.2256666667,3970.32 -103.688,39.225,4085.23 -103.6875,39.2248333333,4172.1 -103.686,39.2238333333,4288.23 -103.6855,39.2233333333,4379.06 -103.6833333333,39.2221666667,4505.55 -103.683,39.2215,4580.23 -103.682,39.22,4690.57 -103.6816666667,39.2195,4777.74 -103.681,39.2175,4895.39 -103.6805,39.2168333333,4981.96 -103.6791666667,39.2151666667,5101.44 -103.6786666667,39.2141666667,5172.76 -103.6773333333,39.2125,5288.89 -103.677,39.2116666667,5381.24 -103.676,39.2103333333,5485.79 -103.676,39.2098333333,5567.78 -103.6751666667,39.2078333333,5750.97 -103.6741666667,39.2063333333,5863.44 -103.674,39.2055,5943.9 -103.6733333333,39.2033333333,6058.51 -103.6731666667,39.2023333333,6134.71 -103.6726666667,39.2001666667,6260.29 -103.6721666667,39.1993333333,6329.78 -103.6718333333,39.1978333333,6433.11 -103.6713333333,39.1968333333,6512.05 -103.6708333333,39.1951666667,6621.17 -103.6706666667,39.1941666667,6708.04 -103.6696666667,39.1915,6886.65 -103.669,39.1891666667,6988.15 -103.669,39.1885,7058.56 -103.6685,39.1865,7164.63 -103.6686666667,39.1858333333,7236.87 -103.6685,39.1841666667,7338.97 -103.6681666667,39.1831666667,7405.73 -103.6673333333,39.1813333333,7506.61 -103.6673333333,39.1805,7585.25 -103.6673333333,39.179,7698.64 -103.6676666667,39.1781666667,7767.52 -103.6676666667,39.1758333333,7871.16 -103.6675,39.1751666667,7954.37 -103.6676666667,39.1733333333,8074.46 -103.6673333333,39.1726666667,8163.46 -103.6673333333,39.171,8270.14 -103.6671666667,39.17,8344.2 -103.6671666667,39.168,8451.19 -103.6668333333,39.1675,8527.39 -103.6658333333,39.1658333333,8635.9 -103.6653333333,39.165,8710.27 -103.6645,39.1635,8835.54 -103.6638333333,39.1628333333,8904.73 -103.664,39.161,9018.42 -103.6641666667,39.1603333333,9093.1 -103.6645,39.1583333333,9291.83 -103.6636666667,39.1566666667,9395.16 -103.6636666667,39.1561666667,9484.46 -103.6641666667,39.154,9605.16 -103.6645,39.1535,9684.72 -103.6651666667,39.1513333333,9793.53 -103.6655,39.1503333333,9864.55 -103.6655,39.1478333333,9973.06 -103.6656666667,39.1468333333,10061.75 -103.666,39.1448333333,10176.66 -103.6665,39.1436666667,10258.35 -103.6665,39.1413333333,10392.77 -103.6665,39.1403333333,10475.98 -103.6675,39.138,10664.04 -103.6681666667,39.136,10784.13 -103.6686666667,39.1356666667,10879.23 -103.6693333333,39.1341666667,11091.06 -103.6696666667,39.1326666667,11205.06 -103.6701666667,39.1321666667,11278.51 -103.6705,39.1303333333,11459.87 -103.6716666667,39.1283333333,11541.86 -103.6725,39.1271666667,11604.96 -103.6733333333,39.1228333333,11781.74 -103.6738333333,39.1208333333,11898.78 -103.6735,39.12,11977.12 -103.6728333333,39.1178333333,12093.85 -103.6735,39.117,12172.8 -103.674,39.1155,12284.35 -103.6745,39.1146666667,12367.56 -103.6766666667,39.1108333333,12563.55 -103.6783333333,39.1076666667,12676.33 -103.6786666667,39.1068333333,12759.23 -103.6803333333,39.1046666667,12927.79 -103.6805,39.1025,13028.68 -103.68,39.1018333333,13106.1 -103.6795,39.0978333333,13300.86 -103.6801666667,39.0953333333,13410.9 -103.6806666667,39.0943333333,13476.12 -103.682,39.0918333333,13662.05 -103.6806666667,39.0903333333,13773.0 -103.6796666667,39.0895,13851.33 -103.6771666667,39.0856666667,14036.65 -103.6751666667,39.0818333333,14187.83 -103.6735,39.0781666667,14337.18 -103.6723333333,39.0756666667,14419.48 -103.672,39.075,14480.44 -103.6708333333,39.0728333333,14622.17 -103.6698333333,39.0718333333,14704.47 -103.6693333333,39.0715,14766.65 -103.6671666667,39.0701666667,14914.47 -103.6653333333,39.0693333333,14998.29 -103.6643333333,39.0691666667,15064.74 -103.6615,39.0676666667,15200.38 -103.6593333333,39.066,15283.89 -103.6585,39.0653333333,15346.07 -103.6561666667,39.0623333333,15491.46 -103.6551666667,39.0603333333,15573.15 -103.6548333333,39.0595,15637.46 -103.6541666667,39.0578333333,15722.19 -103.6538333333,39.0571666667,15786.81 -103.6528333333,39.0558333333,15875.51 -103.6523333333,39.0553333333,15940.13 -103.6501666667,39.0535,16089.17 -103.6483333333,39.0518333333,16178.17 -103.6475,39.0511666667,16254.07 -103.6445,39.0483333333,16412.26 -103.6431666667,39.0465,16502.18 -103.6428333333,39.0461666667,16562.53 -103.642,39.0448333333,16640.25 -103.6411666667,39.0443333333,16725.6 -103.6398333333,39.0435,16809.42 -103.6393333333,39.0431666667,16866.72 -103.6383333333,39.0421666667,17006.01 -103.6378333333,39.0416666667,17086.48 -103.6378333333,39.0415,17146.83 -103.637,39.0413333333,17240.1 -103.6366666667,39.0415,17305.63 -103.6353333333,39.0416666667,17404.99 -103.635,39.0418333333,17490.95 -103.634,39.0408333333,17574.16 -103.634,39.0408333333,17638.17 -103.6331666667,39.0406666667,17725.34 -103.6328333333,39.041,17791.48 -103.6318333333,39.041,17877.74 -103.6313333333,39.0411666667,17942.05 -103.63,39.0405,18035.02 -103.6295,39.0405,18108.78 -103.6291666667,39.0398333333,18197.47 -103.6293333333,39.0395,18263.62 -103.6291666667,39.0386666667,18357.49 -103.629,39.0383333333,18422.72 -103.6285,39.0376666667,18517.21 -103.6281666667,39.0371666667,18585.79 -103.627,39.0358333333,18740.02 -103.6266666667,39.0355,18823.53 -103.6265,39.0353333333,18886.93 -103.626,39.0346666667,18969.84 -103.626,39.0346666667,19035.67 -103.6258333333,39.0345,19145.4 -103.626,39.035,19214.59 -103.6256666667,39.0358333333,19337.12 -103.6255,39.0363333333,19404.18 -103.6243333333,39.0373333333,19505.07 -103.6238333333,39.0376666667,19573.34 -103.6225,39.038,19664.78 -103.6218333333,39.0381666667,19729.09 -103.62,39.0375,19882.71 -103.619,39.0363333333,19972.93 -103.6186666667,39.036,20043.04 -103.617,39.0345,20199.1 -103.617,39.0338333333,20314.62 -103.6173333333,39.0338333333,20387.16 -103.6178333333,39.0335,20477.68 -103.6183333333,39.0333333333,20552.66 -103.6188333333,39.033,20646.54 -103.6193333333,39.033,20715.12 -103.62,39.0326666667,20869.35 -103.621,39.0323333333,21028.15 -103.6223333333,39.0321666667,21177.5 -103.6225,39.0313333333,21274.43 -103.6226666667,39.031,21340.27 -103.6225,39.0296666667,21503.03 -103.6231666667,39.0288333333,21596.91 -103.6235,39.0286666667,21664.27 -103.6243333333,39.0283333333,21760.59 -103.625,39.0283333333,21827.34 -103.6258333333,39.0285,21921.83 -103.6263333333,39.0285,21993.76 -103.6268333333,39.0276666667,22156.22 -103.6266666667,39.0268333333,22250.7 -103.627,39.0265,22321.72 -103.628,39.0253333333,22477.48 -103.6285,39.0245,22570.14 -103.629,39.0243333333,22636.89 -103.6298333333,39.024,22793.86 -103.631,39.0233333333,22886.82 -103.6318333333,39.0231666667,22956.32 -103.634,39.023,23126.7 -103.6355,39.0231666667,23226.67 -103.6366666667,39.0233333333,23297.69 -103.6398333333,39.0231666667,23474.78 -103.6415,39.0231666667,23576.89 -103.6423333333,39.0233333333,23647.3 -103.6436666667,39.0238333333,23826.52 -103.6433333333,39.0241666667,23931.07 -103.6431666667,39.024,24003.91 -103.6433333333,39.0233333333,24108.46 -103.6436666667,39.023,24179.78 -103.6445,39.0225,24282.2 -103.6448333333,39.0221666667,24356.26 -103.6453333333,39.0218333333,24462.94 -103.6458333333,39.0218333333,24537.01 -103.6463333333,39.0218333333,24650.7 -103.6466666667,39.022,24728.12 -103.6465,39.0221666667,24837.54 -103.6463333333,39.0223333333,24912.22 -103.646,39.0221666667,25019.51 -103.6458333333,39.0223333333,25098.45 -103.6446666667,39.0221666667,25264.87 -103.6445,39.0218333333,25365.46 -103.6445,39.0218333333,25439.22 -103.6438333333,39.0208333333,25606.86 -103.6438333333,39.0201666667,25697.99 -103.6438333333,39.0201666667,25767.79 -103.644,39.0201666667,25855.27 -103.6441666667,39.02,25925.37 -103.6443333333,39.0195,26019.25 -103.6446666667,39.0193333333,26089.66 -103.6458333333,39.0191666667,26259.74 -103.6463333333,39.019,26359.1 -103.647,39.0191666667,26432.87 -103.6481666667,39.019,26607.52 -103.649,39.019,26715.42 -103.6496666667,39.019,26788.57 -103.651,39.0196666667,26894.33 -103.6518333333,39.02,26964.74 -103.6526666667,39.0206666667,27059.53 -103.653,39.0211666667,27137.87 -103.6535,39.0218333333,27233.27 -103.654,39.0221666667,27303.68 -103.6543333333,39.0228333333,27397.25</coordinates>
                    </LineString>
                </Placemark>
                <Placemark id="11">
                    <name>EOSS-374 Descent</name>
                    <styleUrl>#12</styleUrl>
                    <LineString id="10">
                        <extrude>0</extrude>
                        <altitudeMode>absolute</altitudeMode>
                        <coordinates>-103.6543333333,39.0228333333,27397.25 -103.6556666667,39.0233333333,26495.04 -103.6561666667,39.0235,26184.45 -103.6563333333,39.0233333333,25570.28 -103.657,39.023,25294.44 -103.6575,39.023,24441.3 -103.6576666667,39.0231666667,23658.27 -103.6593333333,39.0236666667,23157.79 -103.6603333333,39.0236666667,22927.36 -103.6608333333,39.0226666667,22470.16 -103.661,39.0231666667,22279.66 -103.6616666667,39.023,21661.53 -103.6618333333,39.0223333333,21220.79 -103.6623333333,39.0221666667,21023.58 -103.6636666667,39.0228333333,20446.59 -103.6636666667,39.021,20062.55 -103.663,39.0201666667,19902.53 -103.6616666667,39.02,19396.25 -103.6616666667,39.0216666667,19060.06 -103.6615,39.0225,18919.55 -103.662,39.022,18439.79 -103.6608333333,39.0208333333,18131.64 -103.6608333333,39.0205,17999.05 -103.6595,39.0201666667,17687.54 -103.6596666667,39.0195,17559.83 -103.6583333333,39.0185,17268.14 -103.6586666667,39.0181666667,17142.26 -103.6555,39.0168333333,16744.19 -103.6555,39.0158333333,16482.06 -103.6541666667,39.0155,16373.86 -103.651,39.0136666667,16116.3 -103.6498333333,39.0135,16006.57 -103.6491666667,39.0118333333,15738.65 -103.6491666667,39.011,15624.96 -103.6471666667,39.0088333333,15360.09 -103.6468333333,39.0085,15256.15 -103.6451666667,39.0068333333,15006.83 -103.6445,39.0068333333,14898.93 -103.6426666667,39.0053333333,14566.7 -103.642,39.0045,14348.76 -103.6413333333,39.0033333333,14261.29 -103.64,39.0015,14044.88 -103.6391666667,39.0006666667,13958.62 -103.6365,38.998,13745.87 -103.6358333333,38.9971666667,13656.87 -103.635,38.9955,13439.85 -103.6348333333,38.995,13356.03 -103.6341666667,38.993,13139.62 -103.6338333333,38.9926666667,13054.89 -103.6326666667,38.9915,12855.24 -103.6333333333,38.9901666667,12778.44 -103.6341666667,38.9883333333,12569.95 -103.6346666667,38.9875,12489.18 -103.6356666667,38.9851666667,12277.95 -103.636,38.9836666667,12201.14 -103.6358333333,38.9815,12006.38 -103.6353333333,38.9806666667,11935.66 -103.6356666667,38.9775,11754.0 -103.6366666667,38.9763333333,11689.38 -103.6376666667,38.974,11501.63 -103.6381666667,38.9733333333,11434.27 -103.6386666667,38.9713333333,11260.53 -103.6386666667,38.9705,11195.3 -103.6385,38.9691666667,11025.53 -103.6393333333,38.9685,10963.66 -103.6401666667,38.9671666667,10796.32 -103.6406666667,38.9668333333,10736.28 -103.6416666667,38.9651666667,10575.34 -103.6421666667,38.9648333333,10519.26 -103.642,38.9628333333,10357.41 -103.6425,38.9616666667,10296.75 -103.6425,38.9583333333,10076.99 -103.6435,38.9566666667,9916.97 -103.6435,38.9563333333,9860.58 -103.644,38.9541666667,9702.7 -103.6443333333,38.9536666667,9646.01 -103.6436666667,38.9516666667,9483.85 -103.6441666667,38.951,9428.68 -103.6435,38.9491666667,9268.36 -103.6438333333,38.9481666667,9211.06 -103.6435,38.9468333333,9049.82 -103.6431666667,38.9456666667,8990.99 -103.643,38.944,8831.58 -103.6425,38.9435,8776.11 -103.6423333333,38.9416666667,8619.74 -103.642,38.9413333333,8563.36 -103.641,38.9395,8409.43 -103.6413333333,38.9388333333,8354.57 -103.6408333333,38.9373333333,8200.03 -103.641,38.9368333333,8146.39 -103.6403333333,38.9351666667,7993.38 -103.6406666667,38.9348333333,7940.95 -103.6398333333,38.9335,7791.6 -103.6401666667,38.9326666667,7739.79 -103.6401666667,38.9316666667,7595.31 -103.6398333333,38.931,7546.24 -103.6395,38.9296666667,7400.54 -103.6393333333,38.9288333333,7351.17 -103.639,38.9273333333,7208.22 -103.6386666667,38.9265,7158.23 -103.6376666667,38.9255,7011.01 -103.6375,38.925,6960.41 -103.6365,38.923,6817.77 -103.6365,38.9225,6769.91 -103.6355,38.9201666667,6583.68 -103.6345,38.9185,6446.22 -103.6346666667,38.9178333333,6400.5 -103.6335,38.9165,6266.99 -103.6331666667,38.9156666667,6223.71 -103.633,38.914,6088.08 -103.6325,38.9133333333,6039.61 -103.6315,38.9111666667,5909.46 -103.6313333333,38.9108333333,5868.92 -103.6296666667,38.9091666667,5741.82 -103.6296666667,38.9086666667,5700.06 -103.6283333333,38.9068333333,5528.77 -103.627,38.9056666667,5402.88 -103.6268333333,38.905,5361.74 -103.6256666667,38.904,5237.68 -103.6253333333,38.9031666667,5196.23 -103.6241666667,38.9016666667,5070.35 -103.624,38.9008333333,5029.5 -103.6228333333,38.8991666667,4900.57 -103.6226666667,38.8986666667,4860.95 -103.621,38.8971666667,4737.51 -103.6205,38.8963333333,4696.97 -103.6193333333,38.8955,4573.22 -103.6188333333,38.8946666667,4531.77 -103.6171666667,38.8938333333,4408.63 -103.6161666667,38.8931666667,4367.17 -103.6145,38.8918333333,4243.12 -103.6133333333,38.8913333333,4201.06 -103.612,38.8898333333,4076.4 -103.6113333333,38.8896666667,4035.86 -103.6098333333,38.8881666667,3915.16 -103.6096666667,38.8878333333,3874.62 -103.6086666667,38.8868333333,3755.14 -103.6088333333,38.8863333333,3715.51 -103.6085,38.8856666667,3598.77 -103.6086666667,38.885,3560.67 -103.6086666667,38.8841666667,3443.33 -103.6088333333,38.8835,3403.7 -103.6093333333,38.8821666667,3284.52 -103.6091666667,38.8818333333,3248.56 -103.6093333333,38.8805,3135.17 -103.6095,38.8803333333,3098.29 -103.6093333333,38.8791666667,2985.82 -103.6098333333,38.879,2950.16 -103.6095,38.8778333333,2836.16 -103.6101666667,38.8773333333,2801.11 -103.6101666667,38.8768333333,2686.51 -103.6101666667,38.8763333333,2651.46 -103.6106666667,38.8758333333,2537.46 -103.6105,38.876,2502.71 -103.6101666667,38.8755,2391.77 -103.6105,38.8756666667,2356.41 -103.6095,38.876,2245.16 -103.609,38.8761666667,2210.71 -103.6083333333,38.8763333333,2101.9 -103.6076666667,38.8768333333,2068.07 -103.6066666667,38.8771666667,1959.25 -103.6063333333,38.8778333333,1922.37 -103.6046666667,38.879,1816.0 -103.6043333333,38.8795,1782.78 -103.6038333333,38.8803333333,1661.16 -103.6038333333,38.8808333333,1621.23 -103.6035,38.8808333333,1557.53</coordinates>
                    </LineString>
                </Placemark>
            </Folder>
            <Folder id="4">
                <Style id="37">
                    <IconStyle id="38">
                        <color>ff0000ff</color>
                        <colorMode>normal</colorMode>
                        <scale>1</scale>
                        <heading>0</heading>
                        <Icon id="39">
                            <href>https://maps.google.com/mapfiles/kml/shapes/placemark_circle.png</href>
                        </Icon>
                    </IconStyle>
                </Style>
                <Style id="42">
                    <IconStyle id="43">
                        <color>ff0000ff</color>
                        <colorMode>normal</colorMode>
                        <scale>1</scale>
                        <heading>0</heading>
                        <Icon id="44">
                            <href>https://maps.google.com/mapfiles/kml/shapes/placemark_circle.png</href>
                        </Icon>
                    </IconStyle>
                </Style>
                <Style id="47">
                    <IconStyle id="48">
                        <color>ff0000ff</color>
                        <colorMode>normal</colorMode>
                        <scale>1</scale>
                        <heading>0</heading>
                        <Icon id="49">
                            <href>https://maps.google.com/mapfiles/kml/shapes/placemark_circle.png</href>
                        </Icon>
                    </IconStyle>
                </Style>
                <Style id="52">
                    <IconStyle id="53">
                        <color>ff0000ff</color>
                        <colorMode>normal</colorMode>
                        <scale>1</scale>
                        <heading>0</heading>
                        <Icon id="54">
                            <href>https://maps.google.com/mapfiles/kml/shapes/placemark_circle.png</href>
                        </Icon>
                    </IconStyle>
                </Style>
                <Style id="57">
                    <IconStyle id="58">
                        <color>ff0000ff</color>
                        <colorMode>normal</colorMode>
                        <scale>1</scale>
                        <heading>0</heading>
                        <Icon id="59">
                            <href>https://maps.google.com/mapfiles/kml/shapes/placemark_circle.png</href>
                        </Icon>
                    </IconStyle>
                </Style>
                <Style id="62">
                    <IconStyle id="63">
                        <color>ff0000ff</color>
                        <colorMode>normal</colorMode>
                        <scale>1</scale>
                        <heading>0</heading>
                        <Icon id="64">
                            <href>https://maps.google.com/mapfiles/kml/shapes/placemark_circle.png</href>
                        </Icon>
                    </IconStyle>
                </Style>
                <Style id="67">
                    <IconStyle id="68">
                        <color>ff0000ff</color>
                        <colorMode>normal</colorMode>
                        <scale>1</scale>
                        <heading>0</heading>
                        <Icon id="69">
                            <href>https://maps.google.com/mapfiles/kml/shapes/placemark_circle.png</href>
                        </Icon>
                    </IconStyle>
                </Style>
                <Style id="72">
                    <IconStyle id="73">
                        <color>ff0000ff</color>
                        <colorMode>normal</colorMode>
                        <scale>1</scale>
                        <heading>0</heading>
                        <Icon id="74">
                            <href>https://maps.google.com/mapfiles/kml/shapes/placemark_circle.png</href>
                        </Icon>
                    </IconStyle>
                </Style>
                <Style id="77">
                    <IconStyle id="78">
                        <color>ffff0000</color>
                        <colorMode>normal</colorMode>
                        <scale>1</scale>
                        <heading>0</heading>
                        <Icon id="79">
                            <href>https://maps.google.com/mapfiles/kml/shapes/placemark_circle.png</href>
                        </Icon>
                    </IconStyle>
                </Style>
                <Style id="82">
                    <IconStyle id="83">
                        <color>ffff0000</color>
                        <colorMode>normal</colorMode>
                        <scale>1</scale>
                        <heading>0</heading>
                        <Icon id="84">
                            <href>https://maps.google.com/mapfiles/kml/shapes/placemark_circle.png</href>
                        </Icon>
                    </IconStyle>
                </Style>
                <Style id="87">
                    <IconStyle id="88">
                        <color>ffff0000</color>
                        <colorMode>normal</colorMode>
                        <scale>1</scale>
                        <heading>0</heading>
                        <Icon id="89">
                            <href>https://maps.google.com/mapfiles/kml/shapes/placemark_circle.png</href>
                        </Icon>
                    </IconStyle>
                </Style>
                <Style id="92">
                    <IconStyle id="93">
                        <color>ffff0000</color>
                        <colorMode>normal</colorMode>
                        <scale>1</scale>
                        <heading>0</heading>
                        <Icon id="94">
                            <href>https://maps.google.com/mapfiles/kml/shapes/placemark_circle.png</href>
                        </Icon>
                    </IconStyle>
                </Style>
                <Style id="97">
                    <IconStyle id="98">
                        <color>ffff0000</color>
                        <colorMode>normal</colorMode>
                        <scale>1</scale>
                        <heading>0</heading>
                        <Icon id="99">
                            <href>https://maps.google.com/mapfiles/kml/shapes/placemark_circle.png</href>
                        </Icon>
                    </IconStyle>
                </Style>
                <Style id="102">
                    <IconStyle id="103">
                        <color>ffff0000</color>
                        <colorMode>normal</colorMode>
                        <scale>1</scale>
                        <heading>0</heading>
                        <Icon id="104">
                            <href>https://maps.google.com/mapfiles/kml/shapes/placemark_circle.png</href>
                        </Icon>
                    </IconStyle>
                </Style>
                <Style id="107">
                    <IconStyle id="108">
                        <color>ffff0000</color>
                        <colorMode>normal</colorMode>
                        <scale>1</scale>
                        <heading>0</heading>
                        <Icon id="109">
                            <href>https://maps.google.com/mapfiles/kml/shapes/placemark_circle.png</href>
                        </Icon>
                    </IconStyle>
                </Style>
                <Style id="112">
                    <IconStyle id="113">
                        <color>ffff0000</color>
                        <colorMode>normal</colorMode>
                        <scale>1</scale>
                        <heading>0</heading>
                        <Icon id="114">
                            <href>https://maps.google.com/mapfiles/kml/shapes/placemark_circle.png</href>
                        </Icon>
                    </IconStyle>
                </Style>
                <name>Waypoints</name>
                <Placemark id="36">
                    <name>10k</name>
                    <description><![CDATA[
        <h1>Waypoint</h1>
        <table style="width: 100%;" cellpadding=0 cellspacing=0 border=0>
        <tr><td style="padding: 10px; border: solid 1px black;border-bottom: 0;"><strong>Local Time</strong></td><td style="border: solid 1px black;border-left: 0; border-bottom: 0; padding: 10px;">08:01:00</td></tr>
        <tr><td style="padding: 10px; border: solid 1px black;border-bottom: 0;"><strong>Altitude</strong></td><td style="border: solid 1px black;border-left: 0; border-bottom: 0; padding: 10px;">9,843ft (3,000.2m)</td></tr>
        <tr><td style="padding: 10px; border: solid 1px black;"><strong>Coordinates</strong></td><td style="border: solid 1px black; border-left: 0; padding: 10px;">39.2345, -103.69083333</td></tr>
        </table>
        ]]></description>
                    <styleUrl>#37</styleUrl>
                    <Point id="35">
                        <coordinates>-103.6908333333,39.2345,3000.15</coordinates>
                        <altitudeMode>absolute</altitudeMode>
                    </Point>
                </Placemark>
                <Placemark id="41">
                    <name>20k</name>
                    <description><![CDATA[
        <h1>Waypoint</h1>
        <table style="width: 100%;" cellpadding=0 cellspacing=0 border=0>
        <tr><td style="padding: 10px; border: solid 1px black;border-bottom: 0;"><strong>Local Time</strong></td><td style="border: solid 1px black;border-left: 0; border-bottom: 0; padding: 10px;">08:08:50</td></tr>
        <tr><td style="padding: 10px; border: solid 1px black;border-bottom: 0;"><strong>Altitude</strong></td><td style="border: solid 1px black;border-left: 0; border-bottom: 0; padding: 10px;">19,877ft (6,058.5m)</td></tr>
        <tr><td style="padding: 10px; border: solid 1px black;"><strong>Coordinates</strong></td><td style="border: solid 1px black; border-left: 0; padding: 10px;">39.20333333, -103.67333333</td></tr>
        </table>
        ]]></description>
                    <styleUrl>#42</styleUrl>
                    <Point id="40">
                        <coordinates>-103.6733333333,39.2033333333,6058.51</coordinates>
                        <altitudeMode>absolute</altitudeMode>
                    </Point>
                </Placemark>
                <Placemark id="46">
                    <name>30k</name>
                    <description><![CDATA[
        <h1>Waypoint</h1>
        <table style="width: 100%;" cellpadding=0 cellspacing=0 border=0>
        <tr><td style="padding: 10px; border: solid 1px black;border-bottom: 0;"><strong>Local Time</strong></td><td style="border: solid 1px black;border-left: 0; border-bottom: 0; padding: 10px;">08:17:00</td></tr>
        <tr><td style="padding: 10px; border: solid 1px black;border-bottom: 0;"><strong>Altitude</strong></td><td style="border: solid 1px black;border-left: 0; border-bottom: 0; padding: 10px;">29,833ft (9,093.1m)</td></tr>
        <tr><td style="padding: 10px; border: solid 1px black;"><strong>Coordinates</strong></td><td style="border: solid 1px black; border-left: 0; padding: 10px;">39.16033333, -103.66416667</td></tr>
        </table>
        ]]></description>
                    <styleUrl>#47</styleUrl>
                    <Point id="45">
                        <coordinates>-103.6641666667,39.1603333333,9093.1</coordinates>
                        <altitudeMode>absolute</altitudeMode>
                    </Point>
                </Placemark>
                <Placemark id="51">
                    <name>40k</name>
                    <description><![CDATA[
        <h1>Waypoint</h1>
        <table style="width: 100%;" cellpadding=0 cellspacing=0 border=0>
        <tr><td style="padding: 10px; border: solid 1px black;border-bottom: 0;"><strong>Local Time</strong></td><td style="border: solid 1px black;border-left: 0; border-bottom: 0; padding: 10px;">08:25:00</td></tr>
        <tr><td style="padding: 10px; border: solid 1px black;border-bottom: 0;"><strong>Altitude</strong></td><td style="border: solid 1px black;border-left: 0; border-bottom: 0; padding: 10px;">39,937ft (12,172.8m)</td></tr>
        <tr><td style="padding: 10px; border: solid 1px black;"><strong>Coordinates</strong></td><td style="border: solid 1px black; border-left: 0; padding: 10px;">39.117, -103.6735</td></tr>
        </table>
        ]]></description>
                    <styleUrl>#52</styleUrl>
                    <Point id="50">
                        <coordinates>-103.6735,39.117,12172.8</coordinates>
                        <altitudeMode>absolute</altitudeMode>
                    </Point>
                </Placemark>
                <Placemark id="56">
                    <name>50k</name>
                    <description><![CDATA[
        <h1>Waypoint</h1>
        <table style="width: 100%;" cellpadding=0 cellspacing=0 border=0>
        <tr><td style="padding: 10px; border: solid 1px black;border-bottom: 0;"><strong>Local Time</strong></td><td style="border: solid 1px black;border-left: 0; border-bottom: 0; padding: 10px;">08:34:00</td></tr>
        <tr><td style="padding: 10px; border: solid 1px black;border-bottom: 0;"><strong>Altitude</strong></td><td style="border: solid 1px black;border-left: 0; border-bottom: 0; padding: 10px;">49,870ft (15,200.4m)</td></tr>
        <tr><td style="padding: 10px; border: solid 1px black;"><strong>Coordinates</strong></td><td style="border: solid 1px black; border-left: 0; padding: 10px;">39.06766667, -103.6615</td></tr>
        </table>
        ]]></description>
                    <styleUrl>#57</styleUrl>
                    <Point id="55">
                        <coordinates>-103.6615,39.0676666667,15200.38</coordinates>
                        <altitudeMode>absolute</altitudeMode>
                    </Point>
                </Placemark>
                <Placemark id="61">
                    <name>60k</name>
                    <description><![CDATA[
        <h1>Waypoint</h1>
        <table style="width: 100%;" cellpadding=0 cellspacing=0 border=0>
        <tr><td style="padding: 10px; border: solid 1px black;border-bottom: 0;"><strong>Local Time</strong></td><td style="border: solid 1px black;border-left: 0; border-bottom: 0; padding: 10px;">08:44:00</td></tr>
        <tr><td style="padding: 10px; border: solid 1px black;border-bottom: 0;"><strong>Altitude</strong></td><td style="border: solid 1px black;border-left: 0; border-bottom: 0; padding: 10px;">59,920ft (18,263.6m)</td></tr>
        <tr><td style="padding: 10px; border: solid 1px black;"><strong>Coordinates</strong></td><td style="border: solid 1px black; border-left: 0; padding: 10px;">39.0395, -103.62933333</td></tr>
        </table>
        ]]></description>
                    <styleUrl>#62</styleUrl>
                    <Point id="60">
                        <coordinates>-103.6293333333,39.0395,18263.62</coordinates>
                        <altitudeMode>absolute</altitudeMode>
                    </Point>
                </Placemark>
                <Placemark id="66">
                    <name>70k</name>
                    <description><![CDATA[
        <h1>Waypoint</h1>
        <table style="width: 100%;" cellpadding=0 cellspacing=0 border=0>
        <tr><td style="padding: 10px; border: solid 1px black;border-bottom: 0;"><strong>Local Time</strong></td><td style="border: solid 1px black;border-left: 0; border-bottom: 0; padding: 10px;">08:53:30</td></tr>
        <tr><td style="padding: 10px; border: solid 1px black;border-bottom: 0;"><strong>Altitude</strong></td><td style="border: solid 1px black;border-left: 0; border-bottom: 0; padding: 10px;">70,014ft (21,340.3m)</td></tr>
        <tr><td style="padding: 10px; border: solid 1px black;"><strong>Coordinates</strong></td><td style="border: solid 1px black; border-left: 0; padding: 10px;">39.031, -103.62266667</td></tr>
        </table>
        ]]></description>
                    <styleUrl>#67</styleUrl>
                    <Point id="65">
                        <coordinates>-103.6226666667,39.031,21340.27</coordinates>
                        <altitudeMode>absolute</altitudeMode>
                    </Point>
                </Placemark>
                <Placemark id="71">
                    <name>80k</name>
                    <description><![CDATA[
        <h1>Waypoint</h1>
        <table style="width: 100%;" cellpadding=0 cellspacing=0 border=0>
        <tr><td style="padding: 10px; border: solid 1px black;border-bottom: 0;"><strong>Local Time</strong></td><td style="border: solid 1px black;border-left: 0; border-bottom: 0; padding: 10px;">09:02:30</td></tr>
        <tr><td style="padding: 10px; border: solid 1px black;border-bottom: 0;"><strong>Altitude</strong></td><td style="border: solid 1px black;border-left: 0; border-bottom: 0; padding: 10px;">79,909ft (24,356.3m)</td></tr>
        <tr><td style="padding: 10px; border: solid 1px black;"><strong>Coordinates</strong></td><td style="border: solid 1px black; border-left: 0; padding: 10px;">39.02216667, -103.64483333</td></tr>
        </table>
        ]]></description>
                    <styleUrl>#72</styleUrl>
                    <Point id="70">
                        <coordinates>-103.6448333333,39.0221666667,24356.26</coordinates>
                        <altitudeMode>absolute</altitudeMode>
                    </Point>
                </Placemark>
                <Placemark id="76">
                    <name>10k</name>
                    <description><![CDATA[
        <h1>Waypoint</h1>
        <table style="width: 100%;" cellpadding=0 cellspacing=0 border=0>
        <tr><td style="padding: 10px; border: solid 1px black;border-bottom: 0;"><strong>Local Time</strong></td><td style="border: solid 1px black;border-left: 0; border-bottom: 0; padding: 10px;">09:50:30</td></tr>
        <tr><td style="padding: 10px; border: solid 1px black;border-bottom: 0;"><strong>Altitude</strong></td><td style="border: solid 1px black;border-left: 0; border-bottom: 0; padding: 10px;">10,165ft (3,098.3m)</td></tr>
        <tr><td style="padding: 10px; border: solid 1px black;"><strong>Coordinates</strong></td><td style="border: solid 1px black; border-left: 0; padding: 10px;">38.88033333, -103.6095</td></tr>
        </table>
        ]]></description>
                    <styleUrl>#77</styleUrl>
                    <Point id="75">
                        <coordinates>-103.6095,38.8803333333,3098.29</coordinates>
                        <altitudeMode>absolute</altitudeMode>
                    </Point>
                </Placemark>
                <Placemark id="81">
                    <name>20k</name>
                    <description><![CDATA[
        <h1>Waypoint</h1>
        <table style="width: 100%;" cellpadding=0 cellspacing=0 border=0>
        <tr><td style="padding: 10px; border: solid 1px black;border-bottom: 0;"><strong>Local Time</strong></td><td style="border: solid 1px black;border-left: 0; border-bottom: 0; padding: 10px;">09:41:20</td></tr>
        <tr><td style="padding: 10px; border: solid 1px black;border-bottom: 0;"><strong>Altitude</strong></td><td style="border: solid 1px black;border-left: 0; border-bottom: 0; padding: 10px;">19,974ft (6,088.1m)</td></tr>
        <tr><td style="padding: 10px; border: solid 1px black;"><strong>Coordinates</strong></td><td style="border: solid 1px black; border-left: 0; padding: 10px;">38.914, -103.633</td></tr>
        </table>
        ]]></description>
                    <styleUrl>#82</styleUrl>
                    <Point id="80">
                        <coordinates>-103.633,38.914,6088.08</coordinates>
                        <altitudeMode>absolute</altitudeMode>
                    </Point>
                </Placemark>
                <Placemark id="86">
                    <name>30k</name>
                    <description><![CDATA[
        <h1>Waypoint</h1>
        <table style="width: 100%;" cellpadding=0 cellspacing=0 border=0>
        <tr><td style="padding: 10px; border: solid 1px black;border-bottom: 0;"><strong>Local Time</strong></td><td style="border: solid 1px black;border-left: 0; border-bottom: 0; padding: 10px;">09:33:30</td></tr>
        <tr><td style="padding: 10px; border: solid 1px black;border-bottom: 0;"><strong>Altitude</strong></td><td style="border: solid 1px black;border-left: 0; border-bottom: 0; padding: 10px;">30,220ft (9,211.1m)</td></tr>
        <tr><td style="padding: 10px; border: solid 1px black;"><strong>Coordinates</strong></td><td style="border: solid 1px black; border-left: 0; padding: 10px;">38.94816667, -103.64383333</td></tr>
        </table>
        ]]></description>
                    <styleUrl>#87</styleUrl>
                    <Point id="85">
                        <coordinates>-103.6438333333,38.9481666667,9211.06</coordinates>
                        <altitudeMode>absolute</altitudeMode>
                    </Point>
                </Placemark>
                <Placemark id="91">
                    <name>40k</name>
                    <description><![CDATA[
        <h1>Waypoint</h1>
        <table style="width: 100%;" cellpadding=0 cellspacing=0 border=0>
        <tr><td style="padding: 10px; border: solid 1px black;border-bottom: 0;"><strong>Local Time</strong></td><td style="border: solid 1px black;border-left: 0; border-bottom: 0; padding: 10px;">09:27:00</td></tr>
        <tr><td style="padding: 10px; border: solid 1px black;border-bottom: 0;"><strong>Altitude</strong></td><td style="border: solid 1px black;border-left: 0; border-bottom: 0; padding: 10px;">40,030ft (12,201.1m)</td></tr>
        <tr><td style="padding: 10px; border: solid 1px black;"><strong>Coordinates</strong></td><td style="border: solid 1px black; border-left: 0; padding: 10px;">38.98366667, -103.636</td></tr>
        </table>
        ]]></description>
                    <styleUrl>#92</styleUrl>
                    <Point id="90">
                        <coordinates>-103.636,38.9836666667,12201.14</coordinates>
                        <altitudeMode>absolute</altitudeMode>
                    </Point>
                </Placemark>
                <Placemark id="96">
                    <name>50k</name>
                    <description><![CDATA[
        <h1>Waypoint</h1>
        <table style="width: 100%;" cellpadding=0 cellspacing=0 border=0>
        <tr><td style="padding: 10px; border: solid 1px black;border-bottom: 0;"><strong>Local Time</strong></td><td style="border: solid 1px black;border-left: 0; border-bottom: 0; padding: 10px;">09:22:00</td></tr>
        <tr><td style="padding: 10px; border: solid 1px black;border-bottom: 0;"><strong>Altitude</strong></td><td style="border: solid 1px black;border-left: 0; border-bottom: 0; padding: 10px;">50,053ft (15,256.1m)</td></tr>
        <tr><td style="padding: 10px; border: solid 1px black;"><strong>Coordinates</strong></td><td style="border: solid 1px black; border-left: 0; padding: 10px;">39.0085, -103.64683333</td></tr>
        </table>
        ]]></description>
                    <styleUrl>#97</styleUrl>
                    <Point id="95">
                        <coordinates>-103.6468333333,39.0085,15256.15</coordinates>
                        <altitudeMode>absolute</altitudeMode>
                    </Point>
                </Placemark>
                <Placemark id="101">
                    <name>60k</name>
                    <description><![CDATA[
        <h1>Waypoint</h1>
        <table style="width: 100%;" cellpadding=0 cellspacing=0 border=0>
        <tr><td style="padding: 10px; border: solid 1px black;border-bottom: 0;"><strong>Local Time</strong></td><td style="border: solid 1px black;border-left: 0; border-bottom: 0; padding: 10px;">09:18:00</td></tr>
        <tr><td style="padding: 10px; border: solid 1px black;border-bottom: 0;"><strong>Altitude</strong></td><td style="border: solid 1px black;border-left: 0; border-bottom: 0; padding: 10px;">60,498ft (18,439.8m)</td></tr>
        <tr><td style="padding: 10px; border: solid 1px black;"><strong>Coordinates</strong></td><td style="border: solid 1px black; border-left: 0; padding: 10px;">39.022, -103.662</td></tr>
        </table>
        ]]></description>
                    <styleUrl>#102</styleUrl>
                    <Point id="100">
                        <coordinates>-103.662,39.022,18439.79</coordinates>
                        <altitudeMode>absolute</altitudeMode>
                    </Point>
                </Placemark>
                <Placemark id="106">
                    <name>70k</name>
                    <description><![CDATA[
        <h1>Waypoint</h1>
        <table style="width: 100%;" cellpadding=0 cellspacing=0 border=0>
        <tr><td style="padding: 10px; border: solid 1px black;border-bottom: 0;"><strong>Local Time</strong></td><td style="border: solid 1px black;border-left: 0; border-bottom: 0; padding: 10px;">09:15:20</td></tr>
        <tr><td style="padding: 10px; border: solid 1px black;border-bottom: 0;"><strong>Altitude</strong></td><td style="border: solid 1px black;border-left: 0; border-bottom: 0; padding: 10px;">69,622ft (21,220.8m)</td></tr>
        <tr><td style="padding: 10px; border: solid 1px black;"><strong>Coordinates</strong></td><td style="border: solid 1px black; border-left: 0; padding: 10px;">39.02233333, -103.66183333</td></tr>
        </table>
        ]]></description>
                    <styleUrl>#107</styleUrl>
                    <Point id="105">
                        <coordinates>-103.6618333333,39.0223333333,21220.79</coordinates>
                        <altitudeMode>absolute</altitudeMode>
                    </Point>
                </Placemark>
                <Placemark id="111">
                    <name>80k</name>
                    <description><![CDATA[
        <h1>Waypoint</h1>
        <table style="width: 100%;" cellpadding=0 cellspacing=0 border=0>
        <tr><td style="padding: 10px; border: solid 1px black;border-bottom: 0;"><strong>Local Time</strong></td><td style="border: solid 1px black;border-left: 0; border-bottom: 0; padding: 10px;">09:13:00</td></tr>
        <tr><td style="padding: 10px; border: solid 1px black;border-bottom: 0;"><strong>Altitude</strong></td><td style="border: solid 1px black;border-left: 0; border-bottom: 0; padding: 10px;">80,188ft (24,441.3m)</td></tr>
        <tr><td style="padding: 10px; border: solid 1px black;"><strong>Coordinates</strong></td><td style="border: solid 1px black; border-left: 0; padding: 10px;">39.023, -103.6575</td></tr>
        </table>
        ]]></description>
                    <styleUrl>#112</styleUrl>
                    <Point id="110">
                        <coordinates>-103.6575,39.023,24441.3</coordinates>
                        <altitudeMode>absolute</altitudeMode>
                    </Point>
                </Placemark>
            </Folder>
            <Folder id="5">
                <Style id="16">
                    <IconStyle id="17">
                        <color>ff008cff</color>
                        <colorMode>normal</colorMode>
                        <scale>1</scale>
                        <heading>0</heading>
                        <Icon id="18">
                            <href>https://maps.google.com/mapfiles/kml/shapes/placemark_circle.png</href>
                        </Icon>
                    </IconStyle>
                </Style>
                <Style id="21">
                    <IconStyle id="22">
                        <color>ff008cff</color>
                        <colorMode>normal</colorMode>
                        <scale>1</scale>
                        <heading>0</heading>
                        <Icon id="23">
                            <href>https://maps.google.com/mapfiles/kml/shapes/placemark_circle.png</href>
                        </Icon>
                    </IconStyle>
                </Style>
                <Style id="26">
                    <IconStyle id="27">
                        <color>ff00ffff</color>
                        <colorMode>normal</colorMode>
                        <scale>1</scale>
                        <heading>0</heading>
                        <Icon id="28">
                            <href>https://maps.google.com/mapfiles/kml/shapes/placemark_circle.png</href>
                        </Icon>
                    </IconStyle>
                </Style>
                <Style id="31">
                    <IconStyle id="32">
                        <color>ff006400</color>
                        <colorMode>normal</colorMode>
                        <scale>1</scale>
                        <heading>0</heading>
                        <Icon id="33">
                            <href>https://maps.google.com/mapfiles/kml/shapes/placemark_circle.png</href>
                        </Icon>
                    </IconStyle>
                    <LabelStyle id="34">
                        <color>ff006400</color>
                        <colorMode>normal</colorMode>
                        <scale>1</scale>
                    </LabelStyle>
                </Style>
                <name>Points of Interest</name>
                <Placemark id="15">
                    <name>Launch</name>
                    <description><![CDATA[
    <h1>Launch</h1>
    <table style="width: 100%;" cellpadding=0 cellspacing=0 border=0>
    <tr><td style="padding: 10px; border: solid 1px black;border-bottom: 0;"><strong>Local Time</strong></td><td style="border: solid 1px black;border-bottom: 0; border-left: 0; padding: 10px;">07:57:20</td></tr>
    <tr><td style="padding: 10px; border: solid 1px black;border-bottom: 0;"><strong>Altitude</strong></td><td style="border: solid 1px black;border-left: 0; border-bottom: 0; padding: 10px;">5,408ft (1,648.4m)</td></tr>
    <tr><td style="padding: 10px; border: solid 1px black;"><strong>Coordinates</strong></td><td style="border: solid 1px black; border-left: 0; padding: 10px;">39.23616667, -103.69683333</td></tr>
    </table>
    ]]></description>
                    <styleUrl>#16</styleUrl>
                    <Point id="14">
                        <coordinates>-103.6968333333,39.2361666667,1648.36</coordinates>
                        <altitudeMode>absolute</altitudeMode>
                    </Point>
                </Placemark>
                <Placemark id="20">
                    <name>Landing</name>
                    <description><![CDATA[
    <h1>Landing</h1>
    <table style="width: 100%;" cellpadding=0 cellspacing=0 border=0>
    <tr><td style="padding: 10px; border: solid 1px black;border-bottom: 0;"><strong>Local Time</strong></td><td style="border: solid 1px black;border-left: 0; border-bottom: 0; padding: 10px;">09:56:50</td></tr>
    <tr><td style="padding: 10px; border: solid 1px black;border-bottom: 0;"><strong>Altitude</strong></td><td style="border: solid 1px black;border-bottom: 0; border-left: 0; padding: 10px;">5,110ft (1,557.5m)</td></tr>
    <tr><td style="padding: 10px; border: solid 1px black;"><strong>Coordinates</strong></td><td style="border: solid 1px black; border-left: 0; padding: 10px;">38.88083333, -103.6035</td></tr>
    </table>
    ]]></description>
                    <styleUrl>#21</styleUrl>
                    <Point id="19">
                        <coordinates>-103.6035,38.8808333333,1557.53</coordinates>
                        <altitudeMode>absolute</altitudeMode>
                    </Point>
                </Placemark>
                <Placemark id="25">
                    <name>Burst 89,886ft</name>
                    <description><![CDATA[
    <h1>Burst: 89,886ft</h1>
    <table style="width: 100%;" cellpadding=0 cellspacing=0 border=0>
    <tr><td style="padding: 10px; border: solid 1px black;border-bottom: 0;"><strong>Local Time</strong></td><td style="border: solid 1px black;border-left: 0; border-bottom: 0; padding: 10px;">09:11:20</td></tr>
    <tr><td style="padding: 10px; border: solid 1px black;border-bottom: 0;"><strong>Altitude</strong></td><td style="border: solid 1px black;border-left: 0; border-bottom: 0; padding: 10px;">89,886ft (27,397.2m)</td></tr>
    <tr><td style="padding: 10px; border: solid 1px black;"><strong>Coordinates</strong></td><td style="border: solid 1px black; border-left: 0; padding: 10px;">39.02283333, -103.65433333</td></tr>
    </table>
    ]]></description>
                    <styleUrl>#26</styleUrl>
                    <Point id="24">
                        <coordinates>-103.6543333333,39.0228333333,27397.25</coordinates>
                        <altitudeMode>absolute</altitudeMode>
                    </Point>
                </Placemark>
                <Placemark id="30">
                    <name>46k, Turbulent-to-Laminar</name>
                    <description><![CDATA[
        <h1>Airflow Transitioning from Turbulent-to-Laminar</h1>
        <table style="width: 100%;" cellpadding=0 cellspacing=0 border=0>
        <tr><td style="padding: 10px; border: solid 1px black;border-bottom: 0;"><strong>Local Time</strong></td><td style="border: solid 1px black;border-left: 0; border-bottom: 0; padding: 10px;">08:30:00</td></tr>
        <tr><td style="padding: 10px; border: solid 1px black;border-bottom: 0;"><strong>Altitude</strong></td><td style="border: solid 1px black;border-left: 0; border-bottom: 0; padding: 10px;">46,052ft (14,036.6m)</td></tr>
        <tr><td style="padding: 10px; border: solid 1px black;"><strong>Coordinates</strong></td><td style="border: solid 1px black; border-left: 0; padding: 10px;">39.08566667, -103.67716667</td></tr>
        </table>
        ]]></description>
                    <styleUrl>#31</styleUrl>
                    <Point id="29">
                        <coordinates>-103.6771666667,39.0856666667,14036.65</coordinates>
                        <altitudeMode>absolute</altitudeMode>
                    </Point>
                </Placemark>
            </Folder>
        </Document>
    </Document>
</kml>
