<?xml version="1.0" encoding="UTF-8"?>
<kml xmlns="http://www.opengis.net/kml/2.2" xmlns:gx="http://www.google.com/kml/ext/2.2">
    <Document id="1">
        <Document id="2">
            <name>EOSS-334</name>
            <description><![CDATA[
    <h1>EOSS-334</h1>
    <table style="width: 100%;" cellpadding=0 cellspacing=0 border=0>
    <tr><td style="border: solid 1px black;border-bottom: 0; padding: 10px;"><strong>Launch Local Date/Time</strong></td><td style=" padding: 10px;border: solid 1px black;border-bottom: 0; border-left: 0;">2023-01-14 08:08:56</td></tr>
    <tr><td style="border: solid 1px black;border-bottom: 0; padding: 10px;"><strong>Flight Duration</strong></td><td style=" padding: 10px;border: solid 1px black;border-bottom: 0; border-left: 0; ">1hrs 59mins 52secs</td></tr>
    <tr><td style="border: solid 1px black;border-bottom: 0; padding: 10px;"><strong>Down Range Distance</strong></td><td style=" padding: 10px;border: solid 1px black;border-bottom: 0; border-left: 0; ">75.6mi (121.6km)</td></tr>
    <tr><td style="border: solid 1px black; padding: 10px;"><strong>Approx. Burst Altitude</strong></td><td style=" padding: 10px;border: solid 1px black; border-left: 0; ">86,211ft (26,277.1m)</td></tr>
    </table>
    ]]></description>
            <Folder id="3">
                <Style id="8">
                    <LineStyle id="9">
                        <color>ff0000ff</color>
                        <colorMode>normal</colorMode>
                        <width>3</width>
                    </LineStyle>
                </Style>
                <Style id="12">
                    <LineStyle id="13">
                        <color>ffff0000</color>
                        <colorMode>normal</colorMode>
                        <width>3</width>
                    </LineStyle>
                </Style>
                <name>Paths</name>
                <Placemark id="7">
                    <name>EOSS-334 Ascent</name>
                    <styleUrl>#8</styleUrl>
                    <LineString id="6">
                        <extrude>0</extrude>
                        <altitudeMode>absolute</altitudeMode>
                        <coordinates>-104.042,39.6081666667,1589.53 -104.0423333333,39.6083333333,1600.5 -104.0423333333,39.6085,1604.47 -104.0395,39.6063333333,2019.3 -104.0373333333,39.6043333333,2161.34 -104.0371666667,39.6043333333,2168.04 -104.0336666667,39.6013333333,2379.57 -104.0313333333,39.5993333333,2736.19 -104.0313333333,39.5993333333,2742.9 -104.031,39.599,2915.72 -104.0303333333,39.5985,3047.09 -104.0291666667,39.5978333333,3224.78 -104.0271666667,39.5973333333,3520.74 -104.0245,39.5975,3653.03 -104.0243333333,39.5975,3666.13 -104.0148333333,39.5978333333,4069.99 -104.011,39.5983333333,4244.04 -104.0106666667,39.5983333333,4261.1 -104.0036666667,39.599,4530.55 -103.9956666667,39.5988333333,4876.8 -103.9951666667,39.5988333333,4890.82 -103.9881666667,39.5986666667,5150.51 -103.9773333333,39.5988333333,5437.94 -103.9768333333,39.5988333333,5449.52 -103.9671666667,39.5986666667,5730.54 -103.9613333333,39.5986666667,5892.39 -103.961,39.5985,5903.67 -103.9456666667,39.5983333333,6269.13 -103.9391666667,39.5985,6415.13 -103.9388333333,39.5985,6420.92 -103.9185,39.6016666667,6867.14 -103.9103333333,39.6035,6980.83 -103.9096666667,39.6036666667,6985.71 -103.8963333333,39.6078333333,7165.24 -103.8793333333,39.6135,7479.18 -103.8786666667,39.6136666667,7495.03 -103.8645,39.6188333333,7803.18 -103.8561666667,39.6228333333,7971.13 -103.8556666667,39.623,7979.97 -103.8321666667,39.6335,8488.07 -103.8241666667,39.637,8653.27 -103.8233333333,39.6373333333,8671.86 -103.8088333333,39.6433333333,8985.5 -103.7903333333,39.6508333333,9325.05 -103.79,39.651,9332.37 -103.7736666667,39.6576666667,9632.29 -103.7651666667,39.6616666667,9820.96 -103.7643333333,39.662,9836.51 -103.7395,39.6755,10373.56 -103.7311666667,39.6803333333,10564.98 -103.7303333333,39.6806666667,10576.26 -103.7055,39.6941666667,11066.37 -103.6961666667,39.6986666667,11256.87 -103.6953333333,39.6991666667,11269.68 -103.677,39.7076666667,11604.65 -103.6516666667,39.7185,11982.6 -103.6505,39.7188333333,11998.76 -103.6298333333,39.7271666667,12309.65 -103.6178333333,39.7315,12482.78 -103.6168333333,39.7318333333,12496.19 -103.5861666667,39.742,12951.26 -103.5755,39.7446666667,13132.31 -103.5746666667,39.7448333333,13146.02 -103.55,39.7495,13688.87 -103.5415,39.752,13858.04 -103.5411666667,39.752,13865.35 -103.5268333333,39.757,14186.61 -103.509,39.7615,14552.37 -103.5086666667,39.7615,14560.6 -103.4931666667,39.761,14834.31 -103.4851666667,39.7615,14956.23 -103.4845,39.7615,14966.59 -103.4635,39.7641666667,15304.62 -103.4556666667,39.7655,15435.68 -103.455,39.7655,15445.44 -103.4431666667,39.7646666667,15734.39 -103.4336666667,39.7641666667,16038.58 -103.4331666667,39.7643333333,16050.77 -103.4256666667,39.7635,16275.41 -103.4225,39.7628333333,16425.37 -103.4221666667,39.7628333333,16438.17 -103.4173333333,39.7601666667,16918.53 -103.4158333333,39.7603333333,17062.7 -103.4156666667,39.7603333333,17072.76 -103.4101666667,39.7613333333,17462.3 -103.4075,39.762,17573.55 -103.4073333333,39.762,17583.61 -103.4008333333,39.7628333333,17778.07 -103.3936666667,39.7635,18016.73 -103.3935,39.7635,18026.79 -103.3875,39.7638333333,18234.05 -103.3841666667,39.7636666667,18364.2 -103.384,39.7636666667,18368.47 -103.3721666667,39.7605,18783.6 -103.3685,39.758,18933.87 -103.3683333333,39.7578333333,18938.44 -103.363,39.7515,19364.86 -103.361,39.7505,19508.11 -103.3608333333,39.7505,19518.17 -103.3571666667,39.7485,19729.09 -103.3548333333,39.7478333333,19848.27 -103.3516666667,39.7466666667,19992.14 -103.3488333333,39.7446666667,20208.54 -103.3478333333,39.7441666667,20330.16 -103.3476666667,39.7441666667,20341.74 -103.3468333333,39.7426666667,20648.98 -103.3461666667,39.7421666667,20774.25 -103.346,39.7421666667,20778.83 -103.3436666667,39.7415,20981.82 -103.3405,39.7393333333,21225.05 -103.3405,39.7393333333,21230.23 -103.3403333333,39.7365,21431.71 -103.3408333333,39.736,21535.03 -103.3408333333,39.7358333333,21539.0 -103.3411666667,39.7341666667,21867.88 -103.3408333333,39.7333333333,21996.5 -103.3406666667,39.7333333333,22001.68 -103.3391666667,39.7291666667,22365.31 -103.339,39.7266666667,22489.97 -103.339,39.7265,22499.12 -103.3393333333,39.7211666667,22824.64 -103.339,39.719,22936.5 -103.3388333333,39.7188333333,22946.87 -103.3391666667,39.7145,23156.88 -103.3393333333,39.7113333333,23386.39 -103.3393333333,39.7111666667,23395.84 -103.3386666667,39.7078333333,23612.86 -103.339,39.7058333333,23733.25 -103.3388333333,39.7056666667,23743.01 -103.3388333333,39.7018333333,24092.92 -103.3381666667,39.6998333333,24211.48 -103.3363333333,39.6925,24551.94 -103.3351666667,39.6901666667,24676.61 -103.335,39.69,24685.75 -103.334,39.6843333333,24911.61 -103.3345,39.677,25166.42 -103.3345,39.6766666667,25178.0 -103.3351666667,39.67,25396.55 -103.3353333333,39.6661666667,25512.67 -103.3353333333,39.6658333333,25521.82 -103.334,39.655,25835.76 -103.334,39.6513333333,25944.88 -103.334,39.651,25954.94 -103.3351666667,39.6405,26277.11</coordinates>
                    </LineString>
                </Placemark>
                <Placemark id="11">
                    <name>EOSS-334 Descent</name>
                    <styleUrl>#12</styleUrl>
                    <LineString id="10">
                        <extrude>0</extrude>
                        <altitudeMode>absolute</altitudeMode>
                        <coordinates>-103.3351666667,39.6405,26277.11 -103.336,39.6363333333,25914.4 -103.3358333333,39.636,25858.32 -103.0043333333,39.7103333333,9971.23 -102.9955,39.714,9827.06 -102.9868333333,39.7173333333,9678.01 -102.9613333333,39.7261666667,9277.81 -102.9521666667,39.7293333333,9159.24 -102.9518333333,39.7295,9150.4 -102.9363333333,39.7346666667,8877.0 -102.9173333333,39.7413333333,8573.72 -102.917,39.7415,8567.93 -102.9011666667,39.7466666667,8321.65 -102.8925,39.7495,8186.62 -102.8916666667,39.7496666667,8175.35 -102.868,39.7573333333,7810.2 -102.859,39.7598333333,7683.4 -102.8586666667,39.7598333333,7678.52 -102.8365,39.7656666667,7352.69 -102.8293333333,39.7668333333,7237.48 -102.829,39.7668333333,7232.6 -102.8165,39.7675,7049.72 -102.8028333333,39.7688333333,6831.48 -102.8023333333,39.7688333333,6820.81 -102.7921666667,39.7693333333,6630.31 -102.7865,39.7693333333,6510.53 -102.7733333333,39.7698333333,6220.97 -102.7691666667,39.7708333333,6126.48 -102.7688333333,39.7708333333,6113.37 -102.7575,39.773,5849.42 -102.754,39.7738333333,5751.88 -102.7535,39.7738333333,5745.18 -102.7433333333,39.7773333333,5487.92 -102.7396666667,39.7781666667,5394.35 -102.7391666667,39.7783333333,5386.43 -102.7318333333,39.7805,5226.41 -102.7231666667,39.783,5022.49 -102.7228333333,39.783,5013.96 -102.7151666667,39.7846666667,4852.42 -102.711,39.7848333333,4762.2 -102.7106666667,39.7848333333,4754.27 -102.6991666667,39.7835,4495.19 -102.6948333333,39.7826666667,4406.19 -102.6946666667,39.7826666667,4398.87 -102.6856666667,39.781,4145.89 -102.6823333333,39.7806666667,4048.96 -102.6823333333,39.7806666667,4044.39 -102.6745,39.7796666667,3771.29 -102.6718333333,39.7798333333,3679.55 -102.6716666667,39.7798333333,3670.71 -102.666,39.7798333333,3511.6 -102.6606666667,39.7805,3337.56 -102.6605,39.7805,3329.94 -102.6558333333,39.7805,3184.55 -102.6525,39.7801666667,3099.21 -102.65,39.78,2997.1 -102.646,39.7796666667,2845.0 -102.644,39.7793333333,2763.32 -102.6438333333,39.7793333333,2759.66 -102.6398333333,39.7785,2552.09 -102.639,39.7778333333,2470.1 -102.639,39.7778333333,2466.14 -102.6371666667,39.7765,2226.26 -102.6365,39.7756666667,2134.82 -102.6365,39.7756666667,2131.77 -102.6358333333,39.7743333333,1901.34 -102.6358333333,39.7738333333,1819.66 -102.6356666667,39.7736666667,1812.04 -102.6361666667,39.7735,1682.19</coordinates>
                    </LineString>
                </Placemark>
            </Folder>
            <Folder id="4">
                <Style id="37">
                    <IconStyle id="38">
                        <color>ff0000ff</color>
                        <colorMode>normal</colorMode>
                        <scale>1</scale>
                        <heading>0</heading>
                        <Icon id="39">
                            <href>https://maps.google.com/mapfiles/kml/shapes/placemark_circle.png</href>
                        </Icon>
                    </IconStyle>
                </Style>
                <Style id="42">
                    <IconStyle id="43">
                        <color>ff0000ff</color>
                        <colorMode>normal</colorMode>
                        <scale>1</scale>
                        <heading>0</heading>
                        <Icon id="44">
                            <href>https://maps.google.com/mapfiles/kml/shapes/placemark_circle.png</href>
                        </Icon>
                    </IconStyle>
                </Style>
                <Style id="47">
                    <IconStyle id="48">
                        <color>ff0000ff</color>
                        <colorMode>normal</colorMode>
                        <scale>1</scale>
                        <heading>0</heading>
                        <Icon id="49">
                            <href>https://maps.google.com/mapfiles/kml/shapes/placemark_circle.png</href>
                        </Icon>
                    </IconStyle>
                </Style>
                <Style id="52">
                    <IconStyle id="53">
                        <color>ff0000ff</color>
                        <colorMode>normal</colorMode>
                        <scale>1</scale>
                        <heading>0</heading>
                        <Icon id="54">
                            <href>https://maps.google.com/mapfiles/kml/shapes/placemark_circle.png</href>
                        </Icon>
                    </IconStyle>
                </Style>
                <Style id="57">
                    <IconStyle id="58">
                        <color>ff0000ff</color>
                        <colorMode>normal</colorMode>
                        <scale>1</scale>
                        <heading>0</heading>
                        <Icon id="59">
                            <href>https://maps.google.com/mapfiles/kml/shapes/placemark_circle.png</href>
                        </Icon>
                    </IconStyle>
                </Style>
                <Style id="62">
                    <IconStyle id="63">
                        <color>ff0000ff</color>
                        <colorMode>normal</colorMode>
                        <scale>1</scale>
                        <heading>0</heading>
                        <Icon id="64">
                            <href>https://maps.google.com/mapfiles/kml/shapes/placemark_circle.png</href>
                        </Icon>
                    </IconStyle>
                </Style>
                <Style id="67">
                    <IconStyle id="68">
                        <color>ff0000ff</color>
                        <colorMode>normal</colorMode>
                        <scale>1</scale>
                        <heading>0</heading>
                        <Icon id="69">
                            <href>https://maps.google.com/mapfiles/kml/shapes/placemark_circle.png</href>
                        </Icon>
                    </IconStyle>
                </Style>
                <Style id="72">
                    <IconStyle id="73">
                        <color>ff0000ff</color>
                        <colorMode>normal</colorMode>
                        <scale>1</scale>
                        <heading>0</heading>
                        <Icon id="74">
                            <href>https://maps.google.com/mapfiles/kml/shapes/placemark_circle.png</href>
                        </Icon>
                    </IconStyle>
                </Style>
                <Style id="77">
                    <IconStyle id="78">
                        <color>ffff0000</color>
                        <colorMode>normal</colorMode>
                        <scale>1</scale>
                        <heading>0</heading>
                        <Icon id="79">
                            <href>https://maps.google.com/mapfiles/kml/shapes/placemark_circle.png</href>
                        </Icon>
                    </IconStyle>
                </Style>
                <Style id="82">
                    <IconStyle id="83">
                        <color>ffff0000</color>
                        <colorMode>normal</colorMode>
                        <scale>1</scale>
                        <heading>0</heading>
                        <Icon id="84">
                            <href>https://maps.google.com/mapfiles/kml/shapes/placemark_circle.png</href>
                        </Icon>
                    </IconStyle>
                </Style>
                <Style id="87">
                    <IconStyle id="88">
                        <color>ffff0000</color>
                        <colorMode>normal</colorMode>
                        <scale>1</scale>
                        <heading>0</heading>
                        <Icon id="89">
                            <href>https://maps.google.com/mapfiles/kml/shapes/placemark_circle.png</href>
                        </Icon>
                    </IconStyle>
                </Style>
                <Style id="92">
                    <IconStyle id="93">
                        <color>ffff0000</color>
                        <colorMode>normal</colorMode>
                        <scale>1</scale>
                        <heading>0</heading>
                        <Icon id="94">
                            <href>https://maps.google.com/mapfiles/kml/shapes/placemark_circle.png</href>
                        </Icon>
                    </IconStyle>
                </Style>
                <Style id="97">
                    <IconStyle id="98">
                        <color>ffff0000</color>
                        <colorMode>normal</colorMode>
                        <scale>1</scale>
                        <heading>0</heading>
                        <Icon id="99">
                            <href>https://maps.google.com/mapfiles/kml/shapes/placemark_circle.png</href>
                        </Icon>
                    </IconStyle>
                </Style>
                <Style id="102">
                    <IconStyle id="103">
                        <color>ffff0000</color>
                        <colorMode>normal</colorMode>
                        <scale>1</scale>
                        <heading>0</heading>
                        <Icon id="104">
                            <href>https://maps.google.com/mapfiles/kml/shapes/placemark_circle.png</href>
                        </Icon>
                    </IconStyle>
                </Style>
                <Style id="107">
                    <IconStyle id="108">
                        <color>ffff0000</color>
                        <colorMode>normal</colorMode>
                        <scale>1</scale>
                        <heading>0</heading>
                        <Icon id="109">
                            <href>https://maps.google.com/mapfiles/kml/shapes/placemark_circle.png</href>
                        </Icon>
                    </IconStyle>
                </Style>
                <Style id="112">
                    <IconStyle id="113">
                        <color>ffff0000</color>
                        <colorMode>normal</colorMode>
                        <scale>1</scale>
                        <heading>0</heading>
                        <Icon id="114">
                            <href>https://maps.google.com/mapfiles/kml/shapes/placemark_circle.png</href>
                        </Icon>
                    </IconStyle>
                </Style>
                <name>Waypoints</name>
                <Placemark id="36">
                    <name>10k</name>
                    <description><![CDATA[
        <h1>Waypoint</h1>
        <table style="width: 100%;" cellpadding=0 cellspacing=0 border=0>
        <tr><td style="padding: 10px; border: solid 1px black;border-bottom: 0;"><strong>Local Time</strong></td><td style="border: solid 1px black;border-left: 0; border-bottom: 0; padding: 10px;">08:13:25</td></tr>
        <tr><td style="padding: 10px; border: solid 1px black;border-bottom: 0;"><strong>Altitude</strong></td><td style="border: solid 1px black;border-left: 0; border-bottom: 0; padding: 10px;">9,997ft (3,047.1m)</td></tr>
        <tr><td style="padding: 10px; border: solid 1px black;"><strong>Coordinates</strong></td><td style="border: solid 1px black; border-left: 0; padding: 10px;">39.5985, -104.03033333</td></tr>
        </table>
        ]]></description>
                    <styleUrl>#37</styleUrl>
                    <Point id="35">
                        <coordinates>-104.0303333333,39.5985,3047.09</coordinates>
                        <altitudeMode>absolute</altitudeMode>
                    </Point>
                </Placemark>
                <Placemark id="41">
                    <name>21k</name>
                    <description><![CDATA[
        <h1>Waypoint</h1>
        <table style="width: 100%;" cellpadding=0 cellspacing=0 border=0>
        <tr><td style="padding: 10px; border: solid 1px black;border-bottom: 0;"><strong>Local Time</strong></td><td style="border: solid 1px black;border-left: 0; border-bottom: 0; padding: 10px;">08:21:38</td></tr>
        <tr><td style="padding: 10px; border: solid 1px black;border-bottom: 0;"><strong>Altitude</strong></td><td style="border: solid 1px black;border-left: 0; border-bottom: 0; padding: 10px;">20,568ft (6,269.1m)</td></tr>
        <tr><td style="padding: 10px; border: solid 1px black;"><strong>Coordinates</strong></td><td style="border: solid 1px black; border-left: 0; padding: 10px;">39.59833333, -103.94566667</td></tr>
        </table>
        ]]></description>
                    <styleUrl>#42</styleUrl>
                    <Point id="40">
                        <coordinates>-103.9456666667,39.5983333333,6269.13</coordinates>
                        <altitudeMode>absolute</altitudeMode>
                    </Point>
                </Placemark>
                <Placemark id="46">
                    <name>29k</name>
                    <description><![CDATA[
        <h1>Waypoint</h1>
        <table style="width: 100%;" cellpadding=0 cellspacing=0 border=0>
        <tr><td style="padding: 10px; border: solid 1px black;border-bottom: 0;"><strong>Local Time</strong></td><td style="border: solid 1px black;border-left: 0; border-bottom: 0; padding: 10px;">08:28:21</td></tr>
        <tr><td style="padding: 10px; border: solid 1px black;border-bottom: 0;"><strong>Altitude</strong></td><td style="border: solid 1px black;border-left: 0; border-bottom: 0; padding: 10px;">29,480ft (8,985.5m)</td></tr>
        <tr><td style="padding: 10px; border: solid 1px black;"><strong>Coordinates</strong></td><td style="border: solid 1px black; border-left: 0; padding: 10px;">39.64333333, -103.80883333</td></tr>
        </table>
        ]]></description>
                    <styleUrl>#47</styleUrl>
                    <Point id="45">
                        <coordinates>-103.8088333333,39.6433333333,8985.5</coordinates>
                        <altitudeMode>absolute</altitudeMode>
                    </Point>
                </Placemark>
                <Placemark id="51">
                    <name>40k</name>
                    <description><![CDATA[
        <h1>Waypoint</h1>
        <table style="width: 100%;" cellpadding=0 cellspacing=0 border=0>
        <tr><td style="padding: 10px; border: solid 1px black;border-bottom: 0;"><strong>Local Time</strong></td><td style="border: solid 1px black;border-left: 0; border-bottom: 0; padding: 10px;">08:35:29</td></tr>
        <tr><td style="padding: 10px; border: solid 1px black;border-bottom: 0;"><strong>Altitude</strong></td><td style="border: solid 1px black;border-left: 0; border-bottom: 0; padding: 10px;">40,386ft (12,309.6m)</td></tr>
        <tr><td style="padding: 10px; border: solid 1px black;"><strong>Coordinates</strong></td><td style="border: solid 1px black; border-left: 0; padding: 10px;">39.72716667, -103.62983333</td></tr>
        </table>
        ]]></description>
                    <styleUrl>#52</styleUrl>
                    <Point id="50">
                        <coordinates>-103.6298333333,39.7271666667,12309.65</coordinates>
                        <altitudeMode>absolute</altitudeMode>
                    </Point>
                </Placemark>
                <Placemark id="56">
                    <name>50k</name>
                    <description><![CDATA[
        <h1>Waypoint</h1>
        <table style="width: 100%;" cellpadding=0 cellspacing=0 border=0>
        <tr><td style="padding: 10px; border: solid 1px black;border-bottom: 0;"><strong>Local Time</strong></td><td style="border: solid 1px black;border-left: 0; border-bottom: 0; padding: 10px;">08:42:38</td></tr>
        <tr><td style="padding: 10px; border: solid 1px black;border-bottom: 0;"><strong>Altitude</strong></td><td style="border: solid 1px black;border-left: 0; border-bottom: 0; padding: 10px;">50,212ft (15,304.6m)</td></tr>
        <tr><td style="padding: 10px; border: solid 1px black;"><strong>Coordinates</strong></td><td style="border: solid 1px black; border-left: 0; padding: 10px;">39.76416667, -103.4635</td></tr>
        </table>
        ]]></description>
                    <styleUrl>#57</styleUrl>
                    <Point id="55">
                        <coordinates>-103.4635,39.7641666667,15304.62</coordinates>
                        <altitudeMode>absolute</altitudeMode>
                    </Point>
                </Placemark>
                <Placemark id="61">
                    <name>60k</name>
                    <description><![CDATA[
        <h1>Waypoint</h1>
        <table style="width: 100%;" cellpadding=0 cellspacing=0 border=0>
        <tr><td style="padding: 10px; border: solid 1px black;border-bottom: 0;"><strong>Local Time</strong></td><td style="border: solid 1px black;border-left: 0; border-bottom: 0; padding: 10px;">08:50:56</td></tr>
        <tr><td style="padding: 10px; border: solid 1px black;border-bottom: 0;"><strong>Altitude</strong></td><td style="border: solid 1px black;border-left: 0; border-bottom: 0; padding: 10px;">59,823ft (18,234.0m)</td></tr>
        <tr><td style="padding: 10px; border: solid 1px black;"><strong>Coordinates</strong></td><td style="border: solid 1px black; border-left: 0; padding: 10px;">39.76383333, -103.3875</td></tr>
        </table>
        ]]></description>
                    <styleUrl>#62</styleUrl>
                    <Point id="60">
                        <coordinates>-103.3875,39.7638333333,18234.05</coordinates>
                        <altitudeMode>absolute</altitudeMode>
                    </Point>
                </Placemark>
                <Placemark id="66">
                    <name>70k</name>
                    <description><![CDATA[
        <h1>Waypoint</h1>
        <table style="width: 100%;" cellpadding=0 cellspacing=0 border=0>
        <tr><td style="padding: 10px; border: solid 1px black;border-bottom: 0;"><strong>Local Time</strong></td><td style="border: solid 1px black;border-left: 0; border-bottom: 0; padding: 10px;">09:00:41</td></tr>
        <tr><td style="padding: 10px; border: solid 1px black;border-bottom: 0;"><strong>Altitude</strong></td><td style="border: solid 1px black;border-left: 0; border-bottom: 0; padding: 10px;">70,314ft (21,431.7m)</td></tr>
        <tr><td style="padding: 10px; border: solid 1px black;"><strong>Coordinates</strong></td><td style="border: solid 1px black; border-left: 0; padding: 10px;">39.7365, -103.34033333</td></tr>
        </table>
        ]]></description>
                    <styleUrl>#67</styleUrl>
                    <Point id="65">
                        <coordinates>-103.3403333333,39.7365,21431.71</coordinates>
                        <altitudeMode>absolute</altitudeMode>
                    </Point>
                </Placemark>
                <Placemark id="71">
                    <name>81k</name>
                    <description><![CDATA[
        <h1>Waypoint</h1>
        <table style="width: 100%;" cellpadding=0 cellspacing=0 border=0>
        <tr><td style="padding: 10px; border: solid 1px black;border-bottom: 0;"><strong>Local Time</strong></td><td style="border: solid 1px black;border-left: 0; border-bottom: 0; padding: 10px;">09:10:43</td></tr>
        <tr><td style="padding: 10px; border: solid 1px black;border-bottom: 0;"><strong>Altitude</strong></td><td style="border: solid 1px black;border-left: 0; border-bottom: 0; padding: 10px;">80,551ft (24,551.9m)</td></tr>
        <tr><td style="padding: 10px; border: solid 1px black;"><strong>Coordinates</strong></td><td style="border: solid 1px black; border-left: 0; padding: 10px;">39.6925, -103.33633333</td></tr>
        </table>
        ]]></description>
                    <styleUrl>#72</styleUrl>
                    <Point id="70">
                        <coordinates>-103.3363333333,39.6925,24551.94</coordinates>
                        <altitudeMode>absolute</altitudeMode>
                    </Point>
                </Placemark>
                <Placemark id="76">
                    <name>10k</name>
                    <description><![CDATA[
        <h1>Waypoint</h1>
        <table style="width: 100%;" cellpadding=0 cellspacing=0 border=0>
        <tr><td style="padding: 10px; border: solid 1px black;border-bottom: 0;"><strong>Local Time</strong></td><td style="border: solid 1px black;border-left: 0; border-bottom: 0; padding: 10px;">10:02:40</td></tr>
        <tr><td style="padding: 10px; border: solid 1px black;border-bottom: 0;"><strong>Altitude</strong></td><td style="border: solid 1px black;border-left: 0; border-bottom: 0; padding: 10px;">9,833ft (2,997.1m)</td></tr>
        <tr><td style="padding: 10px; border: solid 1px black;"><strong>Coordinates</strong></td><td style="border: solid 1px black; border-left: 0; padding: 10px;">39.78, -102.65</td></tr>
        </table>
        ]]></description>
                    <styleUrl>#77</styleUrl>
                    <Point id="75">
                        <coordinates>-102.65,39.78,2997.1</coordinates>
                        <altitudeMode>absolute</altitudeMode>
                    </Point>
                </Placemark>
                <Placemark id="81">
                    <name>20k</name>
                    <description><![CDATA[
        <h1>Waypoint</h1>
        <table style="width: 100%;" cellpadding=0 cellspacing=0 border=0>
        <tr><td style="padding: 10px; border: solid 1px black;border-bottom: 0;"><strong>Local Time</strong></td><td style="border: solid 1px black;border-left: 0; border-bottom: 0; padding: 10px;">09:49:45</td></tr>
        <tr><td style="padding: 10px; border: solid 1px black;border-bottom: 0;"><strong>Altitude</strong></td><td style="border: solid 1px black;border-left: 0; border-bottom: 0; padding: 10px;">20,057ft (6,113.4m)</td></tr>
        <tr><td style="padding: 10px; border: solid 1px black;"><strong>Coordinates</strong></td><td style="border: solid 1px black; border-left: 0; padding: 10px;">39.77083333, -102.76883333</td></tr>
        </table>
        ]]></description>
                    <styleUrl>#82</styleUrl>
                    <Point id="80">
                        <coordinates>-102.7688333333,39.7708333333,6113.37</coordinates>
                        <altitudeMode>absolute</altitudeMode>
                    </Point>
                </Placemark>
                <Placemark id="86">
                    <name>30k</name>
                    <description><![CDATA[
        <h1>Waypoint</h1>
        <table style="width: 100%;" cellpadding=0 cellspacing=0 border=0>
        <tr><td style="padding: 10px; border: solid 1px black;border-bottom: 0;"><strong>Local Time</strong></td><td style="border: solid 1px black;border-left: 0; border-bottom: 0; padding: 10px;">09:40:05</td></tr>
        <tr><td style="padding: 10px; border: solid 1px black;border-bottom: 0;"><strong>Altitude</strong></td><td style="border: solid 1px black;border-left: 0; border-bottom: 0; padding: 10px;">30,021ft (9,150.4m)</td></tr>
        <tr><td style="padding: 10px; border: solid 1px black;"><strong>Coordinates</strong></td><td style="border: solid 1px black; border-left: 0; padding: 10px;">39.7295, -102.95183333</td></tr>
        </table>
        ]]></description>
                    <styleUrl>#87</styleUrl>
                    <Point id="85">
                        <coordinates>-102.9518333333,39.7295,9150.4</coordinates>
                        <altitudeMode>absolute</altitudeMode>
                    </Point>
                </Placemark>
                <Placemark id="91">
                    <name>33k</name>
                    <description><![CDATA[
        <h1>Waypoint</h1>
        <table style="width: 100%;" cellpadding=0 cellspacing=0 border=0>
        <tr><td style="padding: 10px; border: solid 1px black;border-bottom: 0;"><strong>Local Time</strong></td><td style="border: solid 1px black;border-left: 0; border-bottom: 0; padding: 10px;">09:37:50</td></tr>
        <tr><td style="padding: 10px; border: solid 1px black;border-bottom: 0;"><strong>Altitude</strong></td><td style="border: solid 1px black;border-left: 0; border-bottom: 0; padding: 10px;">32,714ft (9,971.2m)</td></tr>
        <tr><td style="padding: 10px; border: solid 1px black;"><strong>Coordinates</strong></td><td style="border: solid 1px black; border-left: 0; padding: 10px;">39.71033333, -103.00433333</td></tr>
        </table>
        ]]></description>
                    <styleUrl>#92</styleUrl>
                    <Point id="90">
                        <coordinates>-103.0043333333,39.7103333333,9971.23</coordinates>
                        <altitudeMode>absolute</altitudeMode>
                    </Point>
                </Placemark>
                <Placemark id="96">
                    <name>33k</name>
                    <description><![CDATA[
        <h1>Waypoint</h1>
        <table style="width: 100%;" cellpadding=0 cellspacing=0 border=0>
        <tr><td style="padding: 10px; border: solid 1px black;border-bottom: 0;"><strong>Local Time</strong></td><td style="border: solid 1px black;border-left: 0; border-bottom: 0; padding: 10px;">09:37:50</td></tr>
        <tr><td style="padding: 10px; border: solid 1px black;border-bottom: 0;"><strong>Altitude</strong></td><td style="border: solid 1px black;border-left: 0; border-bottom: 0; padding: 10px;">32,714ft (9,971.2m)</td></tr>
        <tr><td style="padding: 10px; border: solid 1px black;"><strong>Coordinates</strong></td><td style="border: solid 1px black; border-left: 0; padding: 10px;">39.71033333, -103.00433333</td></tr>
        </table>
        ]]></description>
                    <styleUrl>#97</styleUrl>
                    <Point id="95">
                        <coordinates>-103.0043333333,39.7103333333,9971.23</coordinates>
                        <altitudeMode>absolute</altitudeMode>
                    </Point>
                </Placemark>
                <Placemark id="101">
                    <name>85k</name>
                    <description><![CDATA[
        <h1>Waypoint</h1>
        <table style="width: 100%;" cellpadding=0 cellspacing=0 border=0>
        <tr><td style="padding: 10px; border: solid 1px black;border-bottom: 0;"><strong>Local Time</strong></td><td style="border: solid 1px black;border-left: 0; border-bottom: 0; padding: 10px;">09:16:42</td></tr>
        <tr><td style="padding: 10px; border: solid 1px black;border-bottom: 0;"><strong>Altitude</strong></td><td style="border: solid 1px black;border-left: 0; border-bottom: 0; padding: 10px;">84,837ft (25,858.3m)</td></tr>
        <tr><td style="padding: 10px; border: solid 1px black;"><strong>Coordinates</strong></td><td style="border: solid 1px black; border-left: 0; padding: 10px;">39.636, -103.33583333</td></tr>
        </table>
        ]]></description>
                    <styleUrl>#102</styleUrl>
                    <Point id="100">
                        <coordinates>-103.3358333333,39.636,25858.32</coordinates>
                        <altitudeMode>absolute</altitudeMode>
                    </Point>
                </Placemark>
                <Placemark id="106">
                    <name>85k</name>
                    <description><![CDATA[
        <h1>Waypoint</h1>
        <table style="width: 100%;" cellpadding=0 cellspacing=0 border=0>
        <tr><td style="padding: 10px; border: solid 1px black;border-bottom: 0;"><strong>Local Time</strong></td><td style="border: solid 1px black;border-left: 0; border-bottom: 0; padding: 10px;">09:16:42</td></tr>
        <tr><td style="padding: 10px; border: solid 1px black;border-bottom: 0;"><strong>Altitude</strong></td><td style="border: solid 1px black;border-left: 0; border-bottom: 0; padding: 10px;">84,837ft (25,858.3m)</td></tr>
        <tr><td style="padding: 10px; border: solid 1px black;"><strong>Coordinates</strong></td><td style="border: solid 1px black; border-left: 0; padding: 10px;">39.636, -103.33583333</td></tr>
        </table>
        ]]></description>
                    <styleUrl>#107</styleUrl>
                    <Point id="105">
                        <coordinates>-103.3358333333,39.636,25858.32</coordinates>
                        <altitudeMode>absolute</altitudeMode>
                    </Point>
                </Placemark>
                <Placemark id="111">
                    <name>85k</name>
                    <description><![CDATA[
        <h1>Waypoint</h1>
        <table style="width: 100%;" cellpadding=0 cellspacing=0 border=0>
        <tr><td style="padding: 10px; border: solid 1px black;border-bottom: 0;"><strong>Local Time</strong></td><td style="border: solid 1px black;border-left: 0; border-bottom: 0; padding: 10px;">09:16:42</td></tr>
        <tr><td style="padding: 10px; border: solid 1px black;border-bottom: 0;"><strong>Altitude</strong></td><td style="border: solid 1px black;border-left: 0; border-bottom: 0; padding: 10px;">84,837ft (25,858.3m)</td></tr>
        <tr><td style="padding: 10px; border: solid 1px black;"><strong>Coordinates</strong></td><td style="border: solid 1px black; border-left: 0; padding: 10px;">39.636, -103.33583333</td></tr>
        </table>
        ]]></description>
                    <styleUrl>#112</styleUrl>
                    <Point id="110">
                        <coordinates>-103.3358333333,39.636,25858.32</coordinates>
                        <altitudeMode>absolute</altitudeMode>
                    </Point>
                </Placemark>
            </Folder>
            <Folder id="5">
                <Style id="16">
                    <IconStyle id="17">
                        <color>ff008cff</color>
                        <colorMode>normal</colorMode>
                        <scale>1</scale>
                        <heading>0</heading>
                        <Icon id="18">
                            <href>https://maps.google.com/mapfiles/kml/shapes/placemark_circle.png</href>
                        </Icon>
                    </IconStyle>
                </Style>
                <Style id="21">
                    <IconStyle id="22">
                        <color>ff008cff</color>
                        <colorMode>normal</colorMode>
                        <scale>1</scale>
                        <heading>0</heading>
                        <Icon id="23">
                            <href>https://maps.google.com/mapfiles/kml/shapes/placemark_circle.png</href>
                        </Icon>
                    </IconStyle>
                </Style>
                <Style id="26">
                    <IconStyle id="27">
                        <color>ff00ffff</color>
                        <colorMode>normal</colorMode>
                        <scale>1</scale>
                        <heading>0</heading>
                        <Icon id="28">
                            <href>https://maps.google.com/mapfiles/kml/shapes/placemark_circle.png</href>
                        </Icon>
                    </IconStyle>
                </Style>
                <Style id="31">
                    <IconStyle id="32">
                        <color>ff006400</color>
                        <colorMode>normal</colorMode>
                        <scale>1</scale>
                        <heading>0</heading>
                        <Icon id="33">
                            <href>https://maps.google.com/mapfiles/kml/shapes/placemark_circle.png</href>
                        </Icon>
                    </IconStyle>
                    <LabelStyle id="34">
                        <color>ff006400</color>
                        <colorMode>normal</colorMode>
                        <scale>1</scale>
                    </LabelStyle>
                </Style>
                <name>Points of Interest</name>
                <Placemark id="15">
                    <name>Launch</name>
                    <description><![CDATA[
    <h1>Launch</h1>
    <table style="width: 100%;" cellpadding=0 cellspacing=0 border=0>
    <tr><td style="padding: 10px; border: solid 1px black;border-bottom: 0;"><strong>Local Time</strong></td><td style="border: solid 1px black;border-bottom: 0; border-left: 0; padding: 10px;">08:08:56</td></tr>
    <tr><td style="padding: 10px; border: solid 1px black;border-bottom: 0;"><strong>Altitude</strong></td><td style="border: solid 1px black;border-left: 0; border-bottom: 0; padding: 10px;">5,215ft (1,589.5m)</td></tr>
    <tr><td style="padding: 10px; border: solid 1px black;"><strong>Coordinates</strong></td><td style="border: solid 1px black; border-left: 0; padding: 10px;">39.60816667, -104.042</td></tr>
    </table>
    ]]></description>
                    <styleUrl>#16</styleUrl>
                    <Point id="14">
                        <coordinates>-104.042,39.6081666667,1589.53</coordinates>
                        <altitudeMode>absolute</altitudeMode>
                    </Point>
                </Placemark>
                <Placemark id="20">
                    <name>Landing</name>
                    <description><![CDATA[
    <h1>Landing</h1>
    <table style="width: 100%;" cellpadding=0 cellspacing=0 border=0>
    <tr><td style="padding: 10px; border: solid 1px black;border-bottom: 0;"><strong>Local Time</strong></td><td style="border: solid 1px black;border-left: 0; border-bottom: 0; padding: 10px;">10:08:48</td></tr>
    <tr><td style="padding: 10px; border: solid 1px black;border-bottom: 0;"><strong>Altitude</strong></td><td style="border: solid 1px black;border-bottom: 0; border-left: 0; padding: 10px;">5,519ft (1,682.2m)</td></tr>
    <tr><td style="padding: 10px; border: solid 1px black;"><strong>Coordinates</strong></td><td style="border: solid 1px black; border-left: 0; padding: 10px;">39.7735, -102.63616667</td></tr>
    </table>
    ]]></description>
                    <styleUrl>#21</styleUrl>
                    <Point id="19">
                        <coordinates>-102.6361666667,39.7735,1682.19</coordinates>
                        <altitudeMode>absolute</altitudeMode>
                    </Point>
                </Placemark>
                <Placemark id="25">
                    <name>Burst 86,211ft</name>
                    <description><![CDATA[
    <h1>Burst: 86,211ft</h1>
    <table style="width: 100%;" cellpadding=0 cellspacing=0 border=0>
    <tr><td style="padding: 10px; border: solid 1px black;border-bottom: 0;"><strong>Local Time</strong></td><td style="border: solid 1px black;border-left: 0; border-bottom: 0; padding: 10px;">09:16:17</td></tr>
    <tr><td style="padding: 10px; border: solid 1px black;border-bottom: 0;"><strong>Altitude</strong></td><td style="border: solid 1px black;border-left: 0; border-bottom: 0; padding: 10px;">86,211ft (26,277.1m)</td></tr>
    <tr><td style="padding: 10px; border: solid 1px black;"><strong>Coordinates</strong></td><td style="border: solid 1px black; border-left: 0; padding: 10px;">39.6405, -103.33516667</td></tr>
    </table>
    ]]></description>
                    <styleUrl>#26</styleUrl>
                    <Point id="24">
                        <coordinates>-103.3351666667,39.6405,26277.11</coordinates>
                        <altitudeMode>absolute</altitudeMode>
                    </Point>
                </Placemark>
                <Placemark id="30">
                    <name>56k, Turbulent-to-Laminar</name>
                    <description><![CDATA[
        <h1>Airflow Transitioning from Turbulent-to-Laminar</h1>
        <table style="width: 100%;" cellpadding=0 cellspacing=0 border=0>
        <tr><td style="padding: 10px; border: solid 1px black;border-bottom: 0;"><strong>Local Time</strong></td><td style="border: solid 1px black;border-left: 0; border-bottom: 0; padding: 10px;">08:46:47</td></tr>
        <tr><td style="padding: 10px; border: solid 1px black;border-bottom: 0;"><strong>Altitude</strong></td><td style="border: solid 1px black;border-left: 0; border-bottom: 0; padding: 10px;">55,507ft (16,918.5m)</td></tr>
        <tr><td style="padding: 10px; border: solid 1px black;"><strong>Coordinates</strong></td><td style="border: solid 1px black; border-left: 0; padding: 10px;">39.76016667, -103.41733333</td></tr>
        </table>
        ]]></description>
                    <styleUrl>#31</styleUrl>
                    <Point id="29">
                        <coordinates>-103.4173333333,39.7601666667,16918.53</coordinates>
                        <altitudeMode>absolute</altitudeMode>
                    </Point>
                </Placemark>
            </Folder>
        </Document>
    </Document>
</kml>
