<?xml version="1.0" encoding="UTF-8"?>
<kml xmlns="http://www.opengis.net/kml/2.2" xmlns:gx="http://www.google.com/kml/ext/2.2">
    <Document id="1">
        <Document id="2">
            <name>EOSS-292</name>
            <description><![CDATA[
    <h1>EOSS-292</h1>
    <table style="width: 100%;" cellpadding=0 cellspacing=0 border=0>
    <tr><td style="border: solid 1px black;border-bottom: 0; padding: 10px;"><strong>Launch Local Date/Time</strong></td><td style=" padding: 10px;border: solid 1px black;border-bottom: 0; border-left: 0;">2019-07-27 06:39:15</td></tr>
    <tr><td style="border: solid 1px black;border-bottom: 0; padding: 10px;"><strong>Flight Duration</strong></td><td style=" padding: 10px;border: solid 1px black;border-bottom: 0; border-left: 0; ">2hrs 28mins 30secs</td></tr>
    <tr><td style="border: solid 1px black;border-bottom: 0; padding: 10px;"><strong>Down Range Distance</strong></td><td style=" padding: 10px;border: solid 1px black;border-bottom: 0; border-left: 0; ">19.1mi (30.7km)</td></tr>
    <tr><td style="border: solid 1px black; padding: 10px;"><strong>Approx. Burst Altitude</strong></td><td style=" padding: 10px;border: solid 1px black; border-left: 0; ">107,050ft (32,628.8m)</td></tr>
    </table>
    ]]></description>
            <Folder id="3">
                <Style id="8">
                    <LineStyle id="9">
                        <color>ff0000ff</color>
                        <colorMode>normal</colorMode>
                        <width>3</width>
                    </LineStyle>
                </Style>
                <Style id="12">
                    <LineStyle id="13">
                        <color>ffff0000</color>
                        <colorMode>normal</colorMode>
                        <width>3</width>
                    </LineStyle>
                </Style>
                <name>Paths</name>
                <Placemark id="7">
                    <name>EOSS-292 Ascent</name>
                    <styleUrl>#8</styleUrl>
                    <LineString id="6">
                        <extrude>0</extrude>
                        <altitudeMode>absolute</altitudeMode>
                        <coordinates>-103.697,39.2361666667,1646.22 -103.69705,39.2360666667,1647.14 -103.6976666667,39.2356666667,1751.38 -103.6983333333,39.2351,1802.28 -103.699,39.2346666667,1866.29 -103.6991666667,39.2345,1922.98 -103.70005,39.23395,1980.29 -103.7002666667,39.2334666667,2042.16 -103.7003333333,39.2331666667,2100.38 -103.7006666667,39.2326333333,2153.41 -103.7008166667,39.2321166667,2214.37 -103.701,39.2318333333,2275.33 -103.7015166667,39.2310666667,2333.24 -103.7018333333,39.2304833333,2397.25 -103.702,39.2301666667,2457.91 -103.7024666667,39.2294,2520.39 -103.703,39.2288166667,2585.31 -103.7031666667,39.2286666667,2643.23 -103.7034166667,39.2279833333,2701.44 -103.7036333333,39.2275833333,2764.23 -103.7036666667,39.2273333333,2823.67 -103.7037833333,39.2269333333,2881.27 -103.70365,39.2265333333,2946.5 -103.7035,39.2265,3005.63 -103.7034,39.2259333333,3061.41 -103.7033333333,39.2255,3183.33 -103.70345,39.2253,3244.29 -103.7035,39.2251666667,3375.96 -103.7034833333,39.2249,3439.36 -103.7033833333,39.2248333333,3502.46 -103.7031666667,39.2248333333,3562.2 -103.7027333333,39.2248666667,3611.58 -103.7025,39.225,3735.02 -103.7024666667,39.2251833333,3794.46 -103.7025,39.2253333333,3923.08 -103.7020666667,39.2254666667,4052.62 -103.7021666667,39.2255,4113.58 -103.7022,39.2255333333,4171.49 -103.7023833333,39.2255333333,4231.54 -103.7023333333,39.2255,4291.58 -103.7025333333,39.2256,4351.63 -103.7025,39.2257833333,4419.6 -103.7025,39.226,4481.47 -103.7025666667,39.22625,4543.65 -103.7025,39.2264666667,4609.49 -103.7025,39.2265,4671.97 -103.7024,39.2267666667,4738.73 -103.70225,39.22705,4804.56 -103.7021666667,39.2273333333,4865.83 -103.7014666667,39.2281,4997.5 -103.7013333333,39.2281666667,5056.63 -103.7006,39.2287,5116.68 -103.7002333333,39.2290666667,5183.73 -103.7,39.2291666667,5242.56 -103.6994166667,39.2294166667,5305.65 -103.6991666667,39.2295833333,5374.54 -103.699,39.2296666667,5434.28 -103.6981833333,39.2293,5500.73 -103.6976833333,39.22915,5567.78 -103.6975,39.229,5626.3 -103.6970333333,39.2288666667,5687.57 -103.6968333333,39.22875,5758.59 -103.6966666667,39.2286666667,5821.98 -103.6966333333,39.22835,5886.6 -103.6965666667,39.2282833333,5959.75 -103.6965,39.2281666667,6024.07 -103.69625,39.2282333333,6094.78 -103.6962333333,39.2281333333,6166.71 -103.6961666667,39.2281666667,6229.2 -103.6961666667,39.2280833333,6302.65 -103.696,39.2280666667,6369.71 -103.696,39.228,6431.59 -103.69595,39.2280666667,6500.77 -103.6956666667,39.2282333333,6569.96 -103.6955,39.2283333333,6633.97 -103.6954166667,39.2284666667,6704.99 -103.695,39.2286666667,6839.71 -103.6947333333,39.2286333333,6910.73 -103.6943166667,39.2287833333,6977.79 -103.6941666667,39.2288333333,7039.66 -103.6935166667,39.22905,7104.89 -103.6928333333,39.229,7171.03 -103.6925,39.2291666667,7233.82 -103.6914,39.2293666667,7299.96 -103.6908166667,39.2294166667,7367.93 -103.6905,39.2295,7431.33 -103.6886833333,39.2296833333,7573.98 -103.6885,39.2298333333,7639.81 -103.6874166667,39.2297833333,7717.84 -103.6868,39.2295,7790.99 -103.6865,39.2293333333,7855.61 -103.6854,39.22895,7922.97 -103.68475,39.22855,7997.95 -103.6845,39.2285,8060.44 -103.6834333333,39.2281333333,8136.03 -103.6827833333,39.2278833333,8217.1 -103.6825,39.2278333333,8285.68 -103.6811833333,39.2277666667,8360.97 -103.6802,39.2276333333,8433.21 -103.6796666667,39.2276666667,8499.04 -103.6784666667,39.2276833333,8573.11 -103.6775333333,39.2275833333,8644.13 -103.677,39.2275,8707.83 -103.6755333333,39.2272333333,8778.24 -103.6743333333,39.2271333333,8847.13 -103.6738333333,39.2271666667,8913.57 -103.67215,39.22695,8988.25 -103.6711833333,39.2270833333,9058.05 -103.6706666667,39.2271666667,9122.36 -103.6688833333,39.2272,9197.04 -103.6676833333,39.2271,9269.27 -103.667,39.227,9336.02 -103.6655,39.22685,9413.14 -103.6642833333,39.2267666667,9491.17 -103.6636666667,39.2266666667,9558.53 -103.6615666667,39.2265166667,9641.13 -103.6600833333,39.22635,9718.24 -103.6593333333,39.2263333333,9782.25 -103.6570833333,39.2259666667,9862.11 -103.6554833333,39.2255666667,9939.22 -103.6546666667,39.2253333333,10005.37 -103.6522,39.22485,10088.27 -103.6503666667,39.22455,10167.21 -103.6495,39.2243333333,10231.83 -103.6467666667,39.2237,10310.17 -103.6448333333,39.2232666667,10392.16 -103.644,39.223,10459.21 -103.64115,39.2226166667,10535.41 -103.6391,39.2222333333,10612.22 -103.6381666667,39.222,10680.19 -103.6353333333,39.22135,10758.22 -103.63375,39.2209166667,10817.35 -103.633,39.2206666667,10884.1 -103.63045,39.2199,10960.3 -103.6289333333,39.2194333333,11037.42 -103.6281666667,39.2191666667,11097.77 -103.6257166667,39.2185666667,11170.31 -103.6239666667,39.2181166667,11244.38 -103.6231666667,39.2178333333,11310.52 -103.6204333333,39.2172333333,11392.51 -103.6185666667,39.2168666667,11462.31 -103.6176666667,39.2166666667,11531.19 -103.6150166667,39.2159333333,11613.49 -103.61305,39.2153333333,11691.52 -103.6121666667,39.215,11751.56 -103.6094333333,39.2141166667,11827.46 -103.6073,39.2134833333,11899.39 -103.6063333333,39.2131666667,11963.71 -103.6035666667,39.21205,12042.65 -103.6020333333,39.2114166667,12101.47 -103.6011666667,39.2111666667,12155.12 -103.5982,39.2101166667,12226.44 -103.5963,39.2092,12303.56 -103.5955,39.2086666667,12375.79 -103.5928666667,39.2075166667,12458.7 -103.5912166667,39.2067166667,12543.43 -103.5903333333,39.2061666667,12611.71 -103.5880333333,39.2043,12684.56 -103.5865833333,39.20335,12767.46 -103.5856666667,39.2028333333,12838.79 -103.5836666667,39.2015166667,12921.69 -103.5821,39.2005333333,13002.77 -103.5811666667,39.2003333333,13064.03 -103.5789666667,39.1993833333,13139.62 -103.5772333333,39.19905,13210.64 -103.5765,39.1988333333,13269.77 -103.5738666667,39.1974333333,13306.65 -103.5722333333,39.1966,13351.76 -103.5713333333,39.1961666667,13398.7 -103.5685333333,39.1950333333,13457.83 -103.56665,39.1944,13539.83 -103.5655,39.194,13602.31 -103.5623666667,39.19245,13671.8 -103.5600666667,39.1915666667,13746.79 -103.5591666667,39.1911666667,13817.19 -103.5567666667,39.1895166667,13911.68 -103.5548,39.1884,13964.72 -103.554,39.1878333333,14012.27 -103.5517,39.1865833333,14050.67 -103.5501,39.18555,14096.7 -103.5491666667,39.1851666667,14157.96 -103.5467333333,39.18385,14232.64 -103.5454833333,39.1827333333,14304.87 -103.5448333333,39.1821666667,14373.45 -103.5415666667,39.1796333333,14549.93 -103.5413333333,39.179,14610.59 -103.5400166667,39.1773,14673.99 -103.5394,39.17645,14733.73 -103.5393333333,39.1761666667,14784.63 -103.53835,39.1750833333,14816.94 -103.5378166667,39.1743333333,14866.93 -103.5376666667,39.174,14910.51 -103.5371833333,39.1729833333,14965.99 -103.5373666667,39.1727333333,15033.96 -103.5373333333,39.1728333333,15082.72 -103.5375333333,39.1727833333,15159.84 -103.5380333333,39.17255,15218.05 -103.5381666667,39.1725,15262.56 -103.53825,39.1723833333,15325.04 -103.5381666667,39.1723333333,15372.28 -103.5377666667,39.1721833333,15412.82 -103.5374833333,39.1721166667,15453.06 -103.5373333333,39.1721666667,15499.69 -103.53675,39.17195,15524.99 -103.5364833333,39.17165,15560.95 -103.5363333333,39.1716666667,15603.93 -103.5362,39.1714833333,15624.05 -103.5358333333,39.1712833333,15666.11 -103.5356666667,39.1711666667,15713.35 -103.53515,39.1708333333,15777.97 -103.53445,39.1708333333,15855.09 -103.5341666667,39.171,15913.61 -103.53275,39.1712166667,15991.94 -103.5325,39.1713333333,16035.22 -103.5319333333,39.1713833333,16083.08 -103.5316833333,39.1718333333,16139.16 -103.5316666667,39.172,16195.55 -103.5314833333,39.17295,16240.05 -103.53115,39.17345,16290.95 -103.531,39.1738333333,16338.8 -103.5301833333,39.1746833333,16368.07 -103.52935,39.1753666667,16407.99 -103.529,39.1756666667,16453.71 -103.5279833333,39.1766166667,16495.17 -103.52695,39.1770166667,16536.92 -103.5265,39.1773333333,16578.68 -103.5251833333,39.1781333333,16609.16 -103.5242333333,39.1786666667,16651.22 -103.5238333333,39.1788333333,16693.9 -103.5225666667,39.1792333333,16728.95 -103.5217833333,39.1794333333,16774.06 -103.5213333333,39.1796666667,16832.58 -103.52005,39.17955,16866.11 -103.5195333333,39.1793833333,16907.26 -103.5193333333,39.1793333333,16950.84 -103.5185666667,39.1792666667,16990.16 -103.51805,39.1793833333,17058.13 -103.5178333333,39.1795,17104.46 -103.5174166667,39.1790833333,17160.24 -103.5171166667,39.1788333333,17207.18 -103.517,39.1786666667,17265.7 -103.5170666667,39.1777833333,17301.06 -103.5176166667,39.1772166667,17363.24 -103.5178333333,39.177,17406.82 -103.5185,39.1761,17443.09 -103.51925,39.1754833333,17491.25 -103.5198333333,39.1753333333,17534.84 -103.5212666667,39.1746,17566.23 -103.5233333333,39.174,17653.41 -103.5246,39.1736333333,17696.08 -103.5251666667,39.1738333333,17821.66 -103.5253666667,39.1737333333,17860.37 -103.5251666667,39.1738333333,17961.86 -103.5252666667,39.1736166667,17993.26 -103.5255,39.1736666667,18076.77 -103.52535,39.1733333333,18104.21 -103.5251666667,39.1728333333,18184.98 -103.5252666667,39.17235,18213.32 -103.52525,39.1721333333,18249.29 -103.5251666667,39.172,18290.44 -103.5251166667,39.1713666667,18309.34 -103.52485,39.1710333333,18360.24 -103.525,39.1708333333,18398.64 -103.5249833333,39.1702166667,18425.16 -103.5253,39.1698666667,18461.43 -103.5255,39.1698333333,18505.32 -103.52625,39.1696333333,18532.45 -103.5266166667,39.1696,18569.33 -103.527,39.1696666667,18615.05 -103.52775,39.1694666667,18640.35 -103.5281666667,39.1693333333,18724.78 -103.5287,39.16895,18751.3 -103.5290833333,39.1687333333,18791.23 -103.5291666667,39.1686666667,18837.86 -103.5297333333,39.1678166667,18869.25 -103.5301,39.1673166667,18917.41 -103.5303333333,39.1671666667,18968.31 -103.5319166667,39.1665666667,19052.44 -103.5323333333,39.1665,19103.34 -103.5336333333,39.1666166667,19140.53 -103.535,39.1663333333,19228.31 -103.5375,39.1661666667,19352.06 -103.5390833333,39.1667166667,19389.55 -103.5405,39.1668333333,19479.16 -103.542,39.167,19508.42 -103.5428333333,39.1670833333,19551.4 -103.5431666667,39.167,19595.59 -103.54425,39.1668166667,19628.51 -103.5450166667,39.1664666667,19669.35 -103.5453333333,39.1661666667,19711.11 -103.5479333333,39.1649,19777.56 -103.5486666667,39.1646666667,19820.23 -103.5503333333,39.16425,19849.49 -103.5518333333,39.164,19938.19 -103.55335,39.1637666667,19981.47 -103.5541833333,39.1637,20025.36 -103.5546666667,39.1635,20069.25 -103.5558666667,39.1634,20098.51 -103.5567333333,39.16295,20139.66 -103.557,39.1628333333,20183.86 -103.5582166667,39.1623333333,20214.64 -103.5595,39.1616666667,20300.6 -103.56085,39.1609333333,20333.51 -103.5616666667,39.1604833333,20378.62 -103.5621666667,39.1605,20426.17 -103.5637666667,39.1602833333,20458.48 -103.5648,39.1601666667,20502.68 -103.5651666667,39.16,20545.96 -103.5667166667,39.1598666667,20577.66 -103.5680666667,39.1596833333,20616.67 -103.5686666667,39.1596666667,20662.39 -103.57085,39.1592,20692.57 -103.5722833333,39.1589666667,20734.63 -103.573,39.1588333333,20780.66 -103.57505,39.1589333333,20812.66 -103.5766666667,39.1591666667,20903.18 -103.5798333333,39.1595,21059.24 -103.5807333333,39.1599333333,21092.77 -103.58155,39.1602,21138.8 -103.582,39.1603333333,21181.47 -103.5837666667,39.1606333333,21211.64 -103.5855,39.161,21306.44 -103.5871166667,39.1612166667,21342.71 -103.5879666667,39.1614166667,21388.73 -103.5883333333,39.1615,21435.98 -103.5896666667,39.16165,21526.81 -103.5898333333,39.1616666667,21573.44 -103.5902333333,39.1615666667,21615.81 -103.5906166667,39.1614,21662.75 -103.5908333333,39.1613333333,21710.6 -103.5915,39.1611666667,21845.63 -103.5914833333,39.1607,21889.82 -103.5915333333,39.1606333333,21937.68 -103.5916666667,39.1605,21979.43 -103.5921833333,39.1601833333,22019.67 -103.593,39.1601666667,22111.72 -103.595,39.1603333333,22242.48 -103.5973333333,39.1603333333,22369.88 -103.59855,39.1598666667,22406.76 -103.5998333333,39.1593333333,22497.29 -103.6013666667,39.15865,22535.69 -103.6033333333,39.1583333333,22629.88 -103.6053333333,39.15845,22663.71 -103.6071666667,39.1585,22755.76 -103.6098333333,39.1583333333,22879.2 -103.6109,39.15825,22915.78 -103.6123333333,39.1578333333,23004.48 -103.6139833333,39.1576,23038.92 -103.6156666667,39.1573333333,23129.14 -103.6176666667,39.1568833333,23166.02 -103.6195,39.1568333333,23258.68 -103.6217,39.1570833333,23295.86 -103.6231833333,39.1572,23340.06 -103.6238333333,39.1573333333,23387.3 -103.62695,39.15775,23463.81 -103.6275,39.1578333333,23511.05 -103.6292833333,39.15845,23550.07 -103.6301166667,39.1588666667,23593.96 -103.6306666667,39.1588333333,23640.59 -103.6320833333,39.15885,23678.08 -103.63325,39.1588166667,23718.93 -103.6338333333,39.1588333333,23763.43 -103.63575,39.1587333333,23799.09 -103.6371,39.1584,23842.98 -103.6378333333,39.1581666667,23886.87 -103.6401666667,39.1573333333,23921.92 -103.6419666667,39.1568333333,23967.95 -103.6426666667,39.1566666667,24016.41 -103.6466,39.1556666667,24098.1 -103.6473333333,39.1555,24147.17 -103.6492666667,39.1551833333,24187.1 -103.6507833333,39.1549,24233.12 -103.6515,39.1546666667,24280.98 -103.6539833333,39.1543,24316.94 -103.6557666667,39.1538666667,24362.06 -103.6566666667,39.1538333333,24406.25 -103.6626666667,39.1526666667,24536.1 -103.6656166667,39.1523,24576.02 -103.6674666667,39.1521666667,24624.18 -103.6683333333,39.1521666667,24669.9 -103.6712,39.15205,24704.96 -103.6730166667,39.15165,24748.24 -103.674,39.1515,24793.65 -103.6768166667,39.1507833333,24825.96 -103.6785666667,39.1504,24870.16 -103.6796666667,39.1503333333,24911.91 -103.6820833333,39.1501333333,24949.1 -103.6839,39.1500333333,24989.03 -103.6846666667,39.1501666667,25031.7 -103.6874166667,39.1500666667,25066.14 -103.68905,39.1502666667,25109.12 -103.6896666667,39.1503333333,25148.74 -103.6919,39.1502333333,25181.05 -103.694,39.1496666667,25270.05 -103.69845,39.1486166667,25353.26 -103.6993333333,39.1483333333,25401.12 -103.7041666667,39.147,25525.48 -103.7062166667,39.1463666667,25566.32 -103.7078833333,39.1457166667,25612.34 -103.7086666667,39.1455,25658.06 -103.714,39.1436666667,25796.44 -103.7167833333,39.1426666667,25842.16 -103.7187666667,39.1422833333,25891.24 -103.7198333333,39.142,25938.79 -103.7229166667,39.1414166667,25985.12 -103.7258333333,39.1405,26082.65 -103.72915,39.1399666667,26126.24 -103.7314166667,39.1396166667,26178.36 -103.7326666667,39.1395,26226.21 -103.7360333333,39.1392833333,26271.32 -103.7381833333,39.1392333333,26317.35 -103.7391666667,39.1391666667,26363.68 -103.7423,39.1389666667,26405.43 -103.7456666667,39.1388333333,26493.83 -103.74905,39.1387333333,26533.45 -103.7510166667,39.1388666667,26580.39 -103.752,39.1388333333,26627.02 -103.7546666667,39.1387,26664.21 -103.7563833333,39.1386,26709.32 -103.7573333333,39.1385,26755.04 -103.76165,39.1378333333,26843.43 -103.7625,39.1376666667,26891.29 -103.7654833333,39.1371833333,26932.43 -103.7674,39.1367666667,26982.42 -103.7683333333,39.1366666667,27026.31 -103.7711,39.1362166667,27069.29 -103.7736666667,39.1355,27161.03 -103.7763,39.1347,27201.27 -103.7783166667,39.13435,27251.56 -103.7791666667,39.1341666667,27296.97 -103.785,39.133,27423.47 -103.788,39.1324,27453.34 -103.791,39.1318333333,27542.34 -103.7936833333,39.1314666667,27574.34 -103.7966666667,39.131,27652.07 -103.8020833333,39.1303,27723.39 -103.8033333333,39.1301666667,27766.06 -103.8067666667,39.1298666667,27797.46 -103.8105,39.1298333333,27885.54 -103.8141,39.1299,27924.56 -103.8165333333,39.1300833333,27970.58 -103.8176666667,39.1301666667,28015.39 -103.8208,39.1304166667,28058.36 -103.8225666667,39.1303333333,28106.52 -103.8233333333,39.1303333333,28154.07 -103.8276833333,39.1299666667,28252.52 -103.8286666667,39.1298333333,28296.41 -103.83095,39.1296333333,28347.62 -103.83295,39.1295,28401.57 -103.8338333333,39.1295,28448.51 -103.8369666667,39.1290833333,28494.53 -103.83915,39.1288166667,28548.48 -103.8401666667,39.1286666667,28597.56 -103.8435166667,39.1282833333,28644.5 -103.8455666667,39.1280166667,28697.53 -103.8465,39.1278333333,28744.77 -103.8490833333,39.1277,28788.67 -103.8508666667,39.12745,28830.73 -103.8516666667,39.1275,28876.14 -103.8541166667,39.1271166667,28914.55 -103.8558166667,39.1271,28959.66 -103.8568333333,39.127,29003.24 -103.8596333333,39.1267,29036.77 -103.8625,39.1263333333,29118.15 -103.8652,39.12605,29149.55 -103.86695,39.1258,29190.7 -103.8678333333,39.1258333333,29230.93 -103.8707833333,39.1255,29259.58 -103.8727666667,39.1253166667,29297.68 -103.8736666667,39.1251666667,29334.87 -103.8765,39.1248833333,29366.57 -103.8791666667,39.125,29451.0 -103.88155,39.12505,29484.83 -103.8830333333,39.1253,29530.55 -103.884,39.1253333333,29568.34 -103.8880166667,39.1250166667,29656.74 -103.8888333333,39.1248333333,29702.46 -103.89175,39.1241833333,29741.78 -103.8946666667,39.1238333333,29837.48 -103.89775,39.1236666667,29882.59 -103.8997,39.1236833333,29932.88 -103.9006666667,39.1238333333,29980.13 -103.90385,39.12415,30021.89 -103.90555,39.1245,30070.65 -103.9065,39.1246666667,30115.76 -103.9093166667,39.1249166667,30147.77 -103.9118333333,39.1251666667,30235.25 -103.9142,39.1252,30266.64 -103.9166666667,39.1251666667,30345.89 -103.9185166667,39.1249166667,30374.84 -103.91995,39.1246333333,30410.81 -103.9206666667,39.1245,30450.74 -103.9229833333,39.1241166667,30478.78 -103.9258333333,39.1236666667,30554.98 -103.93125,39.1227833333,30607.71 -103.9325,39.1226666667,30646.42 -103.936,39.1220166667,30666.84 -103.9393333333,39.1218333333,30739.69 -103.9427833333,39.12155,30763.77 -103.9448666667,39.1213833333,30798.82 -103.946,39.1211666667,30837.23 -103.9525,39.1208333333,30950.31 -103.95615,39.1208333333,30984.75 -103.9588166667,39.1207333333,31029.86 -103.9601666667,39.1208333333,31073.75 -103.96415,39.1208333333,31113.98 -103.968,39.1211666667,31206.03 -103.9719333333,39.12135,31247.79 -103.9755,39.1216666667,31338.93 -103.9788833333,39.1217166667,31377.03 -103.9809166667,39.1218833333,31418.79 -103.982,39.1218333333,31462.37 -103.98485,39.1221166667,31498.03 -103.9868,39.1222666667,31538.88 -103.9878333333,39.1223333333,31580.02 -103.9908666667,39.1224166667,31612.03 -103.9938333333,39.1225,31692.19 -103.99845,39.1223,31758.03 -103.9993333333,39.1221666667,31797.35 -104.0023666667,39.1219333333,31821.12 -104.0056666667,39.1215,31893.05 -104.00915,39.1213,31917.13 -104.0126666667,39.121,31994.25 -104.0161833333,39.1206666667,32022.9 -104.0185166667,39.1202666667,32061.0 -104.0196666667,39.1201666667,32101.54 -104.02515,39.11895,32174.99 -104.0263333333,39.1186666667,32216.14 -104.0298333333,39.1182666667,32249.97 -104.0338333333,39.1178333333,32335.32 -104.03785,39.11735,32374.03 -104.0418333333,39.1168333333,32463.64 -104.0456333333,39.1161833333,32501.13 -104.0479833333,39.1156333333,32545.94 -104.0491666667,39.1153333333,32584.65 -104.0571666667,39.1131666667,32628.84</coordinates>
                    </LineString>
                </Placemark>
                <Placemark id="11">
                    <name>EOSS-292 Descent</name>
                    <styleUrl>#12</styleUrl>
                    <LineString id="10">
                        <extrude>0</extrude>
                        <altitudeMode>absolute</altitudeMode>
                        <coordinates>-104.0571666667,39.1131666667,32628.84 -104.0609833333,39.1111666667,31985.1 -104.064,39.112,31240.78 -104.0674,39.1120666667,30577.84 -104.0698333333,39.1123333333,29881.07 -104.0735666667,39.1131,29296.77 -104.0755,39.1128666667,28900.53 -104.0763333333,39.1126666667,28669.79 -104.0794,39.1122,28119.63 -104.0813833333,39.11225,27749.6 -104.082,39.1125,27558.49 -104.0853666667,39.11375,27106.47 -104.089,39.1125,26632.82 -104.0925666667,39.1125166667,26185.37 -104.0947333333,39.1123833333,25866.24 -104.096,39.1125,25701.35 -104.0987666667,39.1117666667,25270.05 -104.1000333333,39.1114,24979.28 -104.1013333333,39.1113333333,24821.69 -104.1040166667,39.1109333333,24409.91 -104.1064166667,39.1099833333,24156.92 -104.1066666667,39.1098333333,24014.28 -104.1091,39.1098333333,23643.95 -104.1096833333,39.11015,23388.83 -104.1105,39.11,23247.1 -104.1120833333,39.1108666667,22900.84 -104.1130166667,39.1105666667,22659.75 -104.1135,39.1105,22519.54 -104.1153666667,39.11055,22158.66 -104.1161166667,39.1105166667,21923.66 -104.1165,39.1103333333,21791.07 -104.1172833333,39.1104333333,21454.57 -104.11835,39.11075,21234.81 -104.1191666667,39.1108333333,21116.54 -104.1209166667,39.1113333333,20804.73 -104.1220166667,39.1112333333,20594.73 -104.1226666667,39.1108333333,20487.13 -104.1240666667,39.11025,20199.4 -104.1244666667,39.1102666667,20015.61 -104.1251666667,39.1105,19914.72 -104.1259333333,39.1100333333,19638.57 -104.1266,39.1099666667,19460.57 -104.127,39.1098333333,19360.59 -104.12835,39.11,19096.33 -104.1291666667,39.1091666667,18835.42 -104.1304166667,39.10815,18443.45 -104.131,39.1081666667,18371.21 -104.1310833333,39.1078833333,18128.29 -104.13095,39.1075,17976.19 -104.1306666667,39.1076666667,17896.64 -104.1304,39.1078666667,17664.07 -104.1313333333,39.1081666667,17449.5 -104.133,39.1073666667,17107.21 -104.1333333333,39.1075,17049.9 -104.1326833333,39.1069833333,16845.08 -104.1330333333,39.10735,16721.02 -104.1333333333,39.1073333333,16668.6 -104.1323666667,39.10645,16478.1 -104.1315,39.107,16301.31 -104.1306,39.1077166667,16107.16 -104.1308833333,39.1079166667,15991.94 -104.1306666667,39.1078333333,15939.52 -104.1298333333,39.10785,15750.85 -104.1294666667,39.1076,15628.93 -104.129,39.1078333333,15577.11 -104.1275833333,39.1086,15396.97 -104.1265,39.1096666667,15240.61 -104.1261833333,39.1107666667,15065.96 -104.12635,39.1114,14962.94 -104.1265,39.1116666667,14920.57 -104.1268166667,39.1118166667,14749.88 -104.1262333333,39.11175,14650.82 -104.1258333333,39.1116666667,14610.28 -104.1242666667,39.1110333333,14440.81 -104.1227333333,39.11015,14341.75 -104.122,39.1095,14300.91 -104.1191833333,39.1081666667,14136.62 -104.116,39.1065,14003.12 -104.1111333333,39.1028,13757.76 -104.1101666667,39.1021666667,13721.79 -104.1071333333,39.1001666667,13570.61 -104.1058,39.0988666667,13482.83 -104.1055,39.0983333333,13446.86 -104.1037666667,39.0972333333,13292.63 -104.1020333333,39.0967166667,13200.58 -104.1011666667,39.0965,13163.7 -104.0994,39.09565,13015.57 -104.0986,39.09485,12930.53 -104.098,39.0943333333,12895.17 -104.0930333333,39.0914166667,12662.61 -104.092,39.091,12629.08 -104.0889166667,39.0894,12485.52 -104.0873666667,39.0884,12405.67 -104.0866666667,39.088,12371.83 -104.0841,39.0865666667,12228.58 -104.0825666667,39.0856333333,12148.41 -104.0818333333,39.0851666667,12116.41 -104.0790833333,39.0837666667,11970.41 -104.0772666667,39.0827666667,11890.55 -104.0766666667,39.0823333333,11862.82 -104.0744666667,39.0818333333,11722.61 -104.07285,39.08185,11643.36 -104.072,39.082,11615.01 -104.06935,39.0822833333,11476.33 -104.067,39.0823333333,11369.35 -104.06515,39.0817666667,11225.48 -104.06405,39.08145,11145.32 -104.0635,39.0815,11116.06 -104.0616,39.0816166667,10976.46 -104.0599666667,39.0819833333,10898.43 -104.059,39.0821666667,10873.44 -104.0561166667,39.08245,10735.36 -104.0543333333,39.08265,10659.47 -104.0533333333,39.0826666667,10631.12 -104.0483666667,39.0816,10417.45 -104.0473333333,39.0816666667,10385.76 -104.0447666667,39.0816166667,10251.34 -104.0438666667,39.0815166667,10174.22 -104.0435,39.0813333333,10147.4 -104.0411833333,39.0803833333,10010.24 -104.0393333333,39.0801,9933.13 -104.0385,39.0801666667,9906.61 -104.0368,39.0800166667,9771.28 -104.0359666667,39.0797333333,9696.3 -104.0355,39.0795,9672.22 -104.0332,39.0787833333,9536.28 -104.0318333333,39.07885,9461.3 -104.0313333333,39.0788333333,9432.95 -104.0297166667,39.079,9301.28 -104.02825,39.07935,9228.13 -104.0273333333,39.0796666667,9203.44 -104.0252,39.0802333333,9073.29 -104.0236166667,39.0803333333,9005.01 -104.0228333333,39.0803333333,8980.93 -104.0208166667,39.0798666667,8855.05 -104.0201166667,39.0796,8787.08 -104.0198333333,39.0795,8765.74 -104.0186666667,39.0795666667,8640.17 -104.0179166667,39.0797666667,8570.98 -104.0175,39.08,8550.55 -104.0156333333,39.0805333333,8428.94 -104.0142166667,39.0807833333,8357.92 -104.0135,39.081,8336.59 -104.0113,39.0809166667,8214.06 -104.0102833333,39.08065,8146.09 -104.0098333333,39.0805,8124.44 -104.0088333333,39.0803833333,8001.91 -104.0084,39.0806666667,7936.08 -104.0081666667,39.0808333333,7915.05 -104.0077166667,39.0816,7798.0 -104.00735,39.0821833333,7734.0 -104.007,39.0825,7715.1 -104.0064166667,39.0823166667,7534.05 -104.0066666667,39.0825,7515.15 -104.0063833333,39.08305,7395.97 -104.00585,39.0832,7335.93 -104.0058333333,39.0831666667,7319.16 -104.00595,39.08305,7207.0 -104.0063333333,39.0835,7131.71 -104.00635,39.0842833333,7019.85 -104.0059166667,39.0847833333,6962.85 -104.0055,39.085,6947.31 -104.0046666667,39.0848833333,6837.88 -104.0047166667,39.08485,6778.75 -104.0048333333,39.085,6763.51 -104.0042666667,39.0858666667,6653.78 -104.0036,39.08635,6595.87 -104.0031666667,39.0866666667,6579.11 -104.0022333333,39.0865166667,6469.69 -104.0023166667,39.08655,6414.82 -104.0023333333,39.0866666667,6397.45 -104.0022,39.08725,6289.85 -104.0016166667,39.0874666667,6234.68 -104.0011666667,39.0875,6218.83 -104.0004166667,39.0869,6109.72 -104.00045,39.0867833333,6053.63 -104.0003333333,39.087,6038.39 -103.9994666667,39.0872666667,5930.8 -103.9986833333,39.0873,5872.89 -103.9983333333,39.0871666667,5857.65 -103.99745,39.08665,5747.61 -103.9975333333,39.0863166667,5692.75 -103.9976666667,39.0861666667,5675.38 -103.9975166667,39.0864,5567.78 -103.9971166667,39.0865,5513.83 -103.9966666667,39.0865,5497.37 -103.99495,39.08555,5331.56 -103.9948333333,39.0853333333,5315.1 -103.9945,39.0848,5154.78 -103.9943333333,39.0848333333,5140.45 -103.9931166667,39.0850666667,5032.55 -103.9920166667,39.0851333333,4976.77 -103.9915,39.085,4961.53 -103.9906333333,39.0846,4857.6 -103.9904333333,39.0847833333,4803.65 -103.9901666667,39.085,4789.93 -103.9888166667,39.0852666667,4688.74 -103.9881,39.0853833333,4633.57 -103.9876666667,39.0855,4618.63 -103.9868166667,39.0858833333,4514.7 -103.9863333333,39.0861833333,4464.71 -103.986,39.0863333333,4448.86 -103.9852833333,39.0860666667,4342.49 -103.9853,39.0858333333,4293.41 -103.9853333333,39.0858333333,4280.61 -103.9852833333,39.0859833333,4182.47 -103.9848,39.0862,4132.48 -103.9845,39.0863333333,4120.29 -103.9833,39.0861333333,4020.62 -103.9830666667,39.0857666667,3972.46 -103.983,39.0856666667,3960.57 -103.9826666667,39.08585,3863.34 -103.9819666667,39.0859666667,3814.57 -103.9815,39.0858333333,3804.51 -103.9809833333,39.0854,3705.45 -103.98125,39.0852833333,3658.51 -103.9813333333,39.0853333333,3648.46 -103.9816166667,39.0855,3549.4 -103.98165,39.0856333333,3499.41 -103.9815,39.0856666667,3487.52 -103.9810333333,39.0857,3387.55 -103.98075,39.0852833333,3340.3 -103.9808333333,39.085,3324.76 -103.9811,39.0849,3224.48 -103.9809333333,39.0849666667,3172.36 -103.9808333333,39.085,3162.6 -103.9811,39.08395,3015.39 -103.9815,39.0838333333,3004.72 -103.9820833333,39.0838833333,2908.4 -103.9821166667,39.0835166667,2859.33 -103.9823333333,39.0831666667,2848.97 -103.98335,39.0826666667,2752.34 -103.9840833333,39.0825333333,2705.4 -103.9843333333,39.0825,2694.13 -103.9847666667,39.08215,2597.2 -103.9855333333,39.0815833333,2552.4 -103.9856666667,39.0813333333,2542.64 -103.9863166667,39.0805333333,2447.24 -103.9867666667,39.0799833333,2401.21 -103.987,39.0796666667,2391.16 -103.9873666667,39.0791,2296.36 -103.9874833333,39.0788333333,2249.42 -103.9875,39.0788333333,2239.06 -103.9877,39.0786666667,2149.14 -103.988,39.0781666667,2107.39 -103.9883333333,39.0781666667,2098.55 -103.9887166667,39.0780333333,2006.19 -103.9885833333,39.07765,1963.22 -103.9888333333,39.0775,1954.38</coordinates>
                    </LineString>
                </Placemark>
            </Folder>
            <Folder id="4">
                <Style id="37">
                    <IconStyle id="38">
                        <color>ff0000ff</color>
                        <colorMode>normal</colorMode>
                        <scale>1</scale>
                        <heading>0</heading>
                        <Icon id="39">
                            <href>https://maps.google.com/mapfiles/kml/shapes/placemark_circle.png</href>
                        </Icon>
                    </IconStyle>
                </Style>
                <Style id="42">
                    <IconStyle id="43">
                        <color>ff0000ff</color>
                        <colorMode>normal</colorMode>
                        <scale>1</scale>
                        <heading>0</heading>
                        <Icon id="44">
                            <href>https://maps.google.com/mapfiles/kml/shapes/placemark_circle.png</href>
                        </Icon>
                    </IconStyle>
                </Style>
                <Style id="47">
                    <IconStyle id="48">
                        <color>ff0000ff</color>
                        <colorMode>normal</colorMode>
                        <scale>1</scale>
                        <heading>0</heading>
                        <Icon id="49">
                            <href>https://maps.google.com/mapfiles/kml/shapes/placemark_circle.png</href>
                        </Icon>
                    </IconStyle>
                </Style>
                <Style id="52">
                    <IconStyle id="53">
                        <color>ff0000ff</color>
                        <colorMode>normal</colorMode>
                        <scale>1</scale>
                        <heading>0</heading>
                        <Icon id="54">
                            <href>https://maps.google.com/mapfiles/kml/shapes/placemark_circle.png</href>
                        </Icon>
                    </IconStyle>
                </Style>
                <Style id="57">
                    <IconStyle id="58">
                        <color>ff0000ff</color>
                        <colorMode>normal</colorMode>
                        <scale>1</scale>
                        <heading>0</heading>
                        <Icon id="59">
                            <href>https://maps.google.com/mapfiles/kml/shapes/placemark_circle.png</href>
                        </Icon>
                    </IconStyle>
                </Style>
                <Style id="62">
                    <IconStyle id="63">
                        <color>ff0000ff</color>
                        <colorMode>normal</colorMode>
                        <scale>1</scale>
                        <heading>0</heading>
                        <Icon id="64">
                            <href>https://maps.google.com/mapfiles/kml/shapes/placemark_circle.png</href>
                        </Icon>
                    </IconStyle>
                </Style>
                <Style id="67">
                    <IconStyle id="68">
                        <color>ff0000ff</color>
                        <colorMode>normal</colorMode>
                        <scale>1</scale>
                        <heading>0</heading>
                        <Icon id="69">
                            <href>https://maps.google.com/mapfiles/kml/shapes/placemark_circle.png</href>
                        </Icon>
                    </IconStyle>
                </Style>
                <Style id="72">
                    <IconStyle id="73">
                        <color>ff0000ff</color>
                        <colorMode>normal</colorMode>
                        <scale>1</scale>
                        <heading>0</heading>
                        <Icon id="74">
                            <href>https://maps.google.com/mapfiles/kml/shapes/placemark_circle.png</href>
                        </Icon>
                    </IconStyle>
                </Style>
                <Style id="77">
                    <IconStyle id="78">
                        <color>ff0000ff</color>
                        <colorMode>normal</colorMode>
                        <scale>1</scale>
                        <heading>0</heading>
                        <Icon id="79">
                            <href>https://maps.google.com/mapfiles/kml/shapes/placemark_circle.png</href>
                        </Icon>
                    </IconStyle>
                </Style>
                <Style id="82">
                    <IconStyle id="83">
                        <color>ff0000ff</color>
                        <colorMode>normal</colorMode>
                        <scale>1</scale>
                        <heading>0</heading>
                        <Icon id="84">
                            <href>https://maps.google.com/mapfiles/kml/shapes/placemark_circle.png</href>
                        </Icon>
                    </IconStyle>
                </Style>
                <Style id="87">
                    <IconStyle id="88">
                        <color>ffff0000</color>
                        <colorMode>normal</colorMode>
                        <scale>1</scale>
                        <heading>0</heading>
                        <Icon id="89">
                            <href>https://maps.google.com/mapfiles/kml/shapes/placemark_circle.png</href>
                        </Icon>
                    </IconStyle>
                </Style>
                <Style id="92">
                    <IconStyle id="93">
                        <color>ffff0000</color>
                        <colorMode>normal</colorMode>
                        <scale>1</scale>
                        <heading>0</heading>
                        <Icon id="94">
                            <href>https://maps.google.com/mapfiles/kml/shapes/placemark_circle.png</href>
                        </Icon>
                    </IconStyle>
                </Style>
                <Style id="97">
                    <IconStyle id="98">
                        <color>ffff0000</color>
                        <colorMode>normal</colorMode>
                        <scale>1</scale>
                        <heading>0</heading>
                        <Icon id="99">
                            <href>https://maps.google.com/mapfiles/kml/shapes/placemark_circle.png</href>
                        </Icon>
                    </IconStyle>
                </Style>
                <Style id="102">
                    <IconStyle id="103">
                        <color>ffff0000</color>
                        <colorMode>normal</colorMode>
                        <scale>1</scale>
                        <heading>0</heading>
                        <Icon id="104">
                            <href>https://maps.google.com/mapfiles/kml/shapes/placemark_circle.png</href>
                        </Icon>
                    </IconStyle>
                </Style>
                <Style id="107">
                    <IconStyle id="108">
                        <color>ffff0000</color>
                        <colorMode>normal</colorMode>
                        <scale>1</scale>
                        <heading>0</heading>
                        <Icon id="109">
                            <href>https://maps.google.com/mapfiles/kml/shapes/placemark_circle.png</href>
                        </Icon>
                    </IconStyle>
                </Style>
                <Style id="112">
                    <IconStyle id="113">
                        <color>ffff0000</color>
                        <colorMode>normal</colorMode>
                        <scale>1</scale>
                        <heading>0</heading>
                        <Icon id="114">
                            <href>https://maps.google.com/mapfiles/kml/shapes/placemark_circle.png</href>
                        </Icon>
                    </IconStyle>
                </Style>
                <Style id="117">
                    <IconStyle id="118">
                        <color>ffff0000</color>
                        <colorMode>normal</colorMode>
                        <scale>1</scale>
                        <heading>0</heading>
                        <Icon id="119">
                            <href>https://maps.google.com/mapfiles/kml/shapes/placemark_circle.png</href>
                        </Icon>
                    </IconStyle>
                </Style>
                <Style id="122">
                    <IconStyle id="123">
                        <color>ffff0000</color>
                        <colorMode>normal</colorMode>
                        <scale>1</scale>
                        <heading>0</heading>
                        <Icon id="124">
                            <href>https://maps.google.com/mapfiles/kml/shapes/placemark_circle.png</href>
                        </Icon>
                    </IconStyle>
                </Style>
                <Style id="127">
                    <IconStyle id="128">
                        <color>ffff0000</color>
                        <colorMode>normal</colorMode>
                        <scale>1</scale>
                        <heading>0</heading>
                        <Icon id="129">
                            <href>https://maps.google.com/mapfiles/kml/shapes/placemark_circle.png</href>
                        </Icon>
                    </IconStyle>
                </Style>
                <Style id="132">
                    <IconStyle id="133">
                        <color>ffff0000</color>
                        <colorMode>normal</colorMode>
                        <scale>1</scale>
                        <heading>0</heading>
                        <Icon id="134">
                            <href>https://maps.google.com/mapfiles/kml/shapes/placemark_circle.png</href>
                        </Icon>
                    </IconStyle>
                </Style>
                <name>Waypoints</name>
                <Placemark id="36">
                    <name>10k</name>
                    <description><![CDATA[
        <h1>Waypoint</h1>
        <table style="width: 100%;" cellpadding=0 cellspacing=0 border=0>
        <tr><td style="padding: 10px; border: solid 1px black;border-bottom: 0;"><strong>Local Time</strong></td><td style="border: solid 1px black;border-left: 0; border-bottom: 0; padding: 10px;">06:43:30</td></tr>
        <tr><td style="padding: 10px; border: solid 1px black;border-bottom: 0;"><strong>Altitude</strong></td><td style="border: solid 1px black;border-left: 0; border-bottom: 0; padding: 10px;">10,044ft (3,061.4m)</td></tr>
        <tr><td style="padding: 10px; border: solid 1px black;"><strong>Coordinates</strong></td><td style="border: solid 1px black; border-left: 0; padding: 10px;">39.22593333, -103.7034</td></tr>
        </table>
        ]]></description>
                    <styleUrl>#37</styleUrl>
                    <Point id="35">
                        <coordinates>-103.7034,39.2259333333,3061.41</coordinates>
                        <altitudeMode>absolute</altitudeMode>
                    </Point>
                </Placemark>
                <Placemark id="41">
                    <name>20k</name>
                    <description><![CDATA[
        <h1>Waypoint</h1>
        <table style="width: 100%;" cellpadding=0 cellspacing=0 border=0>
        <tr><td style="padding: 10px; border: solid 1px black;border-bottom: 0;"><strong>Local Time</strong></td><td style="border: solid 1px black;border-left: 0; border-bottom: 0; padding: 10px;">06:51:30</td></tr>
        <tr><td style="padding: 10px; border: solid 1px black;border-bottom: 0;"><strong>Altitude</strong></td><td style="border: solid 1px black;border-left: 0; border-bottom: 0; padding: 10px;">19,996ft (6,094.8m)</td></tr>
        <tr><td style="padding: 10px; border: solid 1px black;"><strong>Coordinates</strong></td><td style="border: solid 1px black; border-left: 0; padding: 10px;">39.22823333, -103.69625</td></tr>
        </table>
        ]]></description>
                    <styleUrl>#42</styleUrl>
                    <Point id="40">
                        <coordinates>-103.69625,39.2282333333,6094.78</coordinates>
                        <altitudeMode>absolute</altitudeMode>
                    </Point>
                </Placemark>
                <Placemark id="46">
                    <name>30k</name>
                    <description><![CDATA[
        <h1>Waypoint</h1>
        <table style="width: 100%;" cellpadding=0 cellspacing=0 border=0>
        <tr><td style="padding: 10px; border: solid 1px black;border-bottom: 0;"><strong>Local Time</strong></td><td style="border: solid 1px black;border-left: 0; border-bottom: 0; padding: 10px;">06:58:45</td></tr>
        <tr><td style="padding: 10px; border: solid 1px black;border-bottom: 0;"><strong>Altitude</strong></td><td style="border: solid 1px black;border-left: 0; border-bottom: 0; padding: 10px;">29,929ft (9,122.4m)</td></tr>
        <tr><td style="padding: 10px; border: solid 1px black;"><strong>Coordinates</strong></td><td style="border: solid 1px black; border-left: 0; padding: 10px;">39.22716667, -103.67066667</td></tr>
        </table>
        ]]></description>
                    <styleUrl>#47</styleUrl>
                    <Point id="45">
                        <coordinates>-103.6706666667,39.2271666667,9122.36</coordinates>
                        <altitudeMode>absolute</altitudeMode>
                    </Point>
                </Placemark>
                <Placemark id="51">
                    <name>40k</name>
                    <description><![CDATA[
        <h1>Waypoint</h1>
        <table style="width: 100%;" cellpadding=0 cellspacing=0 border=0>
        <tr><td style="padding: 10px; border: solid 1px black;border-bottom: 0;"><strong>Local Time</strong></td><td style="border: solid 1px black;border-left: 0; border-bottom: 0; padding: 10px;">07:06:00</td></tr>
        <tr><td style="padding: 10px; border: solid 1px black;border-bottom: 0;"><strong>Altitude</strong></td><td style="border: solid 1px black;border-left: 0; border-bottom: 0; padding: 10px;">40,113ft (12,226.4m)</td></tr>
        <tr><td style="padding: 10px; border: solid 1px black;"><strong>Coordinates</strong></td><td style="border: solid 1px black; border-left: 0; padding: 10px;">39.21011667, -103.5982</td></tr>
        </table>
        ]]></description>
                    <styleUrl>#52</styleUrl>
                    <Point id="50">
                        <coordinates>-103.5982,39.2101166667,12226.44</coordinates>
                        <altitudeMode>absolute</altitudeMode>
                    </Point>
                </Placemark>
                <Placemark id="56">
                    <name>50k</name>
                    <description><![CDATA[
        <h1>Waypoint</h1>
        <table style="width: 100%;" cellpadding=0 cellspacing=0 border=0>
        <tr><td style="padding: 10px; border: solid 1px black;border-bottom: 0;"><strong>Local Time</strong></td><td style="border: solid 1px black;border-left: 0; border-bottom: 0; padding: 10px;">07:13:40</td></tr>
        <tr><td style="padding: 10px; border: solid 1px black;border-bottom: 0;"><strong>Altitude</strong></td><td style="border: solid 1px black;border-left: 0; border-bottom: 0; padding: 10px;">49,928ft (15,218.0m)</td></tr>
        <tr><td style="padding: 10px; border: solid 1px black;"><strong>Coordinates</strong></td><td style="border: solid 1px black; border-left: 0; padding: 10px;">39.17255, -103.53803333</td></tr>
        </table>
        ]]></description>
                    <styleUrl>#57</styleUrl>
                    <Point id="55">
                        <coordinates>-103.5380333333,39.17255,15218.05</coordinates>
                        <altitudeMode>absolute</altitudeMode>
                    </Point>
                </Placemark>
                <Placemark id="61">
                    <name>60k</name>
                    <description><![CDATA[
        <h1>Waypoint</h1>
        <table style="width: 100%;" cellpadding=0 cellspacing=0 border=0>
        <tr><td style="padding: 10px; border: solid 1px black;border-bottom: 0;"><strong>Local Time</strong></td><td style="border: solid 1px black;border-left: 0; border-bottom: 0; padding: 10px;">07:25:15</td></tr>
        <tr><td style="padding: 10px; border: solid 1px black;border-bottom: 0;"><strong>Altitude</strong></td><td style="border: solid 1px black;border-left: 0; border-bottom: 0; padding: 10px;">60,008ft (18,290.4m)</td></tr>
        <tr><td style="padding: 10px; border: solid 1px black;"><strong>Coordinates</strong></td><td style="border: solid 1px black; border-left: 0; padding: 10px;">39.172, -103.52516667</td></tr>
        </table>
        ]]></description>
                    <styleUrl>#62</styleUrl>
                    <Point id="60">
                        <coordinates>-103.5251666667,39.172,18290.44</coordinates>
                        <altitudeMode>absolute</altitudeMode>
                    </Point>
                </Placemark>
                <Placemark id="66">
                    <name>70k</name>
                    <description><![CDATA[
        <h1>Waypoint</h1>
        <table style="width: 100%;" cellpadding=0 cellspacing=0 border=0>
        <tr><td style="padding: 10px; border: solid 1px black;border-bottom: 0;"><strong>Local Time</strong></td><td style="border: solid 1px black;border-left: 0; border-bottom: 0; padding: 10px;">07:38:00</td></tr>
        <tr><td style="padding: 10px; border: solid 1px black;border-bottom: 0;"><strong>Altitude</strong></td><td style="border: solid 1px black;border-left: 0; border-bottom: 0; padding: 10px;">70,022ft (21,342.7m)</td></tr>
        <tr><td style="padding: 10px; border: solid 1px black;"><strong>Coordinates</strong></td><td style="border: solid 1px black; border-left: 0; padding: 10px;">39.16121667, -103.58711667</td></tr>
        </table>
        ]]></description>
                    <styleUrl>#67</styleUrl>
                    <Point id="65">
                        <coordinates>-103.5871166667,39.1612166667,21342.71</coordinates>
                        <altitudeMode>absolute</altitudeMode>
                    </Point>
                </Placemark>
                <Placemark id="71">
                    <name>80k</name>
                    <description><![CDATA[
        <h1>Waypoint</h1>
        <table style="width: 100%;" cellpadding=0 cellspacing=0 border=0>
        <tr><td style="padding: 10px; border: solid 1px black;border-bottom: 0;"><strong>Local Time</strong></td><td style="border: solid 1px black;border-left: 0; border-bottom: 0; padding: 10px;">07:49:40</td></tr>
        <tr><td style="padding: 10px; border: solid 1px black;border-bottom: 0;"><strong>Altitude</strong></td><td style="border: solid 1px black;border-left: 0; border-bottom: 0; padding: 10px;">79,928ft (24,362.1m)</td></tr>
        <tr><td style="padding: 10px; border: solid 1px black;"><strong>Coordinates</strong></td><td style="border: solid 1px black; border-left: 0; padding: 10px;">39.15386667, -103.65576667</td></tr>
        </table>
        ]]></description>
                    <styleUrl>#72</styleUrl>
                    <Point id="70">
                        <coordinates>-103.6557666667,39.1538666667,24362.06</coordinates>
                        <altitudeMode>absolute</altitudeMode>
                    </Point>
                </Placemark>
                <Placemark id="76">
                    <name>90k</name>
                    <description><![CDATA[
        <h1>Waypoint</h1>
        <table style="width: 100%;" cellpadding=0 cellspacing=0 border=0>
        <tr><td style="padding: 10px; border: solid 1px black;border-bottom: 0;"><strong>Local Time</strong></td><td style="border: solid 1px black;border-left: 0; border-bottom: 0; padding: 10px;">08:01:15</td></tr>
        <tr><td style="padding: 10px; border: solid 1px black;border-bottom: 0;"><strong>Altitude</strong></td><td style="border: solid 1px black;border-left: 0; border-bottom: 0; padding: 10px;">89,972ft (27,423.5m)</td></tr>
        <tr><td style="padding: 10px; border: solid 1px black;"><strong>Coordinates</strong></td><td style="border: solid 1px black; border-left: 0; padding: 10px;">39.133, -103.785</td></tr>
        </table>
        ]]></description>
                    <styleUrl>#77</styleUrl>
                    <Point id="75">
                        <coordinates>-103.785,39.133,27423.47</coordinates>
                        <altitudeMode>absolute</altitudeMode>
                    </Point>
                </Placemark>
                <Placemark id="81">
                    <name>100k</name>
                    <description><![CDATA[
        <h1>Waypoint</h1>
        <table style="width: 100%;" cellpadding=0 cellspacing=0 border=0>
        <tr><td style="padding: 10px; border: solid 1px black;border-bottom: 0;"><strong>Local Time</strong></td><td style="border: solid 1px black;border-left: 0; border-bottom: 0; padding: 10px;">08:13:30</td></tr>
        <tr><td style="padding: 10px; border: solid 1px black;border-bottom: 0;"><strong>Altitude</strong></td><td style="border: solid 1px black;border-left: 0; border-bottom: 0; padding: 10px;">99,996ft (30,478.8m)</td></tr>
        <tr><td style="padding: 10px; border: solid 1px black;"><strong>Coordinates</strong></td><td style="border: solid 1px black; border-left: 0; padding: 10px;">39.12411667, -103.92298333</td></tr>
        </table>
        ]]></description>
                    <styleUrl>#82</styleUrl>
                    <Point id="80">
                        <coordinates>-103.9229833333,39.1241166667,30478.78</coordinates>
                        <altitudeMode>absolute</altitudeMode>
                    </Point>
                </Placemark>
                <Placemark id="86">
                    <name>10k</name>
                    <description><![CDATA[
        <h1>Waypoint</h1>
        <table style="width: 100%;" cellpadding=0 cellspacing=0 border=0>
        <tr><td style="padding: 10px; border: solid 1px black;border-bottom: 0;"><strong>Local Time</strong></td><td style="border: solid 1px black;border-left: 0; border-bottom: 0; padding: 10px;">09:04:10</td></tr>
        <tr><td style="padding: 10px; border: solid 1px black;border-bottom: 0;"><strong>Altitude</strong></td><td style="border: solid 1px black;border-left: 0; border-bottom: 0; padding: 10px;">9,893ft (3,015.4m)</td></tr>
        <tr><td style="padding: 10px; border: solid 1px black;"><strong>Coordinates</strong></td><td style="border: solid 1px black; border-left: 0; padding: 10px;">39.08395, -103.9811</td></tr>
        </table>
        ]]></description>
                    <styleUrl>#87</styleUrl>
                    <Point id="85">
                        <coordinates>-103.9811,39.08395,3015.39</coordinates>
                        <altitudeMode>absolute</altitudeMode>
                    </Point>
                </Placemark>
                <Placemark id="91">
                    <name>20k</name>
                    <description><![CDATA[
        <h1>Waypoint</h1>
        <table style="width: 100%;" cellpadding=0 cellspacing=0 border=0>
        <tr><td style="padding: 10px; border: solid 1px black;border-bottom: 0;"><strong>Local Time</strong></td><td style="border: solid 1px black;border-left: 0; border-bottom: 0; padding: 10px;">08:55:00</td></tr>
        <tr><td style="padding: 10px; border: solid 1px black;border-bottom: 0;"><strong>Altitude</strong></td><td style="border: solid 1px black;border-left: 0; border-bottom: 0; padding: 10px;">20,045ft (6,109.7m)</td></tr>
        <tr><td style="padding: 10px; border: solid 1px black;"><strong>Coordinates</strong></td><td style="border: solid 1px black; border-left: 0; padding: 10px;">39.0869, -104.00041667</td></tr>
        </table>
        ]]></description>
                    <styleUrl>#92</styleUrl>
                    <Point id="90">
                        <coordinates>-104.0004166667,39.0869,6109.72</coordinates>
                        <altitudeMode>absolute</altitudeMode>
                    </Point>
                </Placemark>
                <Placemark id="96">
                    <name>30k</name>
                    <description><![CDATA[
        <h1>Waypoint</h1>
        <table style="width: 100%;" cellpadding=0 cellspacing=0 border=0>
        <tr><td style="padding: 10px; border: solid 1px black;border-bottom: 0;"><strong>Local Time</strong></td><td style="border: solid 1px black;border-left: 0; border-bottom: 0; padding: 10px;">08:47:15</td></tr>
        <tr><td style="padding: 10px; border: solid 1px black;border-bottom: 0;"><strong>Altitude</strong></td><td style="border: solid 1px black;border-left: 0; border-bottom: 0; padding: 10px;">30,195ft (9,203.4m)</td></tr>
        <tr><td style="padding: 10px; border: solid 1px black;"><strong>Coordinates</strong></td><td style="border: solid 1px black; border-left: 0; padding: 10px;">39.07966667, -104.02733333</td></tr>
        </table>
        ]]></description>
                    <styleUrl>#97</styleUrl>
                    <Point id="95">
                        <coordinates>-104.0273333333,39.0796666667,9203.44</coordinates>
                        <altitudeMode>absolute</altitudeMode>
                    </Point>
                </Placemark>
                <Placemark id="101">
                    <name>40k</name>
                    <description><![CDATA[
        <h1>Waypoint</h1>
        <table style="width: 100%;" cellpadding=0 cellspacing=0 border=0>
        <tr><td style="padding: 10px; border: solid 1px black;border-bottom: 0;"><strong>Local Time</strong></td><td style="border: solid 1px black;border-left: 0; border-bottom: 0; padding: 10px;">08:41:00</td></tr>
        <tr><td style="padding: 10px; border: solid 1px black;border-bottom: 0;"><strong>Altitude</strong></td><td style="border: solid 1px black;border-left: 0; border-bottom: 0; padding: 10px;">40,120ft (12,228.6m)</td></tr>
        <tr><td style="padding: 10px; border: solid 1px black;"><strong>Coordinates</strong></td><td style="border: solid 1px black; border-left: 0; padding: 10px;">39.08656667, -104.0841</td></tr>
        </table>
        ]]></description>
                    <styleUrl>#102</styleUrl>
                    <Point id="100">
                        <coordinates>-104.0841,39.0865666667,12228.58</coordinates>
                        <altitudeMode>absolute</altitudeMode>
                    </Point>
                </Placemark>
                <Placemark id="106">
                    <name>50k</name>
                    <description><![CDATA[
        <h1>Waypoint</h1>
        <table style="width: 100%;" cellpadding=0 cellspacing=0 border=0>
        <tr><td style="padding: 10px; border: solid 1px black;border-bottom: 0;"><strong>Local Time</strong></td><td style="border: solid 1px black;border-left: 0; border-bottom: 0; padding: 10px;">08:35:45</td></tr>
        <tr><td style="padding: 10px; border: solid 1px black;border-bottom: 0;"><strong>Altitude</strong></td><td style="border: solid 1px black;border-left: 0; border-bottom: 0; padding: 10px;">50,002ft (15,240.6m)</td></tr>
        <tr><td style="padding: 10px; border: solid 1px black;"><strong>Coordinates</strong></td><td style="border: solid 1px black; border-left: 0; padding: 10px;">39.10966667, -104.1265</td></tr>
        </table>
        ]]></description>
                    <styleUrl>#107</styleUrl>
                    <Point id="105">
                        <coordinates>-104.1265,39.1096666667,15240.61</coordinates>
                        <altitudeMode>absolute</altitudeMode>
                    </Point>
                </Placemark>
                <Placemark id="111">
                    <name>60k</name>
                    <description><![CDATA[
        <h1>Waypoint</h1>
        <table style="width: 100%;" cellpadding=0 cellspacing=0 border=0>
        <tr><td style="padding: 10px; border: solid 1px black;border-bottom: 0;"><strong>Local Time</strong></td><td style="border: solid 1px black;border-left: 0; border-bottom: 0; padding: 10px;">08:31:45</td></tr>
        <tr><td style="padding: 10px; border: solid 1px black;border-bottom: 0;"><strong>Altitude</strong></td><td style="border: solid 1px black;border-left: 0; border-bottom: 0; padding: 10px;">60,273ft (18,371.2m)</td></tr>
        <tr><td style="padding: 10px; border: solid 1px black;"><strong>Coordinates</strong></td><td style="border: solid 1px black; border-left: 0; padding: 10px;">39.10816667, -104.131</td></tr>
        </table>
        ]]></description>
                    <styleUrl>#112</styleUrl>
                    <Point id="110">
                        <coordinates>-104.131,39.1081666667,18371.21</coordinates>
                        <altitudeMode>absolute</altitudeMode>
                    </Point>
                </Placemark>
                <Placemark id="116">
                    <name>70k</name>
                    <description><![CDATA[
        <h1>Waypoint</h1>
        <table style="width: 100%;" cellpadding=0 cellspacing=0 border=0>
        <tr><td style="padding: 10px; border: solid 1px black;border-bottom: 0;"><strong>Local Time</strong></td><td style="border: solid 1px black;border-left: 0; border-bottom: 0; padding: 10px;">08:29:10</td></tr>
        <tr><td style="padding: 10px; border: solid 1px black;border-bottom: 0;"><strong>Altitude</strong></td><td style="border: solid 1px black;border-left: 0; border-bottom: 0; padding: 10px;">69,668ft (21,234.8m)</td></tr>
        <tr><td style="padding: 10px; border: solid 1px black;"><strong>Coordinates</strong></td><td style="border: solid 1px black; border-left: 0; padding: 10px;">39.11075, -104.11835</td></tr>
        </table>
        ]]></description>
                    <styleUrl>#117</styleUrl>
                    <Point id="115">
                        <coordinates>-104.11835,39.11075,21234.81</coordinates>
                        <altitudeMode>absolute</altitudeMode>
                    </Point>
                </Placemark>
                <Placemark id="121">
                    <name>80k</name>
                    <description><![CDATA[
        <h1>Waypoint</h1>
        <table style="width: 100%;" cellpadding=0 cellspacing=0 border=0>
        <tr><td style="padding: 10px; border: solid 1px black;border-bottom: 0;"><strong>Local Time</strong></td><td style="border: solid 1px black;border-left: 0; border-bottom: 0; padding: 10px;">08:27:00</td></tr>
        <tr><td style="padding: 10px; border: solid 1px black;border-bottom: 0;"><strong>Altitude</strong></td><td style="border: solid 1px black;border-left: 0; border-bottom: 0; padding: 10px;">80,085ft (24,409.9m)</td></tr>
        <tr><td style="padding: 10px; border: solid 1px black;"><strong>Coordinates</strong></td><td style="border: solid 1px black; border-left: 0; padding: 10px;">39.11093333, -104.10401667</td></tr>
        </table>
        ]]></description>
                    <styleUrl>#122</styleUrl>
                    <Point id="120">
                        <coordinates>-104.1040166667,39.1109333333,24409.91</coordinates>
                        <altitudeMode>absolute</altitudeMode>
                    </Point>
                </Placemark>
                <Placemark id="126">
                    <name>90k</name>
                    <description><![CDATA[
        <h1>Waypoint</h1>
        <table style="width: 100%;" cellpadding=0 cellspacing=0 border=0>
        <tr><td style="padding: 10px; border: solid 1px black;border-bottom: 0;"><strong>Local Time</strong></td><td style="border: solid 1px black;border-left: 0; border-bottom: 0; padding: 10px;">08:25:15</td></tr>
        <tr><td style="padding: 10px; border: solid 1px black;border-bottom: 0;"><strong>Altitude</strong></td><td style="border: solid 1px black;border-left: 0; border-bottom: 0; padding: 10px;">90,415ft (27,558.5m)</td></tr>
        <tr><td style="padding: 10px; border: solid 1px black;"><strong>Coordinates</strong></td><td style="border: solid 1px black; border-left: 0; padding: 10px;">39.1125, -104.082</td></tr>
        </table>
        ]]></description>
                    <styleUrl>#127</styleUrl>
                    <Point id="125">
                        <coordinates>-104.082,39.1125,27558.49</coordinates>
                        <altitudeMode>absolute</altitudeMode>
                    </Point>
                </Placemark>
                <Placemark id="131">
                    <name>100k</name>
                    <description><![CDATA[
        <h1>Waypoint</h1>
        <table style="width: 100%;" cellpadding=0 cellspacing=0 border=0>
        <tr><td style="padding: 10px; border: solid 1px black;border-bottom: 0;"><strong>Local Time</strong></td><td style="border: solid 1px black;border-left: 0; border-bottom: 0; padding: 10px;">08:24:00</td></tr>
        <tr><td style="padding: 10px; border: solid 1px black;border-bottom: 0;"><strong>Altitude</strong></td><td style="border: solid 1px black;border-left: 0; border-bottom: 0; padding: 10px;">100,321ft (30,577.8m)</td></tr>
        <tr><td style="padding: 10px; border: solid 1px black;"><strong>Coordinates</strong></td><td style="border: solid 1px black; border-left: 0; padding: 10px;">39.11206667, -104.0674</td></tr>
        </table>
        ]]></description>
                    <styleUrl>#132</styleUrl>
                    <Point id="130">
                        <coordinates>-104.0674,39.1120666667,30577.84</coordinates>
                        <altitudeMode>absolute</altitudeMode>
                    </Point>
                </Placemark>
            </Folder>
            <Folder id="5">
                <Style id="16">
                    <IconStyle id="17">
                        <color>ff008cff</color>
                        <colorMode>normal</colorMode>
                        <scale>1</scale>
                        <heading>0</heading>
                        <Icon id="18">
                            <href>https://maps.google.com/mapfiles/kml/shapes/placemark_circle.png</href>
                        </Icon>
                    </IconStyle>
                </Style>
                <Style id="21">
                    <IconStyle id="22">
                        <color>ff008cff</color>
                        <colorMode>normal</colorMode>
                        <scale>1</scale>
                        <heading>0</heading>
                        <Icon id="23">
                            <href>https://maps.google.com/mapfiles/kml/shapes/placemark_circle.png</href>
                        </Icon>
                    </IconStyle>
                </Style>
                <Style id="26">
                    <IconStyle id="27">
                        <color>ff00ffff</color>
                        <colorMode>normal</colorMode>
                        <scale>1</scale>
                        <heading>0</heading>
                        <Icon id="28">
                            <href>https://maps.google.com/mapfiles/kml/shapes/placemark_circle.png</href>
                        </Icon>
                    </IconStyle>
                </Style>
                <Style id="31">
                    <IconStyle id="32">
                        <color>ff006400</color>
                        <colorMode>normal</colorMode>
                        <scale>1</scale>
                        <heading>0</heading>
                        <Icon id="33">
                            <href>https://maps.google.com/mapfiles/kml/shapes/placemark_circle.png</href>
                        </Icon>
                    </IconStyle>
                    <LabelStyle id="34">
                        <color>ff006400</color>
                        <colorMode>normal</colorMode>
                        <scale>1</scale>
                    </LabelStyle>
                </Style>
                <name>Points of Interest</name>
                <Placemark id="15">
                    <name>Launch</name>
                    <description><![CDATA[
    <h1>Launch</h1>
    <table style="width: 100%;" cellpadding=0 cellspacing=0 border=0>
    <tr><td style="padding: 10px; border: solid 1px black;border-bottom: 0;"><strong>Local Time</strong></td><td style="border: solid 1px black;border-bottom: 0; border-left: 0; padding: 10px;">06:39:15</td></tr>
    <tr><td style="padding: 10px; border: solid 1px black;border-bottom: 0;"><strong>Altitude</strong></td><td style="border: solid 1px black;border-left: 0; border-bottom: 0; padding: 10px;">5,401ft (1,646.2m)</td></tr>
    <tr><td style="padding: 10px; border: solid 1px black;"><strong>Coordinates</strong></td><td style="border: solid 1px black; border-left: 0; padding: 10px;">39.23616667, -103.697</td></tr>
    </table>
    ]]></description>
                    <styleUrl>#16</styleUrl>
                    <Point id="14">
                        <coordinates>-103.697,39.2361666667,1646.22</coordinates>
                        <altitudeMode>absolute</altitudeMode>
                    </Point>
                </Placemark>
                <Placemark id="20">
                    <name>Landing</name>
                    <description><![CDATA[
    <h1>Landing</h1>
    <table style="width: 100%;" cellpadding=0 cellspacing=0 border=0>
    <tr><td style="padding: 10px; border: solid 1px black;border-bottom: 0;"><strong>Local Time</strong></td><td style="border: solid 1px black;border-left: 0; border-bottom: 0; padding: 10px;">09:07:45</td></tr>
    <tr><td style="padding: 10px; border: solid 1px black;border-bottom: 0;"><strong>Altitude</strong></td><td style="border: solid 1px black;border-bottom: 0; border-left: 0; padding: 10px;">6,412ft (1,954.4m)</td></tr>
    <tr><td style="padding: 10px; border: solid 1px black;"><strong>Coordinates</strong></td><td style="border: solid 1px black; border-left: 0; padding: 10px;">39.0775, -103.98883333</td></tr>
    </table>
    ]]></description>
                    <styleUrl>#21</styleUrl>
                    <Point id="19">
                        <coordinates>-103.9888333333,39.0775,1954.38</coordinates>
                        <altitudeMode>absolute</altitudeMode>
                    </Point>
                </Placemark>
                <Placemark id="25">
                    <name>Burst 107,050ft</name>
                    <description><![CDATA[
    <h1>Burst: 107,050ft</h1>
    <table style="width: 100%;" cellpadding=0 cellspacing=0 border=0>
    <tr><td style="padding: 10px; border: solid 1px black;border-bottom: 0;"><strong>Local Time</strong></td><td style="border: solid 1px black;border-left: 0; border-bottom: 0; padding: 10px;">08:23:15</td></tr>
    <tr><td style="padding: 10px; border: solid 1px black;border-bottom: 0;"><strong>Altitude</strong></td><td style="border: solid 1px black;border-left: 0; border-bottom: 0; padding: 10px;">107,050ft (32,628.8m)</td></tr>
    <tr><td style="padding: 10px; border: solid 1px black;"><strong>Coordinates</strong></td><td style="border: solid 1px black; border-left: 0; padding: 10px;">39.11316667, -104.05716667</td></tr>
    </table>
    ]]></description>
                    <styleUrl>#26</styleUrl>
                    <Point id="24">
                        <coordinates>-104.0571666667,39.1131666667,32628.84</coordinates>
                        <altitudeMode>absolute</altitudeMode>
                    </Point>
                </Placemark>
                <Placemark id="30">
                    <name>50k, Turbulent-to-Laminar</name>
                    <description><![CDATA[
        <h1>Airflow Transitioning from Turbulent-to-Laminar</h1>
        <table style="width: 100%;" cellpadding=0 cellspacing=0 border=0>
        <tr><td style="padding: 10px; border: solid 1px black;border-bottom: 0;"><strong>Local Time</strong></td><td style="border: solid 1px black;border-left: 0; border-bottom: 0; padding: 10px;">07:13:45</td></tr>
        <tr><td style="padding: 10px; border: solid 1px black;border-bottom: 0;"><strong>Altitude</strong></td><td style="border: solid 1px black;border-left: 0; border-bottom: 0; padding: 10px;">50,074ft (15,262.6m)</td></tr>
        <tr><td style="padding: 10px; border: solid 1px black;"><strong>Coordinates</strong></td><td style="border: solid 1px black; border-left: 0; padding: 10px;">39.1725, -103.53816667</td></tr>
        </table>
        ]]></description>
                    <styleUrl>#31</styleUrl>
                    <Point id="29">
                        <coordinates>-103.5381666667,39.1725,15262.56</coordinates>
                        <altitudeMode>absolute</altitudeMode>
                    </Point>
                </Placemark>
            </Folder>
        </Document>
    </Document>
</kml>
