<?xml version="1.0" encoding="UTF-8"?>
<kml xmlns="http://www.opengis.net/kml/2.2" xmlns:gx="http://www.google.com/kml/ext/2.2">
    <Document id="1">
        <Document id="2">
            <name>EOSS-304</name>
            <description><![CDATA[
    <h1>EOSS-304</h1>
    <table style="width: 100%;" cellpadding=0 cellspacing=0 border=0>
    <tr><td style="border: solid 1px black;border-bottom: 0; padding: 10px;"><strong>Launch Local Date/Time</strong></td><td style=" padding: 10px;border: solid 1px black;border-bottom: 0; border-left: 0;">2020-11-07 07:01:15</td></tr>
    <tr><td style="border: solid 1px black;border-bottom: 0; padding: 10px;"><strong>Flight Duration</strong></td><td style=" padding: 10px;border: solid 1px black;border-bottom: 0; border-left: 0; ">2hrs 19mins 56secs</td></tr>
    <tr><td style="border: solid 1px black;border-bottom: 0; padding: 10px;"><strong>Down Range Distance</strong></td><td style=" padding: 10px;border: solid 1px black;border-bottom: 0; border-left: 0; ">86.0mi (138.4km)</td></tr>
    <tr><td style="border: solid 1px black; padding: 10px;"><strong>Approx. Burst Altitude</strong></td><td style=" padding: 10px;border: solid 1px black; border-left: 0; ">90,386ft (27,549.6m)</td></tr>
    </table>
    ]]></description>
            <Folder id="3">
                <Style id="8">
                    <LineStyle id="9">
                        <color>ff0000ff</color>
                        <colorMode>normal</colorMode>
                        <width>3</width>
                    </LineStyle>
                </Style>
                <Style id="12">
                    <LineStyle id="13">
                        <color>ffff0000</color>
                        <colorMode>normal</colorMode>
                        <width>3</width>
                    </LineStyle>
                </Style>
                <name>Paths</name>
                <Placemark id="7">
                    <name>EOSS-304 Ascent</name>
                    <styleUrl>#8</styleUrl>
                    <LineString id="6">
                        <extrude>0</extrude>
                        <altitudeMode>absolute</altitudeMode>
                        <coordinates>-104.077,40.2258333333,1388.67 -104.0767333333,40.22565,1412.14 -104.0768333333,40.2255,1456.03 -104.0751333333,40.2269,1612.09 -104.0746666667,40.2271666667,1647.14 -104.0725,40.2293833333,1791.31 -104.0695166667,40.23315,1960.17 -104.0691666667,40.2338333333,1992.48 -104.0666,40.23735,2140.31 -104.0661666667,40.2378333333,2175.05 -104.0640166667,40.2413166667,2303.37 -104.0638333333,40.2416666667,2341.78 -104.0616333333,40.2446,2477.41 -104.0611666667,40.245,2522.52 -104.0584833333,40.2475,2663.34 -104.058,40.2478333333,2707.23 -104.0552333333,40.2504333333,2848.36 -104.055,40.2508333333,2892.55 -104.0527333333,40.2531666667,3038.25 -104.0525,40.2535,3078.78 -104.05065,40.2557833333,3208.32 -104.0505,40.2561666667,3247.95 -104.0488833333,40.2586666667,3386.33 -104.0488333333,40.259,3426.56 -104.0476,40.2620333333,3553.36 -104.0473333333,40.2623333333,3596.64 -104.0456666667,40.26515,3729.53 -104.0455,40.2656666667,3774.64 -104.04405,40.26855,3916.38 -104.0436666667,40.2691666667,3959.05 -104.0420833333,40.2723333333,4080.66 -104.0418333333,40.2728333333,4121.81 -104.03975,40.2758,4264.46 -104.0395,40.2763333333,4311.09 -104.0367666667,40.2788666667,4444.59 -104.0342666667,40.2820833333,4629.61 -104.0317166667,40.2854666667,4798.47 -104.0313333333,40.2858333333,4838.4 -104.0293333333,40.2885666667,4948.73 -104.029,40.289,4982.57 -104.0270333333,40.2917,5080.71 -104.0248666667,40.2943666667,5225.8 -104.0246666667,40.2948333333,5256.89 -104.0222166667,40.2971833333,5380.63 -104.0216666667,40.2975,5426.66 -104.0190333333,40.2999333333,5557.72 -104.0185,40.3003333333,5596.13 -104.0157666667,40.3027166667,5717.74 -104.0155,40.303,5757.37 -104.0123833333,40.3057,5872.89 -104.0118333333,40.306,5920.74 -104.0083333333,40.3095,6086.86 -104.0048333333,40.3128333333,6238.65 -104.0014833333,40.3158333333,6357.82 -104.0008333333,40.3163333333,6402.32 -103.99775,40.3196833333,6504.74 -103.9971666667,40.3201666667,6540.09 -103.9939333333,40.3236,6654.7 -103.9933333333,40.3241666667,6696.76 -103.99035,40.3273,6817.77 -103.9898333333,40.328,6857.7 -103.9861333333,40.3316166667,6973.82 -103.9853333333,40.3321666667,7011.92 -103.98105,40.3362666667,7132.02 -103.9805,40.3368333333,7175.6 -103.9764,40.3406833333,7292.04 -103.9758333333,40.3413333333,7334.4 -103.97185,40.3452666667,7442.0 -103.9713333333,40.3458333333,7486.5 -103.9676666667,40.3494833333,7621.83 -103.967,40.3501666667,7673.64 -103.9631333333,40.3548833333,7812.02 -103.9625,40.3556666667,7856.83 -103.9575166667,40.36035,7989.11 -103.9568333333,40.361,8033.31 -103.9524833333,40.3655166667,8190.89 -103.9518333333,40.3665,8233.56 -103.94705,40.37205,8362.19 -103.9461666667,40.373,8402.42 -103.9416333333,40.37845,8515.2 -103.9408333333,40.3793333333,8553.91 -103.9362833333,40.3848833333,8665.16 -103.9355,40.3858333333,8714.54 -103.9306833333,40.3913666667,8860.23 -103.93,40.3921666667,8908.08 -103.9251833333,40.3982166667,9017.2 -103.9245,40.3991666667,9063.23 -103.9199166667,40.4053333333,9187.28 -103.9191666667,40.4065,9228.73 -103.91475,40.4128,9347.3 -103.9141666667,40.4136666667,9388.14 -103.9095,40.4213333333,9548.16 -103.9051833333,40.4280333333,9667.34 -103.9043333333,40.4291666667,9711.54 -103.8990666667,40.4354166667,9839.25 -103.8981666667,40.4363333333,9874.61 -103.8915333333,40.4417666667,9992.26 -103.8905,40.4425,10033.41 -103.8840666667,40.4478166667,10151.36 -103.8831666667,40.4485,10196.17 -103.8769333333,40.4541833333,10341.25 -103.876,40.4548333333,10390.63 -103.8688333333,40.461,10575.34 -103.8629,40.466,10703.36 -103.8618333333,40.4668333333,10750.91 -103.8551166667,40.47115,10868.25 -103.854,40.4718333333,10907.57 -103.8467166667,40.4772666667,11011.51 -103.8456666667,40.4781666667,11049.3 -103.83895,40.4831666667,11157.51 -103.838,40.4838333333,11194.39 -103.8313333333,40.4893333333,11271.5 -103.8303333333,40.4903333333,11306.56 -103.8238,40.4962333333,11382.45 -103.8228333333,40.4971666667,11417.5 -103.8161166667,40.5032333333,11487.3 -103.815,40.5041666667,11521.14 -103.8078,40.50985,11598.55 -103.8066666667,40.5106666667,11632.39 -103.7986666667,40.5173333333,11761.62 -103.7901666667,40.524,11885.07 -103.782,40.53,12028.02 -103.7745,40.536,12163.04 -103.7666666667,40.542,12292.58 -103.759,40.5483333333,12441.94 -103.7525,40.5551666667,12565.99 -103.7461666667,40.562,12676.63 -103.74,40.5685,12793.98 -103.7321666667,40.5745,12940.89 -103.7252666667,40.5792666667,13014.66 -103.7243333333,40.58,13055.19 -103.71795,40.58465,13127.74 -103.7168333333,40.5855,13169.19 -103.7107166667,40.59045,13251.79 -103.7098333333,40.5911666667,13288.67 -103.7034833333,40.5963666667,13371.58 -103.7026666667,40.5971666667,13408.46 -103.6963333333,40.6026666667,13497.76 -103.6953333333,40.6035,13537.39 -103.6884666667,40.6086166667,13639.8 -103.6873333333,40.6095,13675.46 -103.6799,40.6145333333,13764.77 -103.6788333333,40.6153333333,13802.87 -103.6711,40.6201166667,13897.66 -103.67,40.6208333333,13932.41 -103.6621833333,40.62595,14019.89 -103.661,40.6268333333,14055.24 -103.6531666667,40.6319333333,14142.72 -103.652,40.6326666667,14178.38 -103.6443666667,40.6373833333,14255.8 -103.6431666667,40.638,14290.55 -103.6350833333,40.6426666667,14370.71 -103.634,40.6433333333,14407.9 -103.6263833333,40.6479833333,14491.72 -103.6253333333,40.6486666667,14528.29 -103.61835,40.653,14612.72 -103.6171666667,40.6536666667,14647.77 -103.6099666667,40.6574,14743.79 -103.6093333333,40.6578333333,14793.47 -103.6034,40.6616666667,14887.96 -103.6023333333,40.6623333333,14926.67 -103.5963,40.6664333333,15026.94 -103.5953333333,40.667,15073.88 -103.5900666667,40.6702166667,15186.05 -103.5893333333,40.6706666667,15224.15 -103.5843166667,40.6737333333,15327.78 -103.5835,40.6741666667,15366.49 -103.5779833333,40.6764166667,15485.97 -103.5771666667,40.6768333333,15524.68 -103.571,40.6796666667,15664.28 -103.5660833333,40.6815333333,15796.87 -103.5651666667,40.6816666667,15840.46 -103.55995,40.68335,15956.89 -103.5593333333,40.6836666667,15997.12 -103.5552833333,40.6860333333,16133.98 -103.5548333333,40.6863333333,16178.17 -103.5523833333,40.6885333333,16304.97 -103.5521666667,40.6891666667,16352.22 -103.5499833333,40.6925833333,16447.92 -103.5496666667,40.6931666667,16492.73 -103.54695,40.6971666667,16598.19 -103.5465,40.6976666667,16633.24 -103.5433666667,40.7015166667,16728.95 -103.5428333333,40.7021666667,16774.67 -103.5394333333,40.7071166667,16865.19 -103.5386666667,40.708,16904.21 -103.53375,40.7127333333,16988.03 -103.533,40.7135,17032.53 -103.5276666667,40.7176666667,17160.24 -103.5233666667,40.7207833333,17252.29 -103.5226666667,40.7213333333,17294.66 -103.5183166667,40.7234666667,17418.1 -103.5178333333,40.7238333333,17460.47 -103.5136833333,40.7245333333,17598.24 -103.5131666667,40.7246666667,17636.34 -103.5095666667,40.7257166667,17734.18 -103.509,40.7258333333,17774.11 -103.50565,40.7262,17890.24 -103.5051666667,40.7263333333,17927.73 -103.50245,40.7271333333,18031.36 -103.5023333333,40.7273333333,18069.15 -103.5010166667,40.72905,18164.25 -103.5008333333,40.7293333333,18205.09 -103.4997166667,40.73115,18293.18 -103.4995,40.7315,18332.81 -103.4979666667,40.7330666667,18420.28 -103.4978333333,40.7333333333,18460.21 -103.4965,40.7353333333,18594.02 -103.4951,40.73595,18702.22 -103.4948333333,40.736,18745.2 -103.49425,40.7362,18835.42 -103.4943333333,40.7363333333,18878.09 -103.4944833333,40.7364666667,18962.52 -103.4945,40.7366666667,19000.62 -103.4949166667,40.7373333333,19088.4 -103.495,40.7375,19126.81 -103.4949833333,40.7389333333,19219.47 -103.495,40.7391666667,19254.52 -103.4943,40.74115,19351.45 -103.4941666667,40.7415,19387.72 -103.4923,40.7431666667,19487.39 -103.492,40.7433333333,19523.66 -103.4895,40.7448,19623.33 -103.4891666667,40.745,19660.51 -103.4861666667,40.7461166667,19764.45 -103.4856666667,40.7461666667,19804.38 -103.4823833333,40.74675,19909.54 -103.4818333333,40.7466666667,19947.33 -103.4785666667,40.7461666667,20038.47 -103.478,40.746,20072.3 -103.4753,40.7447333333,20160.39 -103.475,40.7445,20196.96 -103.4735333333,40.7434,20301.51 -103.4731666667,40.7433333333,20334.73 -103.47155,40.7422,20420.69 -103.4713333333,40.742,20451.78 -103.4704833333,40.7409333333,20536.51 -103.4703333333,40.7408333333,20570.34 -103.4696666667,40.7406666667,20691.35 -103.4685,40.7415,20812.05 -103.4666666667,40.7431666667,20932.75 -103.4651,40.7441166667,21016.57 -103.4648333333,40.7441666667,21055.89 -103.4631666667,40.7441666667,21193.35 -103.4620333333,40.74355,21296.68 -103.462,40.7436666667,21328.99 -103.4606666667,40.7436666667,21474.38 -103.4594666667,40.7439833333,21579.84 -103.4593333333,40.7441666667,21620.38 -103.4568166667,40.7448666667,21732.85 -103.4565,40.7448333333,21777.05 -103.4533833333,40.7450666667,21877.63 -103.4528333333,40.745,21911.46 -103.4496666667,40.745,22051.98 -103.44735,40.7447166667,22158.66 -103.4468333333,40.7445,22197.67 -103.4445,40.7433166667,22305.87 -103.4443333333,40.743,22350.98 -103.4419,40.7411833333,22473.82 -103.4416666667,40.7411666667,22516.49 -103.4393,40.7405833333,22637.8 -103.4388333333,40.7406666667,22674.68 -103.4368666667,40.74,22785.93 -103.4366666667,40.7396666667,22823.12 -103.4355666667,40.7388833333,22931.02 -103.4356666667,40.7388333333,22971.25 -103.4355333333,40.7386,23084.94 -103.4355,40.7386666667,23125.48 -103.4354166667,40.7386333333,23235.82 -103.4353333333,40.7385,23278.19 -103.4348333333,40.738,23435.16 -103.4344,40.7375666667,23552.81 -103.4341666667,40.7375,23590.61 -103.4333,40.7375333333,23700.94 -103.433,40.7375,23740.26 -103.4316,40.7379,23840.85 -103.4313333333,40.738,23883.21 -103.4288333333,40.73915,23981.97 -103.4285,40.7391666667,24021.59 -103.4260166667,40.7394833333,24109.98 -103.4256666667,40.7396666667,24150.52 -103.4221166667,40.7398666667,24236.17 -103.4215,40.74,24271.83 -103.4171833333,40.7397666667,24354.13 -103.4165,40.7395,24387.66 -103.4120333333,40.7382333333,24483.97 -103.4113333333,40.738,24522.68 -103.4068833333,40.737,24627.23 -103.4061666667,40.7368333333,24664.42 -103.4018166667,40.7359833333,24777.19 -103.4011666667,40.7358333333,24818.04 -103.3976166667,40.7351666667,24935.08 -103.3968333333,40.735,24972.87 -103.3926666667,40.7345,25118.26 -103.3894166667,40.7334333333,25220.07 -103.3888333333,40.7333333333,25257.56 -103.3853333333,40.7321666667,25383.74 -103.3827833333,40.73125,25483.11 -103.3825,40.731,25517.86 -103.3799166667,40.7299166667,25625.15 -103.3796666667,40.7298333333,25665.07 -103.3774166667,40.7285833333,25779.37 -103.3771666667,40.7283333333,25820.83 -103.3750666667,40.7276,25943.36 -103.3746666667,40.7275,25984.81 -103.3729833333,40.7271166667,26109.17 -103.3726666667,40.7271666667,26150.62 -103.3711666667,40.728,26311.56 -103.3685833333,40.7285,26422.2 -103.3681666667,40.7286666667,26461.82 -103.36515,40.7289833333,26569.42 -103.3648333333,40.729,26608.43 -103.3612,40.73005,26703.22 -103.3606666667,40.7303333333,26738.88 -103.3575666667,40.73225,26825.45 -103.357,40.7326666667,26862.63 -103.3533166667,40.73505,26945.23 -103.3528333333,40.7353333333,26982.42 -103.3481666667,40.7378333333,27111.35 -103.3443166667,40.7397666667,27213.46 -103.3436666667,40.7401666667,27251.56 -103.3391666667,40.7422666667,27352.45 -103.3383333333,40.7425,27394.81 -103.33335,40.74345,27508.5 -103.3325,40.7436666667,27549.65</coordinates>
                    </LineString>
                </Placemark>
                <Placemark id="11">
                    <name>EOSS-304 Descent</name>
                    <styleUrl>#12</styleUrl>
                    <LineString id="10">
                        <extrude>0</extrude>
                        <altitudeMode>absolute</altitudeMode>
                        <coordinates>-103.3325,40.7436666667,27549.65 -103.3277333333,40.7441833333,27039.42 -103.3273333333,40.7441666667,26926.03 -103.3249166667,40.7458333333,26157.33 -103.3243333333,40.746,26064.97 -103.32255,40.7450833333,25307.24 -103.3218333333,40.7448333333,25207.26 -103.3179833333,40.74405,24483.97 -103.3176666667,40.744,24393.45 -103.314,40.7446666667,23625.66 -103.3131833333,40.74475,22982.83 -103.3126666667,40.7445,22902.98 -103.3111166667,40.7434,22297.64 -103.3106666667,40.7433333333,22229.37 -103.3081,40.7431666667,21682.86 -103.308,40.743,21620.68 -103.3064833333,40.74305,21095.51 -103.3058333333,40.7433333333,21029.98 -103.3052166667,40.7436666667,20499.63 -103.3048333333,40.7433333333,20435.93 -103.3035,40.7421833333,19927.52 -103.303,40.7425,19879.36 -103.30015,40.7434333333,19431.3 -103.3,40.744,19389.85 -103.2991833333,40.7459666667,18975.32 -103.2993333333,40.7458333333,18939.66 -103.2998833333,40.7466166667,18559.27 -103.2993333333,40.747,18530.62 -103.29705,40.7473666667,18169.13 -103.297,40.7478333333,18135.6 -103.2932333333,40.74925,17782.34 -103.2925,40.7491666667,17751.86 -103.28885,40.75085,17401.03 -103.2878333333,40.7511666667,17374.51 -103.2821833333,40.7557833333,17041.06 -103.281,40.7565,17013.94 -103.27845,40.7598166667,16699.99 -103.2783333333,40.7603333333,16682.62 -103.275,40.7645,16372.33 -103.2705833333,40.7658833333,16084.91 -103.2703333333,40.7661666667,16069.06 -103.2666666667,40.7689,15800.83 -103.2658333333,40.7695,15784.68 -103.26095,40.7726,15506.09 -103.26,40.7731666667,15488.11 -103.2561,40.7762,15222.02 -103.2556666667,40.7766666667,15206.17 -103.2519,40.7801333333,14933.98 -103.2508333333,40.7806666667,14919.35 -103.2448333333,40.7836666667,14646.25 -103.23995,40.7871166667,14393.88 -103.2388333333,40.788,14379.24 -103.2307833333,40.7937,14125.65 -103.2295,40.7943333333,14109.8 -103.2227666667,40.7984,13853.77 -103.222,40.799,13840.66 -103.2168333333,40.8037333333,13582.8 -103.2161666667,40.8046666667,13570.31 -103.2125333333,40.8106333333,13324.64 -103.212,40.8116666667,13309.4 -103.2084,40.8166833333,13069.52 -103.2078333333,40.8173333333,13058.24 -103.2019,40.8226666667,12826.59 -103.2006666667,40.8231666667,12815.62 -103.1954666667,40.8274666667,12584.58 -103.1946666667,40.8285,12569.04 -103.1892333333,40.8342666667,12306.6 -103.1883333333,40.8348333333,12286.18 -103.1806666667,40.8408333333,12028.63 -103.1736666667,40.847,11787.53 -103.1663833333,40.85245,11551.31 -103.1651666667,40.8531666667,11541.86 -103.1582333333,40.8582833333,11306.56 -103.1575,40.859,11297.11 -103.1512833333,40.8647,11067.29 -103.1505,40.8656666667,11055.71 -103.1426166667,40.8707666667,10839.3 -103.1415,40.8713333333,10830.76 -103.1352333333,40.8757333333,10614.36 -103.1343333333,40.8765,10606.13 -103.12775,40.88185,10390.33 -103.1265,40.8825,10383.32 -103.1198166667,40.88715,10179.41 -103.1191666667,40.8878333333,10172.4 -103.1135,40.8941666667,9969.4 -103.10655,40.89975,9781.34 -103.1055,40.9005,9777.07 -103.1007333333,40.9053,9597.24 -103.1003333333,40.906,9592.36 -103.0973166667,40.9115166667,9402.17 -103.0966666667,40.9126666667,9394.85 -103.0923666667,40.9186833333,9195.21 -103.092,40.9195,9189.72 -103.0891,40.9252333333,8993.12 -103.0886666667,40.9263333333,8987.64 -103.0847166667,40.93315,8794.09 -103.084,40.9341666667,8789.21 -103.07975,40.9403666667,8591.09 -103.079,40.9413333333,8584.08 -103.0745,40.9476666667,8377.12 -103.0699833333,40.9536333333,8183.88 -103.0696666667,40.9543333333,8179.0 -103.0654666667,40.9601833333,7985.15 -103.0648333333,40.9608333333,7980.88 -103.062,40.9664333333,7801.05 -103.0616666667,40.9671666667,7804.1 -103.0575666667,40.9733333333,7627.92 -103.0566666667,40.974,7626.1 -103.05235,40.97815,7452.97 -103.0518333333,40.979,7451.75 -103.0483166667,40.9842,7289.9 -103.0476666667,40.985,7289.6 -103.04335,40.9895166667,7121.96 -103.043,40.9901666667,7119.82 -103.0403666667,40.9951833333,6958.89 -103.04,40.996,6957.67 -103.0355333333,41.0009333333,6801.92 -103.0348333333,41.0016666667,6802.53 -103.0307666667,41.0057833333,6642.81 -103.03,41.0063333333,6641.59 -103.0256333333,41.0106333333,6483.71 -103.025,41.0111666667,6480.96 -103.0213333333,41.015,6321.55 -103.019,41.0181166667,6158.79 -103.0186666667,41.0186666667,6156.66 -103.0156833333,41.02285,5998.77 -103.0151666667,41.0235,5999.07 -103.0108333333,41.0273333333,5843.32 -103.0085333333,41.0297166667,5687.57 -103.008,41.0303333333,5686.96 -103.0055,41.0328833333,5524.8 -103.005,41.0335,5527.55 -103.00275,41.03655,5367.53 -103.0023333333,41.0371666667,5370.27 -103.0003166667,41.0399666667,5205.68 -103.0001666667,41.0405,5205.07 -102.9977166667,41.04385,5038.65 -102.9973333333,41.044,5047.49 -102.9960833333,41.0473333333,4881.68 -102.9958333333,41.0478333333,4882.9 -102.9937166667,41.0509,4720.74 -102.9935,41.0515,4721.35 -102.9911666667,41.0553,4558.59 -102.991,41.0558333333,4561.03 -102.9895,41.06,4396.44 -102.9891666667,41.0605,4397.65 -102.9875666667,41.0645333333,4232.45 -102.9875,41.065,4229.4 -102.9864666667,41.0691166667,4066.64 -102.9861666667,41.0698333333,4069.08 -102.98435,41.07375,3910.58 -102.984,41.0743333333,3914.24 -102.9821,41.0777666667,3758.49 -102.9818333333,41.0783333333,3757.88 -102.97975,41.0821,3604.56 -102.9796666667,41.0826666667,3605.78 -102.97745,41.0865666667,3453.38 -102.977,41.0871666667,3453.69 -102.97455,41.0913333333,3309.52 -102.9743333333,41.0918333333,3311.96 -102.97145,41.0952833333,3167.48 -102.9711666667,41.096,3169.92 -102.9695666667,41.0989333333,3022.4 -102.9693333333,41.0993333333,3024.53 -102.9670333333,41.1028333333,2883.41 -102.9665,41.1033333333,2887.68 -102.96395,41.1058333333,2754.48 -102.9636666667,41.1063333333,2763.01 -102.9609166667,41.1093666667,2630.42 -102.9603333333,41.1098333333,2631.03 -102.9573166667,41.1114166667,2482.29 -102.957,41.1116666667,2484.42 -102.95545,41.1133166667,2355.19 -102.9553333333,41.1136666667,2362.2 -102.9534333333,41.11585,2223.21 -102.953,41.116,2227.17 -102.9507,41.1174333333,2086.36 -102.9505,41.1176666667,2088.49 -102.9493666667,41.11965,1938.22 -102.9491666667,41.1198333333,1937.92 -102.94835,41.1214166667,1786.13 -102.9481666667,41.1216666667,1783.08 -102.94645,41.1229666667,1624.28 -102.9461666667,41.1231666667,1618.18 -102.94515,41.1242833333,1482.24 -102.9448333333,41.1245,1481.33 -102.94325,41.1255,1351.18 -102.9427666667,41.1265,1263.09</coordinates>
                    </LineString>
                </Placemark>
            </Folder>
            <Folder id="4">
                <Style id="37">
                    <IconStyle id="38">
                        <color>ff0000ff</color>
                        <colorMode>normal</colorMode>
                        <scale>1</scale>
                        <heading>0</heading>
                        <Icon id="39">
                            <href>https://maps.google.com/mapfiles/kml/shapes/placemark_circle.png</href>
                        </Icon>
                    </IconStyle>
                </Style>
                <Style id="42">
                    <IconStyle id="43">
                        <color>ff0000ff</color>
                        <colorMode>normal</colorMode>
                        <scale>1</scale>
                        <heading>0</heading>
                        <Icon id="44">
                            <href>https://maps.google.com/mapfiles/kml/shapes/placemark_circle.png</href>
                        </Icon>
                    </IconStyle>
                </Style>
                <Style id="47">
                    <IconStyle id="48">
                        <color>ff0000ff</color>
                        <colorMode>normal</colorMode>
                        <scale>1</scale>
                        <heading>0</heading>
                        <Icon id="49">
                            <href>https://maps.google.com/mapfiles/kml/shapes/placemark_circle.png</href>
                        </Icon>
                    </IconStyle>
                </Style>
                <Style id="52">
                    <IconStyle id="53">
                        <color>ff0000ff</color>
                        <colorMode>normal</colorMode>
                        <scale>1</scale>
                        <heading>0</heading>
                        <Icon id="54">
                            <href>https://maps.google.com/mapfiles/kml/shapes/placemark_circle.png</href>
                        </Icon>
                    </IconStyle>
                </Style>
                <Style id="57">
                    <IconStyle id="58">
                        <color>ff0000ff</color>
                        <colorMode>normal</colorMode>
                        <scale>1</scale>
                        <heading>0</heading>
                        <Icon id="59">
                            <href>https://maps.google.com/mapfiles/kml/shapes/placemark_circle.png</href>
                        </Icon>
                    </IconStyle>
                </Style>
                <Style id="62">
                    <IconStyle id="63">
                        <color>ff0000ff</color>
                        <colorMode>normal</colorMode>
                        <scale>1</scale>
                        <heading>0</heading>
                        <Icon id="64">
                            <href>https://maps.google.com/mapfiles/kml/shapes/placemark_circle.png</href>
                        </Icon>
                    </IconStyle>
                </Style>
                <Style id="67">
                    <IconStyle id="68">
                        <color>ff0000ff</color>
                        <colorMode>normal</colorMode>
                        <scale>1</scale>
                        <heading>0</heading>
                        <Icon id="69">
                            <href>https://maps.google.com/mapfiles/kml/shapes/placemark_circle.png</href>
                        </Icon>
                    </IconStyle>
                </Style>
                <Style id="72">
                    <IconStyle id="73">
                        <color>ff0000ff</color>
                        <colorMode>normal</colorMode>
                        <scale>1</scale>
                        <heading>0</heading>
                        <Icon id="74">
                            <href>https://maps.google.com/mapfiles/kml/shapes/placemark_circle.png</href>
                        </Icon>
                    </IconStyle>
                </Style>
                <Style id="77">
                    <IconStyle id="78">
                        <color>ff0000ff</color>
                        <colorMode>normal</colorMode>
                        <scale>1</scale>
                        <heading>0</heading>
                        <Icon id="79">
                            <href>https://maps.google.com/mapfiles/kml/shapes/placemark_circle.png</href>
                        </Icon>
                    </IconStyle>
                </Style>
                <Style id="82">
                    <IconStyle id="83">
                        <color>ffff0000</color>
                        <colorMode>normal</colorMode>
                        <scale>1</scale>
                        <heading>0</heading>
                        <Icon id="84">
                            <href>https://maps.google.com/mapfiles/kml/shapes/placemark_circle.png</href>
                        </Icon>
                    </IconStyle>
                </Style>
                <Style id="87">
                    <IconStyle id="88">
                        <color>ffff0000</color>
                        <colorMode>normal</colorMode>
                        <scale>1</scale>
                        <heading>0</heading>
                        <Icon id="89">
                            <href>https://maps.google.com/mapfiles/kml/shapes/placemark_circle.png</href>
                        </Icon>
                    </IconStyle>
                </Style>
                <Style id="92">
                    <IconStyle id="93">
                        <color>ffff0000</color>
                        <colorMode>normal</colorMode>
                        <scale>1</scale>
                        <heading>0</heading>
                        <Icon id="94">
                            <href>https://maps.google.com/mapfiles/kml/shapes/placemark_circle.png</href>
                        </Icon>
                    </IconStyle>
                </Style>
                <Style id="97">
                    <IconStyle id="98">
                        <color>ffff0000</color>
                        <colorMode>normal</colorMode>
                        <scale>1</scale>
                        <heading>0</heading>
                        <Icon id="99">
                            <href>https://maps.google.com/mapfiles/kml/shapes/placemark_circle.png</href>
                        </Icon>
                    </IconStyle>
                </Style>
                <Style id="102">
                    <IconStyle id="103">
                        <color>ffff0000</color>
                        <colorMode>normal</colorMode>
                        <scale>1</scale>
                        <heading>0</heading>
                        <Icon id="104">
                            <href>https://maps.google.com/mapfiles/kml/shapes/placemark_circle.png</href>
                        </Icon>
                    </IconStyle>
                </Style>
                <Style id="107">
                    <IconStyle id="108">
                        <color>ffff0000</color>
                        <colorMode>normal</colorMode>
                        <scale>1</scale>
                        <heading>0</heading>
                        <Icon id="109">
                            <href>https://maps.google.com/mapfiles/kml/shapes/placemark_circle.png</href>
                        </Icon>
                    </IconStyle>
                </Style>
                <Style id="112">
                    <IconStyle id="113">
                        <color>ffff0000</color>
                        <colorMode>normal</colorMode>
                        <scale>1</scale>
                        <heading>0</heading>
                        <Icon id="114">
                            <href>https://maps.google.com/mapfiles/kml/shapes/placemark_circle.png</href>
                        </Icon>
                    </IconStyle>
                </Style>
                <Style id="117">
                    <IconStyle id="118">
                        <color>ffff0000</color>
                        <colorMode>normal</colorMode>
                        <scale>1</scale>
                        <heading>0</heading>
                        <Icon id="119">
                            <href>https://maps.google.com/mapfiles/kml/shapes/placemark_circle.png</href>
                        </Icon>
                    </IconStyle>
                </Style>
                <name>Waypoints</name>
                <Placemark id="36">
                    <name>10k</name>
                    <description><![CDATA[
        <h1>Waypoint</h1>
        <table style="width: 100%;" cellpadding=0 cellspacing=0 border=0>
        <tr><td style="padding: 10px; border: solid 1px black;border-bottom: 0;"><strong>Local Time</strong></td><td style="border: solid 1px black;border-left: 0; border-bottom: 0; padding: 10px;">07:06:11</td></tr>
        <tr><td style="padding: 10px; border: solid 1px black;border-bottom: 0;"><strong>Altitude</strong></td><td style="border: solid 1px black;border-left: 0; border-bottom: 0; padding: 10px;">9,968ft (3,038.2m)</td></tr>
        <tr><td style="padding: 10px; border: solid 1px black;"><strong>Coordinates</strong></td><td style="border: solid 1px black; border-left: 0; padding: 10px;">40.25316667, -104.05273333</td></tr>
        </table>
        ]]></description>
                    <styleUrl>#37</styleUrl>
                    <Point id="35">
                        <coordinates>-104.0527333333,40.2531666667,3038.25</coordinates>
                        <altitudeMode>absolute</altitudeMode>
                    </Point>
                </Placemark>
                <Placemark id="41">
                    <name>20k</name>
                    <description><![CDATA[
        <h1>Waypoint</h1>
        <table style="width: 100%;" cellpadding=0 cellspacing=0 border=0>
        <tr><td style="padding: 10px; border: solid 1px black;border-bottom: 0;"><strong>Local Time</strong></td><td style="border: solid 1px black;border-left: 0; border-bottom: 0; padding: 10px;">07:15:15</td></tr>
        <tr><td style="padding: 10px; border: solid 1px black;border-bottom: 0;"><strong>Altitude</strong></td><td style="border: solid 1px black;border-left: 0; border-bottom: 0; padding: 10px;">19,970ft (6,086.9m)</td></tr>
        <tr><td style="padding: 10px; border: solid 1px black;"><strong>Coordinates</strong></td><td style="border: solid 1px black; border-left: 0; padding: 10px;">40.3095, -104.00833333</td></tr>
        </table>
        ]]></description>
                    <styleUrl>#42</styleUrl>
                    <Point id="40">
                        <coordinates>-104.0083333333,40.3095,6086.86</coordinates>
                        <altitudeMode>absolute</altitudeMode>
                    </Point>
                </Placemark>
                <Placemark id="46">
                    <name>30k</name>
                    <description><![CDATA[
        <h1>Waypoint</h1>
        <table style="width: 100%;" cellpadding=0 cellspacing=0 border=0>
        <tr><td style="padding: 10px; border: solid 1px black;border-bottom: 0;"><strong>Local Time</strong></td><td style="border: solid 1px black;border-left: 0; border-bottom: 0; padding: 10px;">07:24:41</td></tr>
        <tr><td style="padding: 10px; border: solid 1px black;border-bottom: 0;"><strong>Altitude</strong></td><td style="border: solid 1px black;border-left: 0; border-bottom: 0; padding: 10px;">30,142ft (9,187.3m)</td></tr>
        <tr><td style="padding: 10px; border: solid 1px black;"><strong>Coordinates</strong></td><td style="border: solid 1px black; border-left: 0; padding: 10px;">40.40533333, -103.91991667</td></tr>
        </table>
        ]]></description>
                    <styleUrl>#47</styleUrl>
                    <Point id="45">
                        <coordinates>-103.9199166667,40.4053333333,9187.28</coordinates>
                        <altitudeMode>absolute</altitudeMode>
                    </Point>
                </Placemark>
                <Placemark id="51">
                    <name>40k</name>
                    <description><![CDATA[
        <h1>Waypoint</h1>
        <table style="width: 100%;" cellpadding=0 cellspacing=0 border=0>
        <tr><td style="padding: 10px; border: solid 1px black;border-bottom: 0;"><strong>Local Time</strong></td><td style="border: solid 1px black;border-left: 0; border-bottom: 0; padding: 10px;">07:34:45</td></tr>
        <tr><td style="padding: 10px; border: solid 1px black;border-bottom: 0;"><strong>Altitude</strong></td><td style="border: solid 1px black;border-left: 0; border-bottom: 0; padding: 10px;">39,905ft (12,163.0m)</td></tr>
        <tr><td style="padding: 10px; border: solid 1px black;"><strong>Coordinates</strong></td><td style="border: solid 1px black; border-left: 0; padding: 10px;">40.536, -103.7745</td></tr>
        </table>
        ]]></description>
                    <styleUrl>#52</styleUrl>
                    <Point id="50">
                        <coordinates>-103.7745,40.536,12163.04</coordinates>
                        <altitudeMode>absolute</altitudeMode>
                    </Point>
                </Placemark>
                <Placemark id="56">
                    <name>50k</name>
                    <description><![CDATA[
        <h1>Waypoint</h1>
        <table style="width: 100%;" cellpadding=0 cellspacing=0 border=0>
        <tr><td style="padding: 10px; border: solid 1px black;border-bottom: 0;"><strong>Local Time</strong></td><td style="border: solid 1px black;border-left: 0; border-bottom: 0; padding: 10px;">07:46:45</td></tr>
        <tr><td style="padding: 10px; border: solid 1px black;border-bottom: 0;"><strong>Altitude</strong></td><td style="border: solid 1px black;border-left: 0; border-bottom: 0; padding: 10px;">49,948ft (15,224.1m)</td></tr>
        <tr><td style="padding: 10px; border: solid 1px black;"><strong>Coordinates</strong></td><td style="border: solid 1px black; border-left: 0; padding: 10px;">40.67066667, -103.58933333</td></tr>
        </table>
        ]]></description>
                    <styleUrl>#57</styleUrl>
                    <Point id="55">
                        <coordinates>-103.5893333333,40.6706666667,15224.15</coordinates>
                        <altitudeMode>absolute</altitudeMode>
                    </Point>
                </Placemark>
                <Placemark id="61">
                    <name>60k</name>
                    <description><![CDATA[
        <h1>Waypoint</h1>
        <table style="width: 100%;" cellpadding=0 cellspacing=0 border=0>
        <tr><td style="padding: 10px; border: solid 1px black;border-bottom: 0;"><strong>Local Time</strong></td><td style="border: solid 1px black;border-left: 0; border-bottom: 0; padding: 10px;">07:57:11</td></tr>
        <tr><td style="padding: 10px; border: solid 1px black;border-bottom: 0;"><strong>Altitude</strong></td><td style="border: solid 1px black;border-left: 0; border-bottom: 0; padding: 10px;">60,017ft (18,293.2m)</td></tr>
        <tr><td style="padding: 10px; border: solid 1px black;"><strong>Coordinates</strong></td><td style="border: solid 1px black; border-left: 0; padding: 10px;">40.73115, -103.49971667</td></tr>
        </table>
        ]]></description>
                    <styleUrl>#62</styleUrl>
                    <Point id="60">
                        <coordinates>-103.4997166667,40.73115,18293.18</coordinates>
                        <altitudeMode>absolute</altitudeMode>
                    </Point>
                </Placemark>
                <Placemark id="66">
                    <name>70k</name>
                    <description><![CDATA[
        <h1>Waypoint</h1>
        <table style="width: 100%;" cellpadding=0 cellspacing=0 border=0>
        <tr><td style="padding: 10px; border: solid 1px black;border-bottom: 0;"><strong>Local Time</strong></td><td style="border: solid 1px black;border-left: 0; border-bottom: 0; padding: 10px;">08:08:45</td></tr>
        <tr><td style="padding: 10px; border: solid 1px black;border-bottom: 0;"><strong>Altitude</strong></td><td style="border: solid 1px black;border-left: 0; border-bottom: 0; padding: 10px;">69,977ft (21,329.0m)</td></tr>
        <tr><td style="padding: 10px; border: solid 1px black;"><strong>Coordinates</strong></td><td style="border: solid 1px black; border-left: 0; padding: 10px;">40.74366667, -103.462</td></tr>
        </table>
        ]]></description>
                    <styleUrl>#67</styleUrl>
                    <Point id="65">
                        <coordinates>-103.462,40.7436666667,21328.99</coordinates>
                        <altitudeMode>absolute</altitudeMode>
                    </Point>
                </Placemark>
                <Placemark id="71">
                    <name>80k</name>
                    <description><![CDATA[
        <h1>Waypoint</h1>
        <table style="width: 100%;" cellpadding=0 cellspacing=0 border=0>
        <tr><td style="padding: 10px; border: solid 1px black;border-bottom: 0;"><strong>Local Time</strong></td><td style="border: solid 1px black;border-left: 0; border-bottom: 0; padding: 10px;">08:19:15</td></tr>
        <tr><td style="padding: 10px; border: solid 1px black;border-bottom: 0;"><strong>Altitude</strong></td><td style="border: solid 1px black;border-left: 0; border-bottom: 0; padding: 10px;">80,012ft (24,387.7m)</td></tr>
        <tr><td style="padding: 10px; border: solid 1px black;"><strong>Coordinates</strong></td><td style="border: solid 1px black; border-left: 0; padding: 10px;">40.7395, -103.4165</td></tr>
        </table>
        ]]></description>
                    <styleUrl>#72</styleUrl>
                    <Point id="70">
                        <coordinates>-103.4165,40.7395,24387.66</coordinates>
                        <altitudeMode>absolute</altitudeMode>
                    </Point>
                </Placemark>
                <Placemark id="76">
                    <name>90k</name>
                    <description><![CDATA[
        <h1>Waypoint</h1>
        <table style="width: 100%;" cellpadding=0 cellspacing=0 border=0>
        <tr><td style="padding: 10px; border: solid 1px black;border-bottom: 0;"><strong>Local Time</strong></td><td style="border: solid 1px black;border-left: 0; border-bottom: 0; padding: 10px;">08:29:45</td></tr>
        <tr><td style="padding: 10px; border: solid 1px black;border-bottom: 0;"><strong>Altitude</strong></td><td style="border: solid 1px black;border-left: 0; border-bottom: 0; padding: 10px;">89,878ft (27,394.8m)</td></tr>
        <tr><td style="padding: 10px; border: solid 1px black;"><strong>Coordinates</strong></td><td style="border: solid 1px black; border-left: 0; padding: 10px;">40.7425, -103.33833333</td></tr>
        </table>
        ]]></description>
                    <styleUrl>#77</styleUrl>
                    <Point id="75">
                        <coordinates>-103.3383333333,40.7425,27394.81</coordinates>
                        <altitudeMode>absolute</altitudeMode>
                    </Point>
                </Placemark>
                <Placemark id="81">
                    <name>10k</name>
                    <description><![CDATA[
        <h1>Waypoint</h1>
        <table style="width: 100%;" cellpadding=0 cellspacing=0 border=0>
        <tr><td style="padding: 10px; border: solid 1px black;border-bottom: 0;"><strong>Local Time</strong></td><td style="border: solid 1px black;border-left: 0; border-bottom: 0; padding: 10px;">09:13:15</td></tr>
        <tr><td style="padding: 10px; border: solid 1px black;border-bottom: 0;"><strong>Altitude</strong></td><td style="border: solid 1px black;border-left: 0; border-bottom: 0; padding: 10px;">9,923ft (3,024.5m)</td></tr>
        <tr><td style="padding: 10px; border: solid 1px black;"><strong>Coordinates</strong></td><td style="border: solid 1px black; border-left: 0; padding: 10px;">41.09933333, -102.96933333</td></tr>
        </table>
        ]]></description>
                    <styleUrl>#82</styleUrl>
                    <Point id="80">
                        <coordinates>-102.9693333333,41.0993333333,3024.53</coordinates>
                        <altitudeMode>absolute</altitudeMode>
                    </Point>
                </Placemark>
                <Placemark id="86">
                    <name>20k</name>
                    <description><![CDATA[
        <h1>Waypoint</h1>
        <table style="width: 100%;" cellpadding=0 cellspacing=0 border=0>
        <tr><td style="padding: 10px; border: solid 1px black;border-bottom: 0;"><strong>Local Time</strong></td><td style="border: solid 1px black;border-left: 0; border-bottom: 0; padding: 10px;">09:03:15</td></tr>
        <tr><td style="padding: 10px; border: solid 1px black;border-bottom: 0;"><strong>Altitude</strong></td><td style="border: solid 1px black;border-left: 0; border-bottom: 0; padding: 10px;">20,199ft (6,156.7m)</td></tr>
        <tr><td style="padding: 10px; border: solid 1px black;"><strong>Coordinates</strong></td><td style="border: solid 1px black; border-left: 0; padding: 10px;">41.01866667, -103.01866667</td></tr>
        </table>
        ]]></description>
                    <styleUrl>#87</styleUrl>
                    <Point id="85">
                        <coordinates>-103.0186666667,41.0186666667,6156.66</coordinates>
                        <altitudeMode>absolute</altitudeMode>
                    </Point>
                </Placemark>
                <Placemark id="91">
                    <name>30k</name>
                    <description><![CDATA[
        <h1>Waypoint</h1>
        <table style="width: 100%;" cellpadding=0 cellspacing=0 border=0>
        <tr><td style="padding: 10px; border: solid 1px black;border-bottom: 0;"><strong>Local Time</strong></td><td style="border: solid 1px black;border-left: 0; border-bottom: 0; padding: 10px;">08:54:45</td></tr>
        <tr><td style="padding: 10px; border: solid 1px black;border-bottom: 0;"><strong>Altitude</strong></td><td style="border: solid 1px black;border-left: 0; border-bottom: 0; padding: 10px;">30,150ft (9,189.7m)</td></tr>
        <tr><td style="padding: 10px; border: solid 1px black;"><strong>Coordinates</strong></td><td style="border: solid 1px black; border-left: 0; padding: 10px;">40.9195, -103.092</td></tr>
        </table>
        ]]></description>
                    <styleUrl>#92</styleUrl>
                    <Point id="90">
                        <coordinates>-103.092,40.9195,9189.72</coordinates>
                        <altitudeMode>absolute</altitudeMode>
                    </Point>
                </Placemark>
                <Placemark id="96">
                    <name>40k</name>
                    <description><![CDATA[
        <h1>Waypoint</h1>
        <table style="width: 100%;" cellpadding=0 cellspacing=0 border=0>
        <tr><td style="padding: 10px; border: solid 1px black;border-bottom: 0;"><strong>Local Time</strong></td><td style="border: solid 1px black;border-left: 0; border-bottom: 0; padding: 10px;">08:47:45</td></tr>
        <tr><td style="padding: 10px; border: solid 1px black;border-bottom: 0;"><strong>Altitude</strong></td><td style="border: solid 1px black;border-left: 0; border-bottom: 0; padding: 10px;">40,309ft (12,286.2m)</td></tr>
        <tr><td style="padding: 10px; border: solid 1px black;"><strong>Coordinates</strong></td><td style="border: solid 1px black; border-left: 0; padding: 10px;">40.83483333, -103.18833333</td></tr>
        </table>
        ]]></description>
                    <styleUrl>#97</styleUrl>
                    <Point id="95">
                        <coordinates>-103.1883333333,40.8348333333,12286.18</coordinates>
                        <altitudeMode>absolute</altitudeMode>
                    </Point>
                </Placemark>
                <Placemark id="101">
                    <name>50k</name>
                    <description><![CDATA[
        <h1>Waypoint</h1>
        <table style="width: 100%;" cellpadding=0 cellspacing=0 border=0>
        <tr><td style="padding: 10px; border: solid 1px black;border-bottom: 0;"><strong>Local Time</strong></td><td style="border: solid 1px black;border-left: 0; border-bottom: 0; padding: 10px;">08:42:11</td></tr>
        <tr><td style="padding: 10px; border: solid 1px black;border-bottom: 0;"><strong>Altitude</strong></td><td style="border: solid 1px black;border-left: 0; border-bottom: 0; padding: 10px;">49,941ft (15,222.0m)</td></tr>
        <tr><td style="padding: 10px; border: solid 1px black;"><strong>Coordinates</strong></td><td style="border: solid 1px black; border-left: 0; padding: 10px;">40.7762, -103.2561</td></tr>
        </table>
        ]]></description>
                    <styleUrl>#102</styleUrl>
                    <Point id="100">
                        <coordinates>-103.2561,40.7762,15222.02</coordinates>
                        <altitudeMode>absolute</altitudeMode>
                    </Point>
                </Placemark>
                <Placemark id="106">
                    <name>60k</name>
                    <description><![CDATA[
        <h1>Waypoint</h1>
        <table style="width: 100%;" cellpadding=0 cellspacing=0 border=0>
        <tr><td style="padding: 10px; border: solid 1px black;border-bottom: 0;"><strong>Local Time</strong></td><td style="border: solid 1px black;border-left: 0; border-bottom: 0; padding: 10px;">08:37:41</td></tr>
        <tr><td style="padding: 10px; border: solid 1px black;border-bottom: 0;"><strong>Altitude</strong></td><td style="border: solid 1px black;border-left: 0; border-bottom: 0; padding: 10px;">59,610ft (18,169.1m)</td></tr>
        <tr><td style="padding: 10px; border: solid 1px black;"><strong>Coordinates</strong></td><td style="border: solid 1px black; border-left: 0; padding: 10px;">40.74736667, -103.29705</td></tr>
        </table>
        ]]></description>
                    <styleUrl>#107</styleUrl>
                    <Point id="105">
                        <coordinates>-103.29705,40.7473666667,18169.13</coordinates>
                        <altitudeMode>absolute</altitudeMode>
                    </Point>
                </Placemark>
                <Placemark id="111">
                    <name>69k</name>
                    <description><![CDATA[
        <h1>Waypoint</h1>
        <table style="width: 100%;" cellpadding=0 cellspacing=0 border=0>
        <tr><td style="padding: 10px; border: solid 1px black;border-bottom: 0;"><strong>Local Time</strong></td><td style="border: solid 1px black;border-left: 0; border-bottom: 0; padding: 10px;">08:34:41</td></tr>
        <tr><td style="padding: 10px; border: solid 1px black;border-bottom: 0;"><strong>Altitude</strong></td><td style="border: solid 1px black;border-left: 0; border-bottom: 0; padding: 10px;">69,211ft (21,095.5m)</td></tr>
        <tr><td style="padding: 10px; border: solid 1px black;"><strong>Coordinates</strong></td><td style="border: solid 1px black; border-left: 0; padding: 10px;">40.74305, -103.30648333</td></tr>
        </table>
        ]]></description>
                    <styleUrl>#112</styleUrl>
                    <Point id="110">
                        <coordinates>-103.3064833333,40.74305,21095.51</coordinates>
                        <altitudeMode>absolute</altitudeMode>
                    </Point>
                </Placemark>
                <Placemark id="116">
                    <name>80k</name>
                    <description><![CDATA[
        <h1>Waypoint</h1>
        <table style="width: 100%;" cellpadding=0 cellspacing=0 border=0>
        <tr><td style="padding: 10px; border: solid 1px black;border-bottom: 0;"><strong>Local Time</strong></td><td style="border: solid 1px black;border-left: 0; border-bottom: 0; padding: 10px;">08:32:15</td></tr>
        <tr><td style="padding: 10px; border: solid 1px black;border-bottom: 0;"><strong>Altitude</strong></td><td style="border: solid 1px black;border-left: 0; border-bottom: 0; padding: 10px;">80,031ft (24,393.5m)</td></tr>
        <tr><td style="padding: 10px; border: solid 1px black;"><strong>Coordinates</strong></td><td style="border: solid 1px black; border-left: 0; padding: 10px;">40.744, -103.31766667</td></tr>
        </table>
        ]]></description>
                    <styleUrl>#117</styleUrl>
                    <Point id="115">
                        <coordinates>-103.3176666667,40.744,24393.45</coordinates>
                        <altitudeMode>absolute</altitudeMode>
                    </Point>
                </Placemark>
            </Folder>
            <Folder id="5">
                <Style id="16">
                    <IconStyle id="17">
                        <color>ff008cff</color>
                        <colorMode>normal</colorMode>
                        <scale>1</scale>
                        <heading>0</heading>
                        <Icon id="18">
                            <href>https://maps.google.com/mapfiles/kml/shapes/placemark_circle.png</href>
                        </Icon>
                    </IconStyle>
                </Style>
                <Style id="21">
                    <IconStyle id="22">
                        <color>ff008cff</color>
                        <colorMode>normal</colorMode>
                        <scale>1</scale>
                        <heading>0</heading>
                        <Icon id="23">
                            <href>https://maps.google.com/mapfiles/kml/shapes/placemark_circle.png</href>
                        </Icon>
                    </IconStyle>
                </Style>
                <Style id="26">
                    <IconStyle id="27">
                        <color>ff00ffff</color>
                        <colorMode>normal</colorMode>
                        <scale>1</scale>
                        <heading>0</heading>
                        <Icon id="28">
                            <href>https://maps.google.com/mapfiles/kml/shapes/placemark_circle.png</href>
                        </Icon>
                    </IconStyle>
                </Style>
                <Style id="31">
                    <IconStyle id="32">
                        <color>ff006400</color>
                        <colorMode>normal</colorMode>
                        <scale>1</scale>
                        <heading>0</heading>
                        <Icon id="33">
                            <href>https://maps.google.com/mapfiles/kml/shapes/placemark_circle.png</href>
                        </Icon>
                    </IconStyle>
                    <LabelStyle id="34">
                        <color>ff006400</color>
                        <colorMode>normal</colorMode>
                        <scale>1</scale>
                    </LabelStyle>
                </Style>
                <name>Points of Interest</name>
                <Placemark id="15">
                    <name>Launch</name>
                    <description><![CDATA[
    <h1>Launch</h1>
    <table style="width: 100%;" cellpadding=0 cellspacing=0 border=0>
    <tr><td style="padding: 10px; border: solid 1px black;border-bottom: 0;"><strong>Local Time</strong></td><td style="border: solid 1px black;border-bottom: 0; border-left: 0; padding: 10px;">07:01:15</td></tr>
    <tr><td style="padding: 10px; border: solid 1px black;border-bottom: 0;"><strong>Altitude</strong></td><td style="border: solid 1px black;border-left: 0; border-bottom: 0; padding: 10px;">4,556ft (1,388.7m)</td></tr>
    <tr><td style="padding: 10px; border: solid 1px black;"><strong>Coordinates</strong></td><td style="border: solid 1px black; border-left: 0; padding: 10px;">40.22583333, -104.077</td></tr>
    </table>
    ]]></description>
                    <styleUrl>#16</styleUrl>
                    <Point id="14">
                        <coordinates>-104.077,40.2258333333,1388.67</coordinates>
                        <altitudeMode>absolute</altitudeMode>
                    </Point>
                </Placemark>
                <Placemark id="20">
                    <name>Landing</name>
                    <description><![CDATA[
    <h1>Landing</h1>
    <table style="width: 100%;" cellpadding=0 cellspacing=0 border=0>
    <tr><td style="padding: 10px; border: solid 1px black;border-bottom: 0;"><strong>Local Time</strong></td><td style="border: solid 1px black;border-left: 0; border-bottom: 0; padding: 10px;">09:21:11</td></tr>
    <tr><td style="padding: 10px; border: solid 1px black;border-bottom: 0;"><strong>Altitude</strong></td><td style="border: solid 1px black;border-bottom: 0; border-left: 0; padding: 10px;">4,144ft (1,263.1m)</td></tr>
    <tr><td style="padding: 10px; border: solid 1px black;"><strong>Coordinates</strong></td><td style="border: solid 1px black; border-left: 0; padding: 10px;">41.1265, -102.94276667</td></tr>
    </table>
    ]]></description>
                    <styleUrl>#21</styleUrl>
                    <Point id="19">
                        <coordinates>-102.9427666667,41.1265,1263.09</coordinates>
                        <altitudeMode>absolute</altitudeMode>
                    </Point>
                </Placemark>
                <Placemark id="25">
                    <name>Burst 90,386ft</name>
                    <description><![CDATA[
    <h1>Burst: 90,386ft</h1>
    <table style="width: 100%;" cellpadding=0 cellspacing=0 border=0>
    <tr><td style="padding: 10px; border: solid 1px black;border-bottom: 0;"><strong>Local Time</strong></td><td style="border: solid 1px black;border-left: 0; border-bottom: 0; padding: 10px;">08:30:15</td></tr>
    <tr><td style="padding: 10px; border: solid 1px black;border-bottom: 0;"><strong>Altitude</strong></td><td style="border: solid 1px black;border-left: 0; border-bottom: 0; padding: 10px;">90,386ft (27,549.6m)</td></tr>
    <tr><td style="padding: 10px; border: solid 1px black;"><strong>Coordinates</strong></td><td style="border: solid 1px black; border-left: 0; padding: 10px;">40.74366667, -103.3325</td></tr>
    </table>
    ]]></description>
                    <styleUrl>#26</styleUrl>
                    <Point id="24">
                        <coordinates>-103.3325,40.7436666667,27549.65</coordinates>
                        <altitudeMode>absolute</altitudeMode>
                    </Point>
                </Placemark>
                <Placemark id="30">
                    <name>36k, Turbulent-to-Laminar</name>
                    <description><![CDATA[
        <h1>Airflow Transitioning from Turbulent-to-Laminar</h1>
        <table style="width: 100%;" cellpadding=0 cellspacing=0 border=0>
        <tr><td style="padding: 10px; border: solid 1px black;border-bottom: 0;"><strong>Local Time</strong></td><td style="border: solid 1px black;border-left: 0; border-bottom: 0; padding: 10px;">07:29:45</td></tr>
        <tr><td style="padding: 10px; border: solid 1px black;border-bottom: 0;"><strong>Altitude</strong></td><td style="border: solid 1px black;border-left: 0; border-bottom: 0; padding: 10px;">35,786ft (10,907.6m)</td></tr>
        <tr><td style="padding: 10px; border: solid 1px black;"><strong>Coordinates</strong></td><td style="border: solid 1px black; border-left: 0; padding: 10px;">40.47183333, -103.854</td></tr>
        </table>
        ]]></description>
                    <styleUrl>#31</styleUrl>
                    <Point id="29">
                        <coordinates>-103.854,40.4718333333,10907.57</coordinates>
                        <altitudeMode>absolute</altitudeMode>
                    </Point>
                </Placemark>
            </Folder>
        </Document>
    </Document>
</kml>
