<?xml version="1.0" encoding="UTF-8"?>
<kml xmlns="http://www.opengis.net/kml/2.2">
  <Document>
    <Document>
      <name>EOSS-400</name>
      <description><![CDATA[
    <h1>EOSS-400</h1>
    <table style="width: 100%;" cellpadding=0 cellspacing=0 border=0>
    <tr><td style="border: solid 1px black;border-bottom: 0; padding: 10px;"><strong>Launch Date/Time (UTC)</strong></td><td style=" padding: 10px;border: solid 1px black;border-bottom: 0; border-left: 0;">2026-05-02 07:44:09</td></tr>
    <tr><td style="border: solid 1px black;border-bottom: 0; padding: 10px;"><strong>Flight Duration</strong></td><td style=" padding: 10px;border: solid 1px black;border-bottom: 0; border-left: 0; ">2hrs 13mins 0secs</td></tr>
    <tr><td style="border: solid 1px black;border-bottom: 0; padding: 10px;"><strong>Down Range Distance</strong></td><td style=" padding: 10px;border: solid 1px black;border-bottom: 0; border-left: 0; ">40.5mi (65.1km)</td></tr>
    <tr><td style="border: solid 1px black; padding: 10px;"><strong>Approx. Burst Altitude</strong></td><td style=" padding: 10px;border: solid 1px black; border-left: 0; ">107044ft (32627.0m)</td></tr>
    </table>
    ]]></description>
      <Folder>
        <name>Paths</name>
        <Placemark>
          <name>EOSS-400 Ascent</name>
          <Style>
            <LineStyle>
              <color>ff0000ff</color>
              <width>3</width>
            </LineStyle>
          </Style>
          <LineString>
            <extrude>0</extrude>
            <altitudeMode>absolute</altitudeMode>
            <coordinates>-104.04216666666666,39.608,1586.79 -104.04166666666667,39.60766666666667,1719.07 -104.041,39.60783333333333,1772.41 -104.04008333333334,39.607533333333336,1840.38 -104.0395,39.607166666666664,1933.04 -104.039,39.606833333333334,1985.16 -104.03856666666667,39.606516666666664,2045.21 -104.038,39.60633333333333,2143.05 -104.03716666666666,39.606,2190.29 -104.03663333333334,39.60593333333334,2249.42 -104.03616666666667,39.605666666666664,2344.22 -104.03566666666667,39.6055,2391.77 -104.03496666666668,39.6053,2458.21 -104.03466666666667,39.605,2563.37 -104.03416666666666,39.60466666666667,2605.74 -104.03371666666666,39.604400000000005,2668.22 -104.03333333333333,39.604166666666664,2763.01 -104.03283333333333,39.60366666666667,2817.88 -104.03253333333333,39.6033,2880.36 -104.032,39.602833333333336,2975.15 -104.03133333333334,39.6025,3029.41 -104.03088333333334,39.602016666666664,3095.24 -104.0305,39.6015,3192.48 -104.03,39.601,3246.12 -104.02966666666667,39.600449999999995,3308.3 -104.02916666666667,39.6,3408.88 -104.029,39.599333333333334,3462.22 -104.02875,39.59878333333333,3523.49 -104.0285,39.598333333333336,3623.46 -104.02816666666666,39.597833333333334,3678.94 -104.02821666666667,39.59735,3739.59 -104.02833333333334,39.597,3836.21 -104.02816666666666,39.5965,3894.73 -104.02845,39.5959,3959.35 -104.02866666666667,39.595333333333336,4059.33 -104.0285,39.59466666666667,4118.15 -104.0288,39.59396666666667,4183.38 -104.029,39.59316666666667,4286.71 -104.029,39.5925,4344.01 -104.02955,39.59171666666667,4412.59 -104.03016666666667,39.590833333333336,4515.31 -104.03066666666666,39.59,4575.66 -104.03123333333333,39.58928333333333,4644.54 -104.03183333333334,39.5885,4748.78 -104.03216666666667,39.5875,4810.35 -104.0327,39.58671666666667,4878.63 -104.033,39.58583333333333,4982.87 -104.03316666666667,39.585,5045.05 -104.03356666666667,39.58411666666667,5115.76 -104.03366666666666,39.58316666666666,5227.62 -104.03383333333333,39.58266666666667,5285.23 -104.03403333333334,39.582116666666664,5353.81 -104.03416666666666,39.58133333333333,5458.05 -104.03433333333334,39.580666666666666,5518.4 -104.0345,39.579966666666664,5588.81 -104.03466666666667,39.5795,5695.19 -104.03466666666667,39.579,5760.11 -104.03503333333333,39.57853333333333,5828.69 -104.03516666666667,39.578,5941.77 -104.03533333333333,39.5775,6002.43 -104.03555,39.57676666666667,6075.88 -104.03566666666667,39.576,6177.69 -104.0355,39.57533333333333,6242.61 -104.03558333333334,39.5747,6318.81 -104.03583333333333,39.57383333333333,6427.62 -104.036,39.573,6494.07 -104.0364,39.57228333333333,6565.7 -104.03666666666666,39.571333333333335,6673.9 -104.03683333333333,39.5705,6745.22 -104.03703333333334,39.56966666666667,6815.94 -104.0375,39.568666666666665,6925.06 -104.03766666666667,39.568,6989.98 -104.03833333333333,39.56698333333333,7064.96 -104.0385,39.566,7175.3 -104.0385,39.56516666666667,7241.13 -104.03916666666667,39.56395,7317.03 -104.03966666666666,39.563,7421.88 -104.03966666666666,39.56183333333333,7481.93 -104.04,39.559666666666665,7661.15 -104.03983333333333,39.5585,7722.11 -104.04033333333334,39.55616666666667,7901.64 -104.0405,39.555,7967.78 -104.04078333333334,39.55368333333333,8039.1 -104.04083333333334,39.55233333333334,8148.52 -104.0405,39.551,8212.23 -104.0404,39.54966666666667,8279.89 -104.0405,39.54816666666667,8387.49 -104.04016666666666,39.54683333333333,8452.1 -104.04010000000001,39.5454,8523.12 -104.04,39.544,8629.19 -104.04,39.54266666666667,8688.93 -104.03985,39.5409,8755.99 -104.03966666666666,39.53966666666667,8855.05 -104.03966666666666,39.53816666666667,8913.88 -104.0399,39.536516666666664,8980.02 -104.03933333333333,39.535,9079.08 -104.03916666666667,39.53366666666667,9135.16 -104.03833333333333,39.530833333333334,9307.98 -104.03833333333333,39.5295,9367.42 -104.03801666666666,39.52773333333334,9433.26 -104.038,39.52633333333333,9531.71 -104.03783333333334,39.52466666666667,9584.13 -104.03756666666666,39.523050000000005,9656.06 -104.03733333333334,39.5215,9755.12 -104.03716666666666,39.51983333333333,9806.64 -104.03746666666667,39.518233333333335,9871.25 -104.03733333333334,39.51683333333333,9980.07 -104.03733333333334,39.5155,10026.7 -104.03751666666666,39.51403333333334,10098.33 -104.03733333333334,39.5125,10197.69 -104.03666666666666,39.51116666666667,10247.68 -104.03633333333333,39.510016666666665,10310.16 -104.03633333333333,39.50866666666667,10404.04 -104.03566666666667,39.507333333333335,10462.26 -104.03555,39.506,10530.23 -104.03483333333334,39.50483333333333,10630.2 -104.0345,39.5035,10692.38 -104.03333333333333,39.50083333333333,10852.71 -104.03266666666667,39.499833333333335,10906.66 -104.03213333333333,39.49838333333334,10975.24 -104.0315,39.49733333333333,11075.21 -104.031,39.496,11132.82 -104.03003333333334,39.49485,11195.3 -104.02933333333333,39.4935,11318.14 -104.02816666666666,39.49216666666667,11352.58 -104.02735,39.490750000000006,11404.4 -104.02716666666667,39.4895,11501.63 -104.02633333333333,39.4885,11562.89 -104.024,39.484833333333334,11745.47 -104.02275,39.483850000000004,11796.37 -104.02183333333333,39.48316666666667,11904.27 -104.0205,39.482166666666664,11947.86 -104.01766666666667,39.47983333333333,12114.89 -104.0165,39.4785,12154.51 -104.01605,39.47721666666667,12241.68 -104.01533333333333,39.4765,12326.11 -104.01416666666667,39.475833333333334,12360.86 -104.01285,39.475100000000005,12437.67 -104.01083333333334,39.474333333333334,12514.48 -104.00916666666667,39.473333333333336,12546.79 -104.00748333333334,39.47255,12609.58 -104.0065,39.4715,12686.69 -104.00533333333334,39.4705,12724.79 -104.00365000000001,39.46998333333333,12790.63 -104.00233333333334,39.46933333333333,12852.2 -104.00083333333333,39.468666666666664,12877.5 -103.99905,39.467616666666665,12913.77 -103.99766666666666,39.46666666666667,12985.39 -103.99666666666667,39.465833333333336,13011.91 -103.995,39.46508333333334,13043.61 -103.99383333333333,39.464666666666666,13105.18 -103.9925,39.464,13132 -103.99131666666668,39.46365,13166.75 -103.98966666666666,39.46333333333333,13233.2 -103.98833333333333,39.462833333333336,13266.12 -103.98611666666667,39.46233333333333,13333.78 -103.98366666666666,39.462,13407.85 -103.9815,39.461666666666666,13432.84 -103.97901666666667,39.46105,13466.67 -103.9765,39.4605,13533.42 -103.9745,39.46,13566.95 -103.97195,39.45961666666666,13602.61 -103.96983333333333,39.459,13674.55 -103.96816666666666,39.4585,13701.67 -103.96383333333333,39.45733333333333,13800.43 -103.96183333333333,39.45666666666666,13832.13 -103.95733333333334,39.45516666666666,13944.6 -103.9555,39.45433333333333,13975.38 -103.95183333333334,39.4525,14079.32 -103.95016666666666,39.45166666666667,14109.8 -103.9465,39.4505,14214.96 -103.94483333333334,39.44983333333333,14246.66 -103.94166666666666,39.44866666666667,14348.46 -103.94,39.448166666666665,14374.98 -103.93666666666667,39.4475,14475.87 -103.935,39.44716666666667,14503.91 -103.93116666666667,39.446333333333335,14594.74 -103.92916666666666,39.446,14619.12 -103.92516666666667,39.44533333333333,14715.44 -103.9235,39.445166666666665,14745.31 -103.92,39.4445,14842.85 -103.91833333333334,39.444,14866.01 -103.9163,39.44371666666667,14899.84 -103.9145,39.443666666666665,14975.13 -103.91266666666667,39.443333333333335,15005.91 -103.90816666666667,39.4435,15108.94 -103.906,39.44316666666667,15139.72 -103.901,39.44266666666667,15239.7 -103.899,39.442,15285.11 -103.89516666666667,39.44083333333333,15385.08 -103.89366666666666,39.44016666666667,15415.56 -103.89,39.439,15542.97 -103.88816666666666,39.4385,15594.48 -103.8845,39.43683333333333,15745.36 -103.88283333333334,39.436166666666665,15800.83 -103.88113333333334,39.43528333333333,15841.98 -103.87966666666667,39.4345,15914.83 -103.87833333333333,39.434,15963.9 -103.87533333333333,39.433,16142.21 -103.87416666666667,39.43266666666667,16174.82 -103.87116666666667,39.43216666666667,16281.81 -103.86966666666666,39.43183333333333,16310.46 -103.86616666666667,39.43116666666667,16414.09 -103.8645,39.43066666666667,16443.35 -103.86116666666666,39.429833333333335,16539.97 -103.85966666666667,39.429,16562.83 -103.85633333333334,39.42816666666667,16673.17 -103.85433333333333,39.42766666666667,16703.34 -103.8505,39.427,16805.15 -103.84883333333333,39.4265,16833.49 -103.84533333333333,39.4255,16941.09 -103.844,39.425,16971.57 -103.84033333333333,39.424,17084.04 -103.83866666666667,39.42333333333333,17108.12 -103.8355,39.42216666666667,17220.29 -103.83433333333333,39.42183333333333,17258.39 -103.83183333333334,39.421,17391.28 -103.83033333333333,39.42066666666667,17426.94 -103.82716666666667,39.42033333333333,17544.29 -103.8255,39.41983333333334,17573.55 -103.82216666666666,39.4195,17686.93 -103.8205,39.41883333333333,17721.99 -103.817,39.418166666666664,17835.37 -103.8155,39.4175,17868.29 -103.81351666666667,39.41721666666667,17909.13 -103.81166666666667,39.41716666666667,17978.32 -103.81016666666666,39.416666666666664,18018.56 -103.80716666666666,39.41566666666667,18143.52 -103.80566666666667,39.415,18173.09 -103.80431666666667,39.41426666666667,18215.15 -103.803,39.413666666666664,18287.7 -103.80166666666666,39.41316666666667,18321.22 -103.8002,39.413016666666664,18360.24 -103.79866666666666,39.41266666666667,18431.26 -103.79733333333333,39.412333333333336,18462.35 -103.79601666666667,39.412,18500.45 -103.79466666666667,39.41166666666667,18577.26 -103.79333333333334,39.411,18607.43 -103.79083333333334,39.40983333333333,18724.78 -103.78851666666667,39.408750000000005,18790.31 -103.78766666666667,39.40833333333333,18868.34 -103.787,39.408,18899.43 -103.78516666666667,39.4075,19020.13 -103.78433333333334,39.40716666666667,19046.65 -103.78326666666668,39.406866666666666,19085.36 -103.7825,39.406666666666666,19148.15 -103.78133333333334,39.4065,19188.38 -103.78020000000001,39.406666666666666,19235.32 -103.779,39.406666666666666,19305.73 -103.77766666666666,39.406666666666666,19351.14 -103.77648333333333,39.40665,19401.43 -103.7755,39.4065,19473.37 -103.77416666666667,39.406333333333336,19507.5 -103.7726,39.40636666666667,19544.39 -103.77133333333333,39.406666666666666,19617.84 -103.77016666666667,39.406333333333336,19648.32 -103.76846666666667,39.406299999999995,19690.38 -103.76716666666667,39.406333333333336,19762.01 -103.76566666666666,39.4065,19793.1 -103.7642,39.40676666666667,19848.58 -103.76266666666666,39.40683333333333,19926.3 -103.761,39.407,19963.18 -103.75783333333334,39.408,20072.6 -103.75666666666666,39.408,20114.67 -103.75491666666667,39.40841666666667,20159.47 -103.7535,39.4085,20235.37 -103.75216666666667,39.408,20271.03 -103.74983333333333,39.4075,20391.73 -103.74883333333334,39.407,20429.22 -103.74805,39.40668333333333,20473.42 -103.74733333333333,39.4065,20550.84 -103.7445,39.4055,20715.12 -103.74366666666667,39.405166666666666,20749.56 -103.7427,39.404666666666664,20803.51 -103.74183333333333,39.4045,20880.32 -103.741,39.40416666666667,20915.99 -103.73985,39.40403333333334,20966.58 -103.739,39.404,21044 -103.73816666666667,39.40383333333333,21082.71 -103.73666666666666,39.403166666666664,21207.07 -103.73583333333333,39.403,21251.57 -103.7335,39.402833333333334,21369.22 -103.73233333333333,39.402833333333334,21409.15 -103.7305,39.402833333333334,21531.07 -103.7295,39.40266666666667,21566.73 -103.72905,39.403,21601.79 -103.72866666666667,39.402833333333334,21682.86 -103.72776666666667,39.4024,21766.68 -103.72716666666666,39.402166666666666,21840.44 -103.72683333333333,39.402,21879.76 -103.72616666666667,39.402,22009.61 -103.726,39.402,22037.65 -103.72555,39.4023,22091.9 -103.725,39.40233333333333,22162.31 -103.72433333333333,39.40233333333333,22202.24 -103.72371666666668,39.40248333333333,22250.7 -103.72366666666667,39.40266666666667,22328.12 -103.72316666666667,39.402833333333334,22375.37 -103.72166666666666,39.40383333333333,22515.88 -103.72083333333333,39.404,22556.42 -103.719,39.404666666666664,22678.95 -103.7185,39.405,22724.06 -103.718,39.406166666666664,22853.6 -103.71766666666667,39.406666666666666,22891.39 -103.71706666666667,39.40761666666666,22945.95 -103.71633333333334,39.408166666666666,23020.93 -103.71566666666666,39.40866666666667,23049.59 -103.71488333333333,39.409533333333336,23104.75 -103.71416666666667,39.410333333333334,23180.04 -103.71316666666667,39.411,23221.8 -103.71215000000001,39.41155,23273 -103.71116666666667,39.412,23352.56 -103.71016666666667,39.412,23384.56 -103.70880000000001,39.41211666666666,23440.03 -103.708,39.412166666666664,23519.59 -103.70716666666667,39.412,23556.47 -103.70655000000001,39.412,23607.06 -103.706,39.411833333333334,23686.62 -103.70566666666667,39.411833333333334,23726.85 -103.70535,39.41211666666666,23782.02 -103.70516666666667,39.412166666666664,23865.54 -103.705,39.4125,23915.22 -103.70488333333334,39.4127,23966.12 -103.70466666666667,39.41316666666667,24048.72 -103.7045,39.4135,24092 -103.70413333333333,39.41416666666667,24148.08 -103.7035,39.414833333333334,24222.46 -103.70283333333333,39.4155,24262.38 -103.70206666666667,39.41598333333333,24305.97 -103.701,39.4165,24386.13 -103.70016666666666,39.416666666666664,24430.94 -103.69833333333334,39.41716666666667,24560.17 -103.6975,39.41716666666667,24603.46 -103.69626666666667,39.41716666666667,24651 -103.69533333333334,39.417,24737.87 -103.69466666666666,39.41683333333334,24784.2 -103.69366666666667,39.4165,24944.22 -103.69333333333333,39.416333333333334,24989.64 -103.69308333333333,39.416,25035.05 -103.69316666666667,39.416,25123.44 -103.69283333333334,39.416,25173.74 -103.69183333333334,39.4165,25306.93 -103.6915,39.416666666666664,25348.69 -103.69066666666667,39.41716666666667,25479.45 -103.69016666666667,39.41716666666667,25522.12 -103.6895,39.417833333333334,25644.35 -103.689,39.418166666666664,25687.02 -103.6885,39.419,25812.29 -103.688,39.41916666666667,25858.32 -103.68731666666667,39.4196,25906.17 -103.68683333333334,39.42016666666667,25984.81 -103.68633333333334,39.4205,26027.48 -103.68583333333333,39.42216666666667,26162.51 -103.6841,39.42335,26250.29 -103.68333333333334,39.424,26331.67 -103.68216666666666,39.42433333333334,26368.55 -103.68,39.425333333333334,26495.96 -103.679,39.425666666666665,26534.67 -103.67758333333333,39.42633333333333,26584.35 -103.67633333333333,39.427166666666665,26666.04 -103.67483333333334,39.42766666666667,26715.42 -103.67313333333334,39.42823333333334,26766.32 -103.67166666666667,39.42883333333333,26848.92 -103.67033333333333,39.42883333333333,26894.94 -103.66913333333333,39.429383333333334,26947.37 -103.66766666666666,39.42966666666667,27029.05 -103.66666666666667,39.429833333333335,27075.38 -103.66416666666667,39.43083333333333,27207.36 -103.66333333333333,39.431,27247.6 -103.66255,39.431466666666665,27297.28 -103.66183333333333,39.43183333333333,27374.09 -103.661,39.43183333333333,27416.15 -103.66011666666667,39.432050000000004,27463.39 -103.65933333333334,39.43266666666667,27549.96 -103.65816666666667,39.433,27590.5 -103.65698333333334,39.43396666666666,27639.57 -103.65583333333333,39.4345,27717.29 -103.65516666666667,39.434666666666665,27758.75 -103.65425,39.434866666666665,27805.38 -103.65366666666667,39.43533333333333,27887.98 -103.65333333333334,39.43533333333333,27926.69 -103.65306666666667,39.43536666666667,27966.62 -103.65316666666666,39.4355,28041.9 -103.65316666666666,39.43566666666667,28076.96 -103.65283333333333,39.43683333333333,28200.1 -103.65266666666666,39.43716666666667,28239.42 -103.652,39.438833333333335,28362.86 -103.65133333333333,39.43933333333333,28403.4 -103.65005000000001,39.439883333333334,28453.69 -103.64933333333333,39.4405,28521.66 -103.648,39.44083333333333,28558.85 -103.6455,39.442,28678.94 -103.64466666666667,39.44233333333333,28718.26 -103.64266666666667,39.443333333333335,28841.7 -103.64166666666667,39.44383333333333,28882.24 -103.6413,39.444583333333334,28934.66 -103.64083333333333,39.445166666666665,29006.6 -103.64066666666666,39.44583333333333,29049.57 -103.64011666666667,39.4469,29100.78 -103.6395,39.4475,29169.06 -103.63866666666667,39.448166666666665,29210.81 -103.63755,39.448949999999996,29263.54 -103.63683333333333,39.449666666666666,29330.9 -103.63583333333334,39.45,29368.7 -103.633,39.451166666666666,29490.62 -103.63133333333333,39.45166666666667,29529.33 -103.62956666666666,39.45211666666666,29578.71 -103.62833333333333,39.452666666666666,29648.2 -103.62733333333334,39.45283333333333,29688.74 -103.62621666666666,39.453383333333335,29741.77 -103.6255,39.45366666666666,29812.18 -103.62466666666667,39.454,29852.11 -103.62381666666667,39.45438333333333,29904.84 -103.62283333333333,39.45466666666667,29975.56 -103.622,39.45483333333333,30012.74 -103.62060000000001,39.455666666666666,30061.81 -103.61966666666666,39.45616666666667,30127.96 -103.61866666666667,39.4565,30162.09 -103.61758333333334,39.457233333333335,30215.74 -103.61633333333333,39.45766666666667,30286.15 -103.615,39.45816666666666,30324.86 -103.61356666666667,39.459133333333334,30376.67 -103.61216666666667,39.4595,30449.22 -103.611,39.459666666666664,30486.1 -103.60938333333334,39.46008333333334,30534.86 -103.60816666666666,39.4605,30601.31 -103.6065,39.46066666666667,30637.58 -103.60488333333333,39.46123333333333,30686.96 -103.60366666666667,39.461333333333336,30753.1 -103.6025,39.461666666666666,30792.72 -103.60128333333334,39.46201666666667,30841.8 -103.60033333333334,39.46233333333333,30908.85 -103.59933333333333,39.462666666666664,30946.65 -103.59808333333334,39.463366666666666,30996.94 -103.59733333333334,39.46366666666667,31064.3 -103.59616666666666,39.46366666666667,31097.52 -103.59458333333333,39.46405,31149.04 -103.593,39.464166666666664,31220.05 -103.59133333333334,39.464166666666664,31256.94 -103.58976666666668,39.46436666666667,31300.83 -103.5885,39.4645,31368.8 -103.58733333333333,39.4645,31403.54 -103.58603333333333,39.4649,31450.79 -103.58483333333334,39.465,31521.2 -103.584,39.46516666666667,31551.98 -103.58281666666667,39.4655,31598.01 -103.582,39.465666666666664,31665.98 -103.58116666666666,39.465666666666664,31695.85 -103.57990000000001,39.46606666666667,31738.82 -103.579,39.46633333333333,31803.44 -103.57783333333333,39.4665,31833.62 -103.57628333333334,39.466816666666666,31878.12 -103.57516666666666,39.467,31942.13 -103.574,39.467166666666664,31972 -103.57263333333334,39.46738333333334,32014.97 -103.57166666666667,39.467666666666666,32079.59 -103.5705,39.46783333333333,32112.81 -103.56901666666667,39.46796666666666,32153.05 -103.568,39.46816666666667,32205.17 -103.56666666666666,39.468333333333334,32247.54 -103.56553333333333,39.46886666666667,32289.9 -103.56466666666667,39.469166666666666,32351.17 -103.5635,39.4695,32385.91 -103.5624,39.47025,32437.12 -103.56166666666667,39.4705,32490.77 -103.56066666666666,39.470666666666666,32522.46 -103.55901666666666,39.470866666666666,32572.15 -103.558,39.47083333333333,32627.01</coordinates>
          </LineString>
        </Placemark>
        <Placemark>
          <name>EOSS-400 Descent</name>
          <Style>
            <LineStyle>
              <color>ffff0000</color>
              <width>3</width>
            </LineStyle>
          </Style>
          <LineString>
            <extrude>0</extrude>
            <altitudeMode>absolute</altitudeMode>
            <coordinates>-103.558,39.47083333333333,32627.01 -103.5548,39.471016666666664,32523.07 -103.5545,39.47116666666667,32201.51 -103.55316666666667,39.471833333333336,31759.25 -103.5517,39.471799999999995,31068.87 -103.55116666666666,39.472,30755.23 -103.54905000000001,39.47411666666666,29646.68 -103.5485,39.474833333333336,29473.55 -103.5465,39.475833333333334,29129.13 -103.54480000000001,39.47788333333334,28548.48 -103.54466666666667,39.47833333333333,28381.45 -103.54433333333333,39.47933333333334,28060.19 -103.54328333333333,39.47846666666666,27541.42 -103.54333333333334,39.4785,27387.19 -103.54266666666666,39.477666666666664,27089.1 -103.54,39.47796666666667,26581.3 -103.53983333333333,39.47816666666667,26439.27 -103.53883333333333,39.477666666666664,26167.99 -103.53645,39.47941666666667,25732.13 -103.53683333333333,39.47966666666667,25598.93 -103.53616666666667,39.47966666666667,25340.77 -103.53573333333334,39.48051666666667,24893.02 -103.53583333333333,39.480333333333334,24783.9 -103.53616666666667,39.480333333333334,24557.74 -103.53523333333334,39.48101666666667,24145.04 -103.53483333333334,39.48133333333333,24029.21 -103.534,39.481833333333334,23791.47 -103.534,39.48133333333333,23415.04 -103.53333333333333,39.4815,23308.67 -103.5325,39.482166666666664,23082.5 -103.53176666666667,39.48218333333333,22709.73 -103.53166666666667,39.482,22644.51 -103.53133333333334,39.481833333333334,22442.12 -103.53171666666667,39.482400000000005,22074.84 -103.53183333333334,39.48233333333334,22011.44 -103.5315,39.48283333333333,21819.41 -103.53085,39.48241666666667,21462.8 -103.53033333333333,39.4825,21386.6 -103.52916666666667,39.4825,21193.96 -103.52805000000001,39.48233333333334,20837.65 -103.52766666666666,39.482166666666664,20776.69 -103.527,39.481833333333334,20591.98 -103.52621666666667,39.481433333333335,20259.45 -103.52566666666667,39.48116666666667,20198.18 -103.5245,39.48133333333333,20026.27 -103.5216,39.481833333333334,19732.45 -103.52083333333333,39.48166666666667,19689.17 -103.52,39.4815,19531.58 -103.51728333333334,39.48125,19231.36 -103.51716666666667,39.48116666666667,19184.11 -103.51583333333333,39.48116666666667,19029.27 -103.51455,39.480983333333334,18742.46 -103.51466666666667,39.481,18699.48 -103.51383333333334,39.481,18564.15 -103.51131666666667,39.4797,18312.38 -103.51066666666667,39.47966666666667,18263.01 -103.50933333333333,39.479166666666664,18117.62 -103.50693333333334,39.478649999999995,17861.28 -103.50616666666667,39.4785,17820.74 -103.5045,39.4775,17687.24 -103.50118333333333,39.477066666666666,17450.1 -103.501,39.477,17413.53 -103.49916666666667,39.477333333333334,17287.04 -103.49646666666668,39.47671666666667,17057.22 -103.496,39.476333333333336,17024.6 -103.49466666666666,39.476,16899.03 -103.49096666666667,39.474833333333336,16683.23 -103.4905,39.475,16652.75 -103.48833333333333,39.474833333333336,16537.84 -103.48531666666668,39.47331666666666,16324.17 -103.485,39.4735,16296.44 -103.483,39.4735,16184.88 -103.48033333333333,39.472183333333334,15980.97 -103.4795,39.472166666666666,15953.23 -103.47716666666666,39.471333333333334,15843.81 -103.47431666666667,39.470483333333334,15642.95 -103.47366666666667,39.470166666666664,15618.26 -103.47216666666667,39.469,15508.83 -103.4699,39.46798333333333,15318.03 -103.46933333333334,39.468,15297.3 -103.46666666666667,39.468,15189.4 -103.4625,39.46711666666666,15003.78 -103.46216666666666,39.467166666666664,14981.83 -103.46016666666667,39.467,14876.98 -103.45748333333334,39.46671666666667,14693.8 -103.45666666666666,39.4665,14671.85 -103.45483333333334,39.4655,14571.88 -103.45225,39.46475,14386.86 -103.452,39.464666666666666,14360.96 -103.45083333333334,39.4645,14263.42 -103.44753333333334,39.46315,14082.67 -103.44733333333333,39.462833333333336,14062.86 -103.44633333333333,39.46233333333333,13967.76 -103.44255,39.4612,13796.77 -103.44183333333334,39.46083333333333,13778.18 -103.44016666666667,39.459833333333336,13683.08 -103.43598333333334,39.458483333333334,13497.76 -103.4355,39.458333333333336,13482.52 -103.43383333333334,39.45766666666667,13389.56 -103.4316,39.45718333333333,13224.66 -103.42933333333333,39.457166666666666,13119.51 -103.42625,39.45558333333334,12960.71 -103.426,39.4555,12944.55 -103.42466666666667,39.455,12858.6 -103.42125,39.454166666666666,12705.59 -103.41933333333333,39.4525,12605.61 -103.41766666666666,39.4515,12455.65 -103.4155,39.450833333333335,12356.9 -103.4147,39.449400000000004,12208.46 -103.41383333333333,39.4485,12112.45 -103.41123333333334,39.44621666666667,11962.49 -103.411,39.44583333333333,11950.29 -103.41016666666667,39.445166666666665,11867.39 -103.40745,39.44413333333333,11721.39 -103.407,39.44383333333333,11708.59 -103.4055,39.4425,11626.9 -103.40465,39.44035,11481.51 -103.4045,39.44016666666667,11468.1 -103.40333333333334,39.4395,11387.94 -103.40116666666667,39.43735,11243.46 -103.4005,39.43533333333333,11153.55 -103.39888333333333,39.4332,11014.25 -103.3985,39.43266666666667,11004.5 -103.39733333333334,39.431,10930.43 -103.39656666666667,39.4284,10795.41 -103.39633333333333,39.42816666666667,10785.35 -103.39516666666667,39.426833333333335,10712.2 -103.39425,39.423966666666665,10579.3 -103.39416666666666,39.4235,10569.85 -103.39383333333333,39.4225,10497.92 -103.39238333333334,39.42,10367.16 -103.39216666666667,39.4195,10359.54 -103.39166666666667,39.41766666666667,10287.3 -103.39175,39.4149,10160.2 -103.39166666666667,39.4145,10150.75 -103.39133333333334,39.413333333333334,10080.04 -103.39006666666667,39.41076666666667,9950.2 -103.38966666666667,39.4085,9871.56 -103.38955,39.40613333333333,9742.32 -103.38866666666667,39.404,9663.99 -103.38861666666666,39.40101666666667,9535.06 -103.3885,39.3995,9455.2 -103.38778333333333,39.3967,9328.1 -103.38783333333333,39.396166666666666,9320.17 -103.388,39.39483333333333,9249.77 -103.3874,39.392466666666664,9124.19 -103.38733333333333,39.39183333333333,9116.26 -103.38716666666667,39.390166666666666,9046.16 -103.38726666666668,39.3877,8921.19 -103.3865,39.38583333333333,8842.25 -103.38681666666668,39.3832,8721.24 -103.38683333333333,39.383,8713.32 -103.3865,39.382,8643.82 -103.38616666666667,39.379149999999996,8520.99 -103.38633333333334,39.37866666666667,8513.06 -103.3865,39.3775,8442.66 -103.38616666666667,39.375750000000004,8318.91 -103.386,39.37533333333333,8312.81 -103.38583333333334,39.374,8243.32 -103.3856,39.37243333333333,8122.01 -103.38533333333334,39.372166666666665,8115.91 -103.385,39.371,8048.24 -103.38511666666668,39.3695,7927.85 -103.385,39.36933333333333,7922.97 -103.3845,39.368833333333335,7857.13 -103.38403333333333,39.366883333333334,7737.04 -103.38416666666667,39.3665,7729.12 -103.3845,39.36566666666667,7661.15 -103.38458333333334,39.364733333333334,7542.89 -103.38433333333333,39.3645,7535.27 -103.38433333333333,39.36333333333334,7469.43 -103.38501666666667,39.36201666666667,7350.86 -103.385,39.36183333333334,7345.07 -103.38466666666666,39.36083333333333,7279.54 -103.38568333333333,39.35935,7157.01 -103.38566666666667,39.35916666666667,7157.92 -103.38533333333334,39.3585,7094.83 -103.38541666666667,39.356233333333336,6970.78 -103.3855,39.356,6972.6 -103.386,39.355,6909.21 -103.38678333333334,39.35385,6790.94 -103.38683333333333,39.3525,6729.37 -103.38758333333334,39.35105,6610.81 -103.3875,39.349666666666664,6551.07 -103.38851666666666,39.34841666666667,6435.85 -103.3885,39.348333333333336,6437.07 -103.38833333333334,39.34766666666667,6376.11 -103.38896666666668,39.34576666666667,6261.81 -103.38916666666667,39.345666666666666,6263.34 -103.38916666666667,39.345166666666664,6202.38 -103.38940000000001,39.3435,6089.9 -103.3895,39.343333333333334,6092.04 -103.39,39.3425,6031.99 -103.3904,39.34115,5918.61 -103.391,39.34016666666667,5861.3 -103.39163333333333,39.339,5750.66 -103.39183333333334,39.337833333333336,5693.66 -103.39266666666667,39.33685,5582.72 -103.3925,39.33583333333333,5526.33 -103.39363333333334,39.334316666666666,5417.82 -103.39366666666666,39.333666666666666,5362.35 -103.39421666666667,39.33188333333334,5251.7 -103.3945,39.33116666666667,5197.75 -103.39546666666666,39.32933333333333,5084.67 -103.3955,39.32933333333333,5091.99 -103.3955,39.3285,5035.6 -103.39626666666668,39.32685,4920.69 -103.39633333333333,39.32683333333333,4930.44 -103.39633333333333,39.326166666666666,4873.75 -103.39681666666667,39.32436666666667,4760.67 -103.39683333333333,39.324333333333335,4768.6 -103.39716666666666,39.3235,4712.51 -103.39728333333333,39.32185,4599.43 -103.39783333333334,39.32066666666667,4552.49 -103.39845,39.3192,4441.55 -103.40028333333333,39.31698333333333,4287.62 -103.40033333333334,39.317,4296.16 -103.40033333333334,39.31616666666667,4247.39 -103.40128333333334,39.315,4130.65 -103.4015,39.31433333333333,4086.45 -103.40206666666667,39.3133,3969.41 -103.40216666666667,39.31333333333333,3978.86 -103.40216666666667,39.31283333333333,3923.69 -103.40215,39.312200000000004,3813.35 -103.40216666666667,39.31216666666667,3823.72 -103.40183333333333,39.31183333333333,3768.24 -103.40136666666666,39.31106666666667,3662.48 -103.40083333333334,39.31066666666667,3618.59 -103.39866666666667,39.3095,3468.62 -103.39705000000001,39.30876666666667,3363.47 -103.397,39.30883333333333,3372.92 -103.39633333333333,39.3085,3322.32 -103.39468333333333,39.308033333333334,3218.38 -103.394,39.30733333333333,3170.53 -103.39330000000001,39.306583333333336,3063.24 -103.39283333333333,39.30616666666667,3018.43 -103.39241666666668,39.30558333333334,2906.27 -103.392,39.30533333333333,2859.02</coordinates>
          </LineString>
        </Placemark>
      </Folder>
      <Folder>
        <name>Waypoints</name>
        <Placemark>
          <name>10k</name>
          <description><![CDATA[<h1>Waypoint</h1>
        <table style="width: 100%;" cellpadding=0 cellspacing=0 border=0>
        <tr><td style="padding: 10px; border: solid 1px black;border-bottom: 0;"><strong>Time (UTC)</strong></td><td style="border: solid 1px black;border-left: 0; border-bottom: 0; padding: 10px;">07:47:39</td></tr>
        <tr><td style="padding: 10px; border: solid 1px black;border-bottom: 0;"><strong>Altitude</strong></td><td style="border: solid 1px black;border-left: 0; border-bottom: 0; padding: 10px;">9939ft (3029.4m)</td></tr>
        <tr><td style="padding: 10px; border: solid 1px black;"><strong>Coordinates</strong></td><td style="border: solid 1px black; border-left: 0; padding: 10px;">39.60250000, -104.03133333</td></tr>
        </table>]]></description>
          <Style>
            <IconStyle>
              <color>ff0000ff</color>
              <Icon>
                <href>https://maps.google.com/mapfiles/kml/shapes/placemark_circle.png</href>
              </Icon>
            </IconStyle>
          </Style>
          <Point>
            <altitudeMode>absolute</altitudeMode>
            <coordinates>-104.03133333333334,39.6025,3029.41</coordinates>
          </Point>
        </Placemark>
        <Placemark>
          <name>20k</name>
          <description><![CDATA[<h1>Waypoint</h1>
        <table style="width: 100%;" cellpadding=0 cellspacing=0 border=0>
        <tr><td style="padding: 10px; border: solid 1px black;border-bottom: 0;"><strong>Time (UTC)</strong></td><td style="border: solid 1px black;border-left: 0; border-bottom: 0; padding: 10px;">07:54:20</td></tr>
        <tr><td style="padding: 10px; border: solid 1px black;border-bottom: 0;"><strong>Altitude</strong></td><td style="border: solid 1px black;border-left: 0; border-bottom: 0; padding: 10px;">19934ft (6075.9m)</td></tr>
        <tr><td style="padding: 10px; border: solid 1px black;"><strong>Coordinates</strong></td><td style="border: solid 1px black; border-left: 0; padding: 10px;">39.57676667, -104.03555000</td></tr>
        </table>]]></description>
          <Style>
            <IconStyle>
              <color>ff0000ff</color>
              <Icon>
                <href>https://maps.google.com/mapfiles/kml/shapes/placemark_circle.png</href>
              </Icon>
            </IconStyle>
          </Style>
          <Point>
            <altitudeMode>absolute</altitudeMode>
            <coordinates>-104.03555,39.57676666666667,6075.88</coordinates>
          </Point>
        </Placemark>
        <Placemark>
          <name>30k</name>
          <description><![CDATA[<h1>Waypoint</h1>
        <table style="width: 100%;" cellpadding=0 cellspacing=0 border=0>
        <tr><td style="padding: 10px; border: solid 1px black;border-bottom: 0;"><strong>Time (UTC)</strong></td><td style="border: solid 1px black;border-left: 0; border-bottom: 0; padding: 10px;">08:00:39</td></tr>
        <tr><td style="padding: 10px; border: solid 1px black;border-bottom: 0;"><strong>Altitude</strong></td><td style="border: solid 1px black;border-left: 0; border-bottom: 0; padding: 10px;">29971ft (9135.2m)</td></tr>
        <tr><td style="padding: 10px; border: solid 1px black;"><strong>Coordinates</strong></td><td style="border: solid 1px black; border-left: 0; padding: 10px;">39.53366667, -104.03916667</td></tr>
        </table>]]></description>
          <Style>
            <IconStyle>
              <color>ff0000ff</color>
              <Icon>
                <href>https://maps.google.com/mapfiles/kml/shapes/placemark_circle.png</href>
              </Icon>
            </IconStyle>
          </Style>
          <Point>
            <altitudeMode>absolute</altitudeMode>
            <coordinates>-104.03916666666667,39.53366666666667,9135.16</coordinates>
          </Point>
        </Placemark>
        <Placemark>
          <name>40k</name>
          <description><![CDATA[<h1>Waypoint</h1>
        <table style="width: 100%;" cellpadding=0 cellspacing=0 border=0>
        <tr><td style="padding: 10px; border: solid 1px black;border-bottom: 0;"><strong>Time (UTC)</strong></td><td style="border: solid 1px black;border-left: 0; border-bottom: 0; padding: 10px;">08:07:39</td></tr>
        <tr><td style="padding: 10px; border: solid 1px black;border-bottom: 0;"><strong>Altitude</strong></td><td style="border: solid 1px black;border-left: 0; border-bottom: 0; padding: 10px;">39877ft (12154.5m)</td></tr>
        <tr><td style="padding: 10px; border: solid 1px black;"><strong>Coordinates</strong></td><td style="border: solid 1px black; border-left: 0; padding: 10px;">39.47850000, -104.01650000</td></tr>
        </table>]]></description>
          <Style>
            <IconStyle>
              <color>ff0000ff</color>
              <Icon>
                <href>https://maps.google.com/mapfiles/kml/shapes/placemark_circle.png</href>
              </Icon>
            </IconStyle>
          </Style>
          <Point>
            <altitudeMode>absolute</altitudeMode>
            <coordinates>-104.0165,39.4785,12154.51</coordinates>
          </Point>
        </Placemark>
        <Placemark>
          <name>50k</name>
          <description><![CDATA[<h1>Waypoint</h1>
        <table style="width: 100%;" cellpadding=0 cellspacing=0 border=0>
        <tr><td style="padding: 10px; border: solid 1px black;border-bottom: 0;"><strong>Time (UTC)</strong></td><td style="border: solid 1px black;border-left: 0; border-bottom: 0; padding: 10px;">08:18:30</td></tr>
        <tr><td style="padding: 10px; border: solid 1px black;border-bottom: 0;"><strong>Altitude</strong></td><td style="border: solid 1px black;border-left: 0; border-bottom: 0; padding: 10px;">49999ft (15239.7m)</td></tr>
        <tr><td style="padding: 10px; border: solid 1px black;"><strong>Coordinates</strong></td><td style="border: solid 1px black; border-left: 0; padding: 10px;">39.44266667, -103.90100000</td></tr>
        </table>]]></description>
          <Style>
            <IconStyle>
              <color>ff0000ff</color>
              <Icon>
                <href>https://maps.google.com/mapfiles/kml/shapes/placemark_circle.png</href>
              </Icon>
            </IconStyle>
          </Style>
          <Point>
            <altitudeMode>absolute</altitudeMode>
            <coordinates>-103.901,39.44266666666667,15239.7</coordinates>
          </Point>
        </Placemark>
        <Placemark>
          <name>60k</name>
          <description><![CDATA[<h1>Waypoint</h1>
        <table style="width: 100%;" cellpadding=0 cellspacing=0 border=0>
        <tr><td style="padding: 10px; border: solid 1px black;border-bottom: 0;"><strong>Time (UTC)</strong></td><td style="border: solid 1px black;border-left: 0; border-bottom: 0; padding: 10px;">08:28:30</td></tr>
        <tr><td style="padding: 10px; border: solid 1px black;border-bottom: 0;"><strong>Altitude</strong></td><td style="border: solid 1px black;border-left: 0; border-bottom: 0; padding: 10px;">59999ft (18287.7m)</td></tr>
        <tr><td style="padding: 10px; border: solid 1px black;"><strong>Coordinates</strong></td><td style="border: solid 1px black; border-left: 0; padding: 10px;">39.41366667, -103.80300000</td></tr>
        </table>]]></description>
          <Style>
            <IconStyle>
              <color>ff0000ff</color>
              <Icon>
                <href>https://maps.google.com/mapfiles/kml/shapes/placemark_circle.png</href>
              </Icon>
            </IconStyle>
          </Style>
          <Point>
            <altitudeMode>absolute</altitudeMode>
            <coordinates>-103.803,39.413666666666664,18287.7</coordinates>
          </Point>
        </Placemark>
        <Placemark>
          <name>70k</name>
          <description><![CDATA[<h1>Waypoint</h1>
        <table style="width: 100%;" cellpadding=0 cellspacing=0 border=0>
        <tr><td style="padding: 10px; border: solid 1px black;border-bottom: 0;"><strong>Time (UTC)</strong></td><td style="border: solid 1px black;border-left: 0; border-bottom: 0; padding: 10px;">08:38:30</td></tr>
        <tr><td style="padding: 10px; border: solid 1px black;border-bottom: 0;"><strong>Altitude</strong></td><td style="border: solid 1px black;border-left: 0; border-bottom: 0; padding: 10px;">70109ft (21369.2m)</td></tr>
        <tr><td style="padding: 10px; border: solid 1px black;"><strong>Coordinates</strong></td><td style="border: solid 1px black; border-left: 0; padding: 10px;">39.40283333, -103.73350000</td></tr>
        </table>]]></description>
          <Style>
            <IconStyle>
              <color>ff0000ff</color>
              <Icon>
                <href>https://maps.google.com/mapfiles/kml/shapes/placemark_circle.png</href>
              </Icon>
            </IconStyle>
          </Style>
          <Point>
            <altitudeMode>absolute</altitudeMode>
            <coordinates>-103.7335,39.402833333333334,21369.22</coordinates>
          </Point>
        </Placemark>
        <Placemark>
          <name>80k</name>
          <description><![CDATA[<h1>Waypoint</h1>
        <table style="width: 100%;" cellpadding=0 cellspacing=0 border=0>
        <tr><td style="padding: 10px; border: solid 1px black;border-bottom: 0;"><strong>Time (UTC)</strong></td><td style="border: solid 1px black;border-left: 0; border-bottom: 0; padding: 10px;">08:47:30</td></tr>
        <tr><td style="padding: 10px; border: solid 1px black;border-bottom: 0;"><strong>Altitude</strong></td><td style="border: solid 1px black;border-left: 0; border-bottom: 0; padding: 10px;">80007ft (24386.1m)</td></tr>
        <tr><td style="padding: 10px; border: solid 1px black;"><strong>Coordinates</strong></td><td style="border: solid 1px black; border-left: 0; padding: 10px;">39.41650000, -103.70100000</td></tr>
        </table>]]></description>
          <Style>
            <IconStyle>
              <color>ff0000ff</color>
              <Icon>
                <href>https://maps.google.com/mapfiles/kml/shapes/placemark_circle.png</href>
              </Icon>
            </IconStyle>
          </Style>
          <Point>
            <altitudeMode>absolute</altitudeMode>
            <coordinates>-103.701,39.4165,24386.13</coordinates>
          </Point>
        </Placemark>
        <Placemark>
          <name>90k</name>
          <description><![CDATA[<h1>Waypoint</h1>
        <table style="width: 100%;" cellpadding=0 cellspacing=0 border=0>
        <tr><td style="padding: 10px; border: solid 1px black;border-bottom: 0;"><strong>Time (UTC)</strong></td><td style="border: solid 1px black;border-left: 0; border-bottom: 0; padding: 10px;">08:56:09</td></tr>
        <tr><td style="padding: 10px; border: solid 1px black;border-bottom: 0;"><strong>Altitude</strong></td><td style="border: solid 1px black;border-left: 0; border-bottom: 0; padding: 10px;">89948ft (27416.2m)</td></tr>
        <tr><td style="padding: 10px; border: solid 1px black;"><strong>Coordinates</strong></td><td style="border: solid 1px black; border-left: 0; padding: 10px;">39.43183333, -103.66100000</td></tr>
        </table>]]></description>
          <Style>
            <IconStyle>
              <color>ff0000ff</color>
              <Icon>
                <href>https://maps.google.com/mapfiles/kml/shapes/placemark_circle.png</href>
              </Icon>
            </IconStyle>
          </Style>
          <Point>
            <altitudeMode>absolute</altitudeMode>
            <coordinates>-103.661,39.43183333333333,27416.15</coordinates>
          </Point>
        </Placemark>
        <Placemark>
          <name>100k</name>
          <description><![CDATA[<h1>Waypoint</h1>
        <table style="width: 100%;" cellpadding=0 cellspacing=0 border=0>
        <tr><td style="padding: 10px; border: solid 1px black;border-bottom: 0;"><strong>Time (UTC)</strong></td><td style="border: solid 1px black;border-left: 0; border-bottom: 0; padding: 10px;">09:05:39</td></tr>
        <tr><td style="padding: 10px; border: solid 1px black;border-bottom: 0;"><strong>Altitude</strong></td><td style="border: solid 1px black;border-left: 0; border-bottom: 0; padding: 10px;">100020ft (30486.1m)</td></tr>
        <tr><td style="padding: 10px; border: solid 1px black;"><strong>Coordinates</strong></td><td style="border: solid 1px black; border-left: 0; padding: 10px;">39.45966667, -103.61100000</td></tr>
        </table>]]></description>
          <Style>
            <IconStyle>
              <color>ff0000ff</color>
              <Icon>
                <href>https://maps.google.com/mapfiles/kml/shapes/placemark_circle.png</href>
              </Icon>
            </IconStyle>
          </Style>
          <Point>
            <altitudeMode>absolute</altitudeMode>
            <coordinates>-103.611,39.459666666666664,30486.1</coordinates>
          </Point>
        </Placemark>
        <Placemark>
          <name>10k</name>
          <description><![CDATA[<h1>Waypoint</h1>
        <table style="width: 100%;" cellpadding=0 cellspacing=0 border=0>
        <tr><td style="padding: 10px; border: solid 1px black;border-bottom: 0;"><strong>Time (UTC)</strong></td><td style="border: solid 1px black;border-left: 0; border-bottom: 0; padding: 10px;">09:56:29</td></tr>
        <tr><td style="padding: 10px; border: solid 1px black;border-bottom: 0;"><strong>Altitude</strong></td><td style="border: solid 1px black;border-left: 0; border-bottom: 0; padding: 10px;">10050ft (3063.2m)</td></tr>
        <tr><td style="padding: 10px; border: solid 1px black;"><strong>Coordinates</strong></td><td style="border: solid 1px black; border-left: 0; padding: 10px;">39.30658333, -103.39330000</td></tr>
        </table>]]></description>
          <Style>
            <IconStyle>
              <color>ffff0000</color>
              <Icon>
                <href>https://maps.google.com/mapfiles/kml/shapes/placemark_circle.png</href>
              </Icon>
            </IconStyle>
          </Style>
          <Point>
            <altitudeMode>absolute</altitudeMode>
            <coordinates>-103.39330000000001,39.306583333333336,3063.24</coordinates>
          </Point>
        </Placemark>
        <Placemark>
          <name>20k</name>
          <description><![CDATA[<h1>Waypoint</h1>
        <table style="width: 100%;" cellpadding=0 cellspacing=0 border=0>
        <tr><td style="padding: 10px; border: solid 1px black;border-bottom: 0;"><strong>Time (UTC)</strong></td><td style="border: solid 1px black;border-left: 0; border-bottom: 0; padding: 10px;">09:47:00</td></tr>
        <tr><td style="padding: 10px; border: solid 1px black;border-bottom: 0;"><strong>Altitude</strong></td><td style="border: solid 1px black;border-left: 0; border-bottom: 0; padding: 10px;">19987ft (6092.0m)</td></tr>
        <tr><td style="padding: 10px; border: solid 1px black;"><strong>Coordinates</strong></td><td style="border: solid 1px black; border-left: 0; padding: 10px;">39.34333333, -103.38950000</td></tr>
        </table>]]></description>
          <Style>
            <IconStyle>
              <color>ffff0000</color>
              <Icon>
                <href>https://maps.google.com/mapfiles/kml/shapes/placemark_circle.png</href>
              </Icon>
            </IconStyle>
          </Style>
          <Point>
            <altitudeMode>absolute</altitudeMode>
            <coordinates>-103.3895,39.343333333333334,6092.04</coordinates>
          </Point>
        </Placemark>
        <Placemark>
          <name>30k</name>
          <description><![CDATA[<h1>Waypoint</h1>
        <table style="width: 100%;" cellpadding=0 cellspacing=0 border=0>
        <tr><td style="padding: 10px; border: solid 1px black;border-bottom: 0;"><strong>Time (UTC)</strong></td><td style="border: solid 1px black;border-left: 0; border-bottom: 0; padding: 10px;">09:38:57</td></tr>
        <tr><td style="padding: 10px; border: solid 1px black;border-bottom: 0;"><strong>Altitude</strong></td><td style="border: solid 1px black;border-left: 0; border-bottom: 0; padding: 10px;">29935ft (9124.2m)</td></tr>
        <tr><td style="padding: 10px; border: solid 1px black;"><strong>Coordinates</strong></td><td style="border: solid 1px black; border-left: 0; padding: 10px;">39.39246667, -103.38740000</td></tr>
        </table>]]></description>
          <Style>
            <IconStyle>
              <color>ffff0000</color>
              <Icon>
                <href>https://maps.google.com/mapfiles/kml/shapes/placemark_circle.png</href>
              </Icon>
            </IconStyle>
          </Style>
          <Point>
            <altitudeMode>absolute</altitudeMode>
            <coordinates>-103.3874,39.392466666666664,9124.19</coordinates>
          </Point>
        </Placemark>
        <Placemark>
          <name>40k</name>
          <description><![CDATA[<h1>Waypoint</h1>
        <table style="width: 100%;" cellpadding=0 cellspacing=0 border=0>
        <tr><td style="padding: 10px; border: solid 1px black;border-bottom: 0;"><strong>Time (UTC)</strong></td><td style="border: solid 1px black;border-left: 0; border-bottom: 0; padding: 10px;">09:31:57</td></tr>
        <tr><td style="padding: 10px; border: solid 1px black;border-bottom: 0;"><strong>Altitude</strong></td><td style="border: solid 1px black;border-left: 0; border-bottom: 0; padding: 10px;">40054ft (12208.5m)</td></tr>
        <tr><td style="padding: 10px; border: solid 1px black;"><strong>Coordinates</strong></td><td style="border: solid 1px black; border-left: 0; padding: 10px;">39.44940000, -103.41470000</td></tr>
        </table>]]></description>
          <Style>
            <IconStyle>
              <color>ffff0000</color>
              <Icon>
                <href>https://maps.google.com/mapfiles/kml/shapes/placemark_circle.png</href>
              </Icon>
            </IconStyle>
          </Style>
          <Point>
            <altitudeMode>absolute</altitudeMode>
            <coordinates>-103.4147,39.449400000000004,12208.46</coordinates>
          </Point>
        </Placemark>
        <Placemark>
          <name>50k</name>
          <description><![CDATA[<h1>Waypoint</h1>
        <table style="width: 100%;" cellpadding=0 cellspacing=0 border=0>
        <tr><td style="padding: 10px; border: solid 1px black;border-bottom: 0;"><strong>Time (UTC)</strong></td><td style="border: solid 1px black;border-left: 0; border-bottom: 0; padding: 10px;">09:26:39</td></tr>
        <tr><td style="padding: 10px; border: solid 1px black;border-bottom: 0;"><strong>Altitude</strong></td><td style="border: solid 1px black;border-left: 0; border-bottom: 0; padding: 10px;">49834ft (15189.4m)</td></tr>
        <tr><td style="padding: 10px; border: solid 1px black;"><strong>Coordinates</strong></td><td style="border: solid 1px black; border-left: 0; padding: 10px;">39.46800000, -103.46666667</td></tr>
        </table>]]></description>
          <Style>
            <IconStyle>
              <color>ffff0000</color>
              <Icon>
                <href>https://maps.google.com/mapfiles/kml/shapes/placemark_circle.png</href>
              </Icon>
            </IconStyle>
          </Style>
          <Point>
            <altitudeMode>absolute</altitudeMode>
            <coordinates>-103.46666666666667,39.468,15189.4</coordinates>
          </Point>
        </Placemark>
        <Placemark>
          <name>60k</name>
          <description><![CDATA[<h1>Waypoint</h1>
        <table style="width: 100%;" cellpadding=0 cellspacing=0 border=0>
        <tr><td style="padding: 10px; border: solid 1px black;border-bottom: 0;"><strong>Time (UTC)</strong></td><td style="border: solid 1px black;border-left: 0; border-bottom: 0; padding: 10px;">09:22:27</td></tr>
        <tr><td style="padding: 10px; border: solid 1px black;border-bottom: 0;"><strong>Altitude</strong></td><td style="border: solid 1px black;border-left: 0; border-bottom: 0; padding: 10px;">60080ft (18312.4m)</td></tr>
        <tr><td style="padding: 10px; border: solid 1px black;"><strong>Coordinates</strong></td><td style="border: solid 1px black; border-left: 0; padding: 10px;">39.47970000, -103.51131667</td></tr>
        </table>]]></description>
          <Style>
            <IconStyle>
              <color>ffff0000</color>
              <Icon>
                <href>https://maps.google.com/mapfiles/kml/shapes/placemark_circle.png</href>
              </Icon>
            </IconStyle>
          </Style>
          <Point>
            <altitudeMode>absolute</altitudeMode>
            <coordinates>-103.51131666666667,39.4797,18312.38</coordinates>
          </Point>
        </Placemark>
        <Placemark>
          <name>70k</name>
          <description><![CDATA[<h1>Waypoint</h1>
        <table style="width: 100%;" cellpadding=0 cellspacing=0 border=0>
        <tr><td style="padding: 10px; border: solid 1px black;border-bottom: 0;"><strong>Time (UTC)</strong></td><td style="border: solid 1px black;border-left: 0; border-bottom: 0; padding: 10px;">09:19:30</td></tr>
        <tr><td style="padding: 10px; border: solid 1px black;border-bottom: 0;"><strong>Altitude</strong></td><td style="border: solid 1px black;border-left: 0; border-bottom: 0; padding: 10px;">70166ft (21386.6m)</td></tr>
        <tr><td style="padding: 10px; border: solid 1px black;"><strong>Coordinates</strong></td><td style="border: solid 1px black; border-left: 0; padding: 10px;">39.48250000, -103.53033333</td></tr>
        </table>]]></description>
          <Style>
            <IconStyle>
              <color>ffff0000</color>
              <Icon>
                <href>https://maps.google.com/mapfiles/kml/shapes/placemark_circle.png</href>
              </Icon>
            </IconStyle>
          </Style>
          <Point>
            <altitudeMode>absolute</altitudeMode>
            <coordinates>-103.53033333333333,39.4825,21386.6</coordinates>
          </Point>
        </Placemark>
        <Placemark>
          <name>80k</name>
          <description><![CDATA[<h1>Waypoint</h1>
        <table style="width: 100%;" cellpadding=0 cellspacing=0 border=0>
        <tr><td style="padding: 10px; border: solid 1px black;border-bottom: 0;"><strong>Time (UTC)</strong></td><td style="border: solid 1px black;border-left: 0; border-bottom: 0; padding: 10px;">09:17:09</td></tr>
        <tr><td style="padding: 10px; border: solid 1px black;border-bottom: 0;"><strong>Altitude</strong></td><td style="border: solid 1px black;border-left: 0; border-bottom: 0; padding: 10px;">80570ft (24557.7m)</td></tr>
        <tr><td style="padding: 10px; border: solid 1px black;"><strong>Coordinates</strong></td><td style="border: solid 1px black; border-left: 0; padding: 10px;">39.48033333, -103.53616667</td></tr>
        </table>]]></description>
          <Style>
            <IconStyle>
              <color>ffff0000</color>
              <Icon>
                <href>https://maps.google.com/mapfiles/kml/shapes/placemark_circle.png</href>
              </Icon>
            </IconStyle>
          </Style>
          <Point>
            <altitudeMode>absolute</altitudeMode>
            <coordinates>-103.53616666666667,39.480333333333334,24557.74</coordinates>
          </Point>
        </Placemark>
        <Placemark>
          <name>90k</name>
          <description><![CDATA[<h1>Waypoint</h1>
        <table style="width: 100%;" cellpadding=0 cellspacing=0 border=0>
        <tr><td style="padding: 10px; border: solid 1px black;border-bottom: 0;"><strong>Time (UTC)</strong></td><td style="border: solid 1px black;border-left: 0; border-bottom: 0; padding: 10px;">09:15:30</td></tr>
        <tr><td style="padding: 10px; border: solid 1px black;border-bottom: 0;"><strong>Altitude</strong></td><td style="border: solid 1px black;border-left: 0; border-bottom: 0; padding: 10px;">89853ft (27387.2m)</td></tr>
        <tr><td style="padding: 10px; border: solid 1px black;"><strong>Coordinates</strong></td><td style="border: solid 1px black; border-left: 0; padding: 10px;">39.47850000, -103.54333333</td></tr>
        </table>]]></description>
          <Style>
            <IconStyle>
              <color>ffff0000</color>
              <Icon>
                <href>https://maps.google.com/mapfiles/kml/shapes/placemark_circle.png</href>
              </Icon>
            </IconStyle>
          </Style>
          <Point>
            <altitudeMode>absolute</altitudeMode>
            <coordinates>-103.54333333333334,39.4785,27387.19</coordinates>
          </Point>
        </Placemark>
        <Placemark>
          <name>100k</name>
          <description><![CDATA[<h1>Waypoint</h1>
        <table style="width: 100%;" cellpadding=0 cellspacing=0 border=0>
        <tr><td style="padding: 10px; border: solid 1px black;border-bottom: 0;"><strong>Time (UTC)</strong></td><td style="border: solid 1px black;border-left: 0; border-bottom: 0; padding: 10px;">09:14:00</td></tr>
        <tr><td style="padding: 10px; border: solid 1px black;border-bottom: 0;"><strong>Altitude</strong></td><td style="border: solid 1px black;border-left: 0; border-bottom: 0; padding: 10px;">100903ft (30755.2m)</td></tr>
        <tr><td style="padding: 10px; border: solid 1px black;"><strong>Coordinates</strong></td><td style="border: solid 1px black; border-left: 0; padding: 10px;">39.47200000, -103.55116667</td></tr>
        </table>]]></description>
          <Style>
            <IconStyle>
              <color>ffff0000</color>
              <Icon>
                <href>https://maps.google.com/mapfiles/kml/shapes/placemark_circle.png</href>
              </Icon>
            </IconStyle>
          </Style>
          <Point>
            <altitudeMode>absolute</altitudeMode>
            <coordinates>-103.55116666666666,39.472,30755.23</coordinates>
          </Point>
        </Placemark>
      </Folder>
      <Folder>
        <name>Points of Interest</name>
        <Placemark>
          <name>Launch</name>
          <description><![CDATA[<h1>Launch</h1>
    <table style="width: 100%;" cellpadding=0 cellspacing=0 border=0>
    <tr><td style="padding: 10px; border: solid 1px black;border-bottom: 0;"><strong>Time (UTC)</strong></td><td style="border: solid 1px black;border-bottom: 0; border-left: 0; padding: 10px;">07:44:09</td></tr>
    <tr><td style="padding: 10px; border: solid 1px black;border-bottom: 0;"><strong>Altitude</strong></td><td style="border: solid 1px black;border-left: 0; border-bottom: 0; padding: 10px;">5206ft (1586.8m)</td></tr>
    <tr><td style="padding: 10px; border: solid 1px black;"><strong>Coordinates</strong></td><td style="border: solid 1px black; border-left: 0; padding: 10px;">39.60800000, -104.04216667</td></tr>
    </table>]]></description>
          <Style>
            <IconStyle>
              <color>ff00aaff</color>
              <Icon>
                <href>https://maps.google.com/mapfiles/kml/shapes/placemark_circle.png</href>
              </Icon>
            </IconStyle>
          </Style>
          <Point>
            <altitudeMode>absolute</altitudeMode>
            <coordinates>-104.04216666666666,39.608,1586.79</coordinates>
          </Point>
        </Placemark>
        <Placemark>
          <name>Landing</name>
          <description><![CDATA[<h1>Landing</h1>
    <table style="width: 100%;" cellpadding=0 cellspacing=0 border=0>
    <tr><td style="padding: 10px; border: solid 1px black;border-bottom: 0;"><strong>Time (UTC)</strong></td><td style="border: solid 1px black;border-left: 0; border-bottom: 0; padding: 10px;">09:57:09</td></tr>
    <tr><td style="padding: 10px; border: solid 1px black;border-bottom: 0;"><strong>Altitude</strong></td><td style="border: solid 1px black;border-bottom: 0; border-left: 0; padding: 10px;">9380ft (2859.0m)</td></tr>
    <tr><td style="padding: 10px; border: solid 1px black;"><strong>Coordinates</strong></td><td style="border: solid 1px black; border-left: 0; padding: 10px;">39.30533333, -103.39200000</td></tr>
    </table>]]></description>
          <Style>
            <IconStyle>
              <color>ff00aaff</color>
              <Icon>
                <href>https://maps.google.com/mapfiles/kml/shapes/placemark_circle.png</href>
              </Icon>
            </IconStyle>
          </Style>
          <Point>
            <altitudeMode>absolute</altitudeMode>
            <coordinates>-103.392,39.30533333333333,2859.02</coordinates>
          </Point>
        </Placemark>
        <Placemark>
          <name>Burst 107044ft</name>
          <description><![CDATA[<h1>Burst: 107044ft</h1>
    <table style="width: 100%;" cellpadding=0 cellspacing=0 border=0>
    <tr><td style="padding: 10px; border: solid 1px black;border-bottom: 0;"><strong>Time (UTC)</strong></td><td style="border: solid 1px black;border-left: 0; border-bottom: 0; padding: 10px;">09:13:00</td></tr>
    <tr><td style="padding: 10px; border: solid 1px black;border-bottom: 0;"><strong>Altitude</strong></td><td style="border: solid 1px black;border-left: 0; border-bottom: 0; padding: 10px;">107044ft (32627.0m)</td></tr>
    <tr><td style="padding: 10px; border: solid 1px black;"><strong>Coordinates</strong></td><td style="border: solid 1px black; border-left: 0; padding: 10px;">39.47083333, -103.55800000</td></tr>
    </table>]]></description>
          <Style>
            <IconStyle>
              <color>ff00ffff</color>
              <Icon>
                <href>https://maps.google.com/mapfiles/kml/shapes/placemark_circle.png</href>
              </Icon>
            </IconStyle>
          </Style>
          <Point>
            <altitudeMode>absolute</altitudeMode>
            <coordinates>-103.558,39.47083333333333,32627.01</coordinates>
          </Point>
        </Placemark>
        <Placemark>
          <name>41k, Turbulent-to-Laminar</name>
          <description><![CDATA[<h1>Airflow Transitioning from Turbulent-to-Laminar</h1>
        <table style="width: 100%;" cellpadding=0 cellspacing=0 border=0>
        <tr><td style="padding: 10px; border: solid 1px black;border-bottom: 0;"><strong>Time (UTC)</strong></td><td style="border: solid 1px black;border-left: 0; border-bottom: 0; padding: 10px;">08:08:30</td></tr>
        <tr><td style="padding: 10px; border: solid 1px black;border-bottom: 0;"><strong>Altitude</strong></td><td style="border: solid 1px black;border-left: 0; border-bottom: 0; padding: 10px;">41058ft (12514.5m)</td></tr>
        <tr><td style="padding: 10px; border: solid 1px black;"><strong>Coordinates</strong></td><td style="border: solid 1px black; border-left: 0; padding: 10px;">39.47433333, -104.01083333</td></tr>
        </table>]]></description>
          <Style>
            <IconStyle>
              <color>ff006400</color>
              <Icon>
                <href>https://maps.google.com/mapfiles/kml/shapes/placemark_circle.png</href>
              </Icon>
            </IconStyle>
          </Style>
          <Point>
            <altitudeMode>absolute</altitudeMode>
            <coordinates>-104.01083333333334,39.474333333333334,12514.48</coordinates>
          </Point>
        </Placemark>
      </Folder>
    </Document>
  </Document>
</kml>