<?xml version="1.0" encoding="UTF-8"?>
<kml xmlns="http://www.opengis.net/kml/2.2" xmlns:gx="http://www.google.com/kml/ext/2.2">
    <Document id="1">
        <Document id="2">
            <name>EOSS-370</name>
            <description><![CDATA[
    <h1>EOSS-370</h1>
    <table style="width: 100%;" cellpadding=0 cellspacing=0 border=0>
    <tr><td style="border: solid 1px black;border-bottom: 0; padding: 10px;"><strong>Launch Local Date/Time</strong></td><td style=" padding: 10px;border: solid 1px black;border-bottom: 0; border-left: 0;">2025-04-06 06:44:14</td></tr>
    <tr><td style="border: solid 1px black;border-bottom: 0; padding: 10px;"><strong>Flight Duration</strong></td><td style=" padding: 10px;border: solid 1px black;border-bottom: 0; border-left: 0; ">1hrs 57mins 30secs</td></tr>
    <tr><td style="border: solid 1px black;border-bottom: 0; padding: 10px;"><strong>Down Range Distance</strong></td><td style=" padding: 10px;border: solid 1px black;border-bottom: 0; border-left: 0; ">29.9mi (48.2km)</td></tr>
    <tr><td style="border: solid 1px black; padding: 10px;"><strong>Approx. Burst Altitude</strong></td><td style=" padding: 10px;border: solid 1px black; border-left: 0; ">93,949ft (28,635.7m)</td></tr>
    </table>
    ]]></description>
            <Folder id="3">
                <Style id="8">
                    <LineStyle id="9">
                        <color>ff0000ff</color>
                        <colorMode>normal</colorMode>
                        <width>3</width>
                    </LineStyle>
                </Style>
                <Style id="12">
                    <LineStyle id="13">
                        <color>ffff0000</color>
                        <colorMode>normal</colorMode>
                        <width>3</width>
                    </LineStyle>
                </Style>
                <name>Paths</name>
                <Placemark id="7">
                    <name>EOSS-370 Ascent</name>
                    <styleUrl>#8</styleUrl>
                    <LineString id="6">
                        <extrude>0</extrude>
                        <altitudeMode>absolute</altitudeMode>
                        <coordinates>-104.0421666667,39.608,1593.8 -104.0423,39.6083,1612.09 -104.0408333333,39.6085,1722.12 -104.0399666667,39.60845,1778.2 -104.0391666667,39.6083333333,1871.47 -104.039,39.6083333333,1880.01 -104.0384666667,39.6081,1953.16 -104.0376666667,39.6078333333,2062.89 -104.0375,39.6078333333,2065.63 -104.0371333333,39.6075166667,2135.12 -104.0368333333,39.607,2254.0 -104.0366666667,39.6068333333,2259.79 -104.0367166667,39.6063666667,2322.27 -104.0363333333,39.6056666667,2439.92 -104.0363333333,39.6055,2441.75 -104.0363333333,39.6046166667,2508.2 -104.036,39.6036666667,2627.68 -104.036,39.6033333333,2634.08 -104.0360166667,39.6024,2688.34 -104.0361666667,39.6015,2794.1 -104.0363333333,39.6013333333,2798.98 -104.0365166667,39.60065,2874.26 -104.0363333333,39.6,2974.54 -104.0365,39.5998333333,2983.99 -104.0366666667,39.59925,3053.49 -104.0365,39.5981666667,3165.35 -104.0366666667,39.598,3169.92 -104.0366,39.5971666667,3236.37 -104.0365,39.5963333333,3338.17 -104.0366666667,39.596,3348.84 -104.03655,39.5951166667,3418.33 -104.0363333333,39.5938333333,3533.24 -104.0363333333,39.5933333333,3539.34 -104.0361666667,39.5920666667,3608.53 -104.0358333333,39.5905,3728.62 -104.0358333333,39.5901666667,3739.9 -104.0354166667,39.5892,3808.48 -104.035,39.588,3917.59 -104.035,39.5875,3927.35 -104.0347166667,39.5862833333,3987.39 -104.0343333333,39.5848333333,4105.35 -104.0341666667,39.5843333333,4116.63 -104.0339666667,39.58265,4192.52 -104.0335,39.5808333333,4311.7 -104.0335,39.5803333333,4320.54 -104.0330833333,39.5787666667,4393.69 -104.0326666667,39.5771666667,4502.81 -104.0325,39.5766666667,4512.26 -104.0324833333,39.57545,4586.63 -104.0321666667,39.5741666667,4700.32 -104.0321666667,39.5736666667,4709.46 -104.0321333333,39.5723166667,4786.58 -104.0318333333,39.5708333333,4904.23 -104.0315666667,39.5688833333,4979.52 -104.0308333333,39.5675,5095.04 -104.0306666667,39.567,5105.4 -104.03025,39.5657833333,5182.51 -104.0298333333,39.5646666667,5301.39 -104.0298333333,39.5643333333,5313.27 -104.0297,39.5633666667,5386.73 -104.0295,39.5623333333,5506.82 -104.0295,39.562,5519.62 -104.0295333333,39.5609333333,5590.64 -104.0295,39.5596666667,5712.56 -104.0296166667,39.5577,5793.64 -104.0296666667,39.5558333333,5902.45 -104.0298333333,39.5553333333,5909.77 -104.0299666667,39.5538833333,5984.75 -104.0298333333,39.5521666667,6108.8 -104.0298333333,39.5516666667,6119.77 -104.0297333333,39.5501166667,6200.85 -104.0295,39.5485,6323.08 -104.0293333333,39.5481666667,6335.57 -104.0295833333,39.5467,6416.95 -104.0295,39.545,6538.57 -104.0295,39.5446666667,6551.68 -104.02965,39.5431166667,6632.75 -104.0296666667,39.541,6759.85 -104.0298333333,39.5403333333,6773.88 -104.0303166667,39.5383166667,6856.78 -104.0308333333,39.5365,6985.1 -104.0311666667,39.5358333333,6996.68 -104.0320166667,39.5341666667,7072.88 -104.0328333333,39.5325,7197.55 -104.0331666667,39.532,7211.87 -104.0344166667,39.5302833333,7296.0 -104.0356666667,39.528,7416.39 -104.0358333333,39.5273333333,7426.76 -104.0373,39.5253666667,7510.88 -104.0386666667,39.5231666667,7638.29 -104.0391666667,39.5225,7651.09 -104.0408,39.52045,7734.0 -104.042,39.5183333333,7855.31 -104.0425,39.5178333333,7867.5 -104.04385,39.5155666667,7947.05 -104.0453333333,39.5133333333,8075.37 -104.0458333333,39.5125,8088.17 -104.0473666667,39.5104,8168.03 -104.0491666667,39.5078333333,8282.03 -104.0496666667,39.5071666667,8295.13 -104.0514,39.50485,8380.17 -104.053,39.5025,8507.27 -104.0535,39.5018333333,8521.9 -104.0555,39.4994333333,8606.03 -104.0568333333,39.4971666667,8734.04 -104.0575,39.4963333333,8748.37 -104.0593333333,39.4939833333,8843.16 -104.0611666667,39.4915,8978.19 -104.0616666667,39.4908333333,8995.26 -104.0634666667,39.4883666667,9075.12 -104.0653333333,39.4858333333,9206.79 -104.0661666667,39.485,9221.11 -104.0680166667,39.4825,9303.11 -104.0698333333,39.48,9429.6 -104.0703333333,39.4793333333,9446.36 -104.0721833333,39.4767666667,9535.06 -104.0743333333,39.4741666667,9673.74 -104.075,39.4733333333,9692.34 -104.0769166667,39.47095,9787.13 -104.0786666667,39.4681666667,9931.6 -104.0793333333,39.4673333333,9946.84 -104.0812833333,39.4649333333,10039.2 -104.0833333333,39.462,10175.75 -104.0838333333,39.461,10191.29 -104.0858333333,39.4583833333,10284.26 -104.0878333333,39.4556666667,10416.24 -104.0883333333,39.4548333333,10432.39 -104.0904,39.4521,10516.21 -104.0923333333,39.4495,10659.47 -104.093,39.4488333333,10682.02 -104.0952333333,39.4466333333,10778.34 -104.0973333333,39.4445,10911.84 -104.098,39.444,10922.51 -104.1001166667,39.4421333333,11006.33 -104.102,39.4401666667,11136.78 -104.1025,39.4398333333,11149.58 -104.1035666667,39.4382166667,11247.42 -104.1046666667,39.4365,11380.93 -104.1048333333,39.436,11385.5 -104.1054666667,39.4344,11468.4 -104.106,39.4331666667,11591.85 -104.106,39.4326666667,11608.61 -104.1065166667,39.43185,11713.46 -104.1061666667,39.4306666667,11864.34 -104.1063166667,39.4294166667,11937.49 -104.1061666667,39.4285,12051.79 -104.1061666667,39.4281666667,12069.78 -104.10585,39.42765,12153.6 -104.1058333333,39.4266666667,12298.07 -104.1058333333,39.4265,12317.58 -104.1056333333,39.4257666667,12403.53 -104.1048333333,39.4251666667,12520.88 -104.1046666667,39.4251666667,12533.99 -104.1040333333,39.4246666667,12622.68 -104.1035,39.4235,12751.61 -104.1035,39.4233333333,12755.88 -104.103,39.4226333333,12842.75 -104.1025,39.4218333333,12968.94 -104.1023333333,39.4216666667,12985.09 -104.1012833333,39.4207833333,13088.72 -104.1005,39.4198333333,13198.75 -104.1001666667,39.4195,13198.45 -104.0993,39.4186333333,13275.56 -104.0981666667,39.4178333333,13393.22 -104.098,39.4175,13408.76 -104.0971666667,39.4168166667,13500.81 -104.0963333333,39.4161666667,13616.94 -104.096,39.4158333333,13631.27 -104.0956,39.4153,13727.58 -104.0953333333,39.4146666667,13843.71 -104.0951666667,39.4145,13860.17 -104.09515,39.4141166667,13960.75 -104.0943333333,39.4138333333,14076.88 -104.094,39.4136666667,14089.99 -104.0936166667,39.4134666667,14182.65 -104.0925,39.4133333333,14328.34 -104.0921666667,39.4135,14353.95 -104.091,39.4133833333,14466.72 -104.09,39.4128333333,14599.62 -104.0898333333,39.4128333333,14597.18 -104.0888,39.4125166667,14645.94 -104.0881666667,39.4121666667,14741.96 -104.0881666667,39.4121666667,14743.48 -104.0876166667,39.4121,14838.88 -104.0866666667,39.4121666667,14987.93 -104.0863333333,39.4121666667,14997.07 -104.0852666667,39.4122833333,15096.74 -104.0838333333,39.4125,15234.21 -104.0833333333,39.4126666667,15248.53 -104.08245,39.4127333333,15350.03 -104.0808333333,39.413,15485.67 -104.0805,39.413,15495.12 -104.0788666667,39.41315,15556.99 -104.0778333333,39.4133333333,15633.5 -104.0773333333,39.4135,15645.38 -104.0760833333,39.4136166667,15739.87 -104.0745,39.4135,15892.58 -104.074,39.4135,15910.56 -104.0725333333,39.4134666667,16008.1 -104.071,39.4135,16106.55 -104.0703333333,39.4135,16112.64 -104.0685833333,39.4138333333,16194.02 -104.0666666667,39.4136666667,16296.74 -104.066,39.4136666667,16299.79 -104.0645,39.41365,16375.99 -104.0628333333,39.4135,16487.24 -104.0625,39.4133333333,16487.24 -104.0613,39.41335,16556.13 -104.0598333333,39.4131666667,16651.22 -104.0595,39.413,16657.32 -104.0582333333,39.4132333333,16749.98 -104.0565,39.4133333333,16861.84 -104.0558333333,39.4135,16875.86 -104.0543166667,39.41385,16925.24 -104.053,39.414,17020.64 -104.0526666667,39.414,17023.99 -104.0511833333,39.4142,17082.21 -104.0496666667,39.414,17201.69 -104.0493333333,39.414,17208.4 -104.04825,39.4138666667,17282.16 -104.0473333333,39.4135,17408.96 -104.0471666667,39.4135,17409.57 -104.04645,39.4137833333,17503.14 -104.0458333333,39.4138333333,17637.56 -104.0458333333,39.4138333333,17655.54 -104.0449333333,39.4142166667,17753.08 -104.0441666667,39.4143333333,17877.43 -104.044,39.4145,17881.4 -104.0437,39.4147166667,17931.38 -104.0426666667,39.415,18025.87 -104.0425,39.4151666667,18035.63 -104.0418666667,39.4158666667,18099.33 -104.0411666667,39.4161666667,18205.09 -104.0408333333,39.4163333333,18209.67 -104.0395666667,39.4167833333,18273.37 -104.0385,39.4168333333,18372.43 -104.0378333333,39.4168333333,18379.74 -104.0363,39.4171166667,18450.46 -104.0341666667,39.4171666667,18547.69 -104.0336666667,39.4171666667,18551.96 -104.0319166667,39.41675,18619.32 -104.0303333333,39.4163333333,18718.99 -104.0298333333,39.4161666667,18723.86 -104.0284833333,39.4156833333,18788.48 -104.0271666667,39.415,18878.4 -104.0268333333,39.4146666667,18886.63 -104.0255833333,39.4138833333,18949.42 -104.0243333333,39.413,19036.28 -104.024,39.4128333333,19044.51 -104.0231833333,39.4121333333,19099.38 -104.0223333333,39.4115,19189.6 -104.022,39.4111666667,19197.83 -104.02095,39.4108833333,19258.48 -104.02,39.4101666667,19350.84 -104.0196666667,39.41,19358.15 -104.0191166667,39.4094666667,19423.38 -104.0181666667,39.409,19514.52 -104.0181666667,39.4088333333,19523.35 -104.0172833333,39.4087166667,19585.53 -104.0166666667,39.4083333333,19673.62 -104.0163333333,39.4081666667,19682.16 -104.0160833333,39.408,19750.43 -104.0153333333,39.4076666667,19841.87 -104.0151666667,39.4076666667,19851.32 -104.0147,39.4073666667,19914.41 -104.0141666667,39.4073333333,20011.03 -104.0141666667,39.4071666667,20022.01 -104.0137333333,39.4075833333,20085.41 -104.0133333333,39.4073333333,20186.9 -104.0133333333,39.4073333333,20193.61 -104.0133,39.40695,20254.57 -104.013,39.4068333333,20347.84 -104.0131666667,39.4066666667,20356.37 -104.0129333333,39.4068333333,20420.69 -104.0126666667,39.4066666667,20507.86 -104.0125,39.4068333333,20516.09 -104.0124833333,39.4069833333,20575.52 -104.0116666667,39.4071666667,20667.27 -104.0116666667,39.4073333333,20672.15 -104.0108166667,39.4077333333,20733.72 -104.01,39.4081666667,20818.45 -104.0096666667,39.4083333333,20827.59 -104.0089333333,39.4090333333,20888.55 -104.0076666667,39.4096666667,20978.16 -104.0075,39.4098333333,20982.13 -104.00625,39.4102666667,21049.49 -104.0055,39.4106666667,21135.75 -104.0053333333,39.4106666667,21143.06 -104.0048333333,39.4111333333,21209.51 -104.0038333333,39.4111666667,21304.61 -104.0036666667,39.4113333333,21316.8 -104.0026666667,39.4114333333,21380.81 -104.002,39.4115,21471.33 -104.0016666667,39.4115,21477.73 -104.00135,39.4119166667,21538.69 -104.0008333333,39.4123333333,21634.09 -104.0008333333,39.4125,21641.1 -104.0003666667,39.4130333333,21702.67 -103.9996666667,39.4136666667,21804.48 -103.9995,39.4136666667,21809.35 -103.9992666667,39.4141666667,21872.75 -103.9988333333,39.4145,21970.59 -103.9985,39.4145,21971.81 -103.99805,39.4149666667,22041.61 -103.9975,39.415,22133.97 -103.9973333333,39.415,22142.2 -103.9967333333,39.4154833333,22198.89 -103.996,39.4158333333,22290.33 -103.9958333333,39.416,22293.38 -103.9952666667,39.4160833333,22347.94 -103.9945,39.416,22437.24 -103.9941666667,39.416,22444.86 -103.99375,39.4157833333,22501.86 -103.993,39.4153333333,22599.4 -103.9928333333,39.4151666667,22605.49 -103.9924666667,39.41505,22661.88 -103.9921666667,39.415,22756.67 -103.9921666667,39.415,22756.06 -103.9920166667,39.4150666667,22816.72 -103.9918333333,39.4148333333,22920.35 -103.9916666667,39.4148333333,22926.45 -103.9914166667,39.4151166667,22988.93 -103.991,39.4148333333,23083.72 -103.9908333333,39.4148333333,23087.38 -103.9905166667,39.4148333333,23152.91 -103.9901666667,39.4148333333,23248.01 -103.9901666667,39.4148333333,23256.54 -103.9899666667,39.4151166667,23321.77 -103.9898333333,39.4153333333,23420.83 -103.9898333333,39.4153333333,23428.45 -103.9895166667,39.4160166667,23497.03 -103.989,39.4161666667,23594.57 -103.9888333333,39.4163333333,23612.25 -103.9884666667,39.4159666667,23678.08 -103.9876666667,39.4161666667,23761.29 -103.9875,39.416,23761.6 -103.98665,39.41595,23827.13 -103.9861666667,39.4151666667,23920.09 -103.986,39.415,23925.28 -103.9858833333,39.4143333333,23985.02 -103.9855,39.4138333333,24075.85 -103.9855,39.4135,24081.03 -103.9856333333,39.4130333333,24145.04 -103.9856666667,39.4123333333,24243.79 -103.9856666667,39.412,24249.28 -103.9862,39.4113333333,24309.02 -103.9868333333,39.4105,24409.3 -103.987,39.4103333333,24416.0 -103.98785,39.4099833333,24480.01 -103.9881666667,39.4095,24578.16 -103.9883333333,39.4095,24583.95 -103.9884833333,39.4091833333,24643.99 -103.9885,39.4088333333,24741.84 -103.9886666667,39.4085,24745.8 -103.9889666667,39.40825,24809.2 -103.9893333333,39.4078333333,24904.6 -103.9895,39.4076666667,24910.39 -103.9899,39.4077,24967.08 -103.9903333333,39.4076666667,25066.45 -103.9905,39.4076666667,25075.29 -103.9908333333,39.40795,25133.2 -103.9911666667,39.4078333333,25234.09 -103.9913333333,39.4076666667,25237.44 -103.9916166667,39.4075833333,25296.27 -103.9916666667,39.4073333333,25387.4 -103.9918333333,39.4071666667,25393.19 -103.9922166667,39.4069166667,25450.19 -103.9925,39.4065,25541.33 -103.9925,39.4063333333,25545.9 -103.99285,39.4064666667,25600.15 -103.9928333333,39.4065,25693.73 -103.9928333333,39.4066666667,25695.55 -103.9927333333,39.4071666667,25751.33 -103.9926666667,39.4073333333,25845.82 -103.9926666667,39.4073333333,25853.14 -103.9925166667,39.40735,25907.39 -103.9923333333,39.4073333333,25995.48 -103.9923333333,39.4073333333,25999.74 -103.9925166667,39.4073333333,26056.13 -103.9925,39.4071666667,26156.72 -103.9926666667,39.407,26163.42 -103.9930166667,39.4067,26223.16 -103.9941666667,39.4058333333,26332.59 -103.9953666667,39.4053666667,26389.28 -103.9963333333,39.4051666667,26489.25 -103.9966666667,39.405,26495.65 -103.9974333333,39.4052,26555.4 -103.9981666667,39.4051666667,26654.46 -103.9983333333,39.4051666667,26658.11 -103.9993666667,39.4050833333,26711.45 -104.0,39.4051666667,26806.86 -104.0003333333,39.4051666667,26812.04 -104.0008166667,39.4056333333,26866.29 -104.0008333333,39.4056666667,26960.47 -104.0008333333,39.4058333333,26964.74 -104.0011,39.40605,27020.52 -104.0011666667,39.406,27111.96 -104.0013333333,39.4061666667,27116.23 -104.0023333333,39.4065,27262.23 -104.0023333333,39.4065,27268.02 -104.0024,39.4062,27326.54 -104.0023333333,39.406,27414.93 -104.0023333333,39.4058333333,27415.24 -104.0024,39.4054333333,27467.36 -104.0021666667,39.4048333333,27557.88 -104.0023333333,39.4045,27561.54 -104.0025833333,39.4042833333,27613.36 -104.0025,39.404,27703.58 -104.0025,39.4038333333,27701.44 -104.0024833333,39.4037333333,27762.4 -104.0023333333,39.4035,27849.58 -104.0024333333,39.4031666667,27908.4 -104.0025,39.4028333333,28001.67 -104.0025,39.4028333333,28002.89 -104.0021666667,39.4029,28058.36 -104.0015,39.4025,28148.89 -104.0015,39.4023333333,28147.67 -104.0007666667,39.40185,28202.53 -104.0,39.4013333333,28291.54 -103.9998333333,39.4011666667,28292.15 -103.9996833333,39.4008666667,28345.49 -103.9993333333,39.4005,28434.79 -103.9991666667,39.4005,28437.84 -103.9990166667,39.4005833333,28489.66 -103.9991666667,39.4005,28580.18 -103.9991666667,39.4005,28582.62 -103.9993666667,39.40045,28635.66</coordinates>
                    </LineString>
                </Placemark>
                <Placemark id="11">
                    <name>EOSS-370 Descent</name>
                    <styleUrl>#12</styleUrl>
                    <LineString id="10">
                        <extrude>0</extrude>
                        <altitudeMode>absolute</altitudeMode>
                        <coordinates>-103.9993666667,39.40045,28635.66 -103.9988333333,39.4001666667,28249.17 -103.9988333333,39.4001666667,28087.62 -103.9992166667,39.3995666667,27658.47 -103.9998333333,39.3996666667,27203.7 -103.9998333333,39.3998333333,27056.18 -103.99965,39.4005833333,26672.44 -104.0001666667,39.4001666667,26221.33 -104.0005,39.4,26080.82 -104.0003,39.4001,25703.17 -104.0006666667,39.4,25286.51 -104.0005,39.3998333333,25161.54 -103.9998,39.3996333333,24846.99 -104.0008333333,39.4,24498.3 -104.001,39.3996666667,24378.82 -104.0019,39.39965,24077.98 -104.0028333333,39.3991666667,23783.24 -104.0028333333,39.3991666667,23671.38 -104.002,39.3994,23372.98 -104.0015,39.3995,23054.77 -104.001,39.3996666667,22953.27 -104.0001166667,39.4001,22692.97 -104.0003333333,39.3995,22410.12 -104.0,39.3993333333,22307.7 -103.9997833333,39.3996666667,22025.76 -103.999,39.3998333333,21714.87 -103.999,39.4,21616.72 -103.9981666667,39.40055,21352.76 -103.9978333333,39.4005,21051.62 -103.9975,39.4008333333,20959.57 -103.9965166667,39.40125,20710.55 -103.9963333333,39.4016666667,20431.96 -103.9961666667,39.4016666667,20340.22 -103.9963833333,39.4019666667,20101.56 -103.9955,39.4021666667,19847.66 -103.9955,39.402,19760.49 -103.99455,39.40225,19530.36 -103.994,39.402,19280.12 -103.9936666667,39.4021666667,19197.22 -103.9928833333,39.4015166667,18976.24 -103.992,39.401,18754.04 -103.9913333333,39.401,18672.96 -103.98935,39.4011,18477.28 -103.988,39.4011666667,18271.54 -103.9876666667,39.401,18197.78 -103.9870333333,39.4016166667,18018.25 -103.986,39.402,17822.57 -103.9856666667,39.402,17749.11 -103.9849333333,39.4021666667,17564.1 -103.984,39.402,17375.73 -103.9838333333,39.402,17317.52 -103.9827,39.4015,17125.19 -103.981,39.4013333333,16947.79 -103.9806666667,39.4015,16877.08 -103.9784833333,39.40115,16713.1 -103.9768333333,39.4011666667,16549.12 -103.9766666667,39.401,16480.84 -103.9755666667,39.4010833333,16312.9 -103.9735,39.401,16128.19 -103.973,39.4008333333,16061.13 -103.9714166667,39.4011333333,15894.1 -103.9696666667,39.401,15744.14 -103.9693333333,39.401,15678.61 -103.9681833333,39.4013833333,15529.86 -103.9675,39.4015,15393.62 -103.9668333333,39.4016666667,15329.92 -103.96515,39.4009666667,15190.01 -103.9635,39.401,15050.11 -103.9633333333,39.401,14987.32 -103.9618333333,39.4012833333,14844.98 -103.961,39.4013333333,14702.64 -103.9608333333,39.4013333333,14639.85 -103.9592333333,39.4012833333,14500.86 -103.9581666667,39.4013333333,14371.02 -103.9576666667,39.4011666667,14311.88 -103.9567833333,39.4012666667,14175.64 -103.9563333333,39.4013333333,14041.53 -103.956,39.4011666667,13983.92 -103.9561,39.4013833333,13848.59 -103.9561666667,39.401,13732.46 -103.956,39.401,13674.85 -103.9556333333,39.4002,13546.84 -103.9548333333,39.3996666667,13433.15 -103.9545,39.3993333333,13375.84 -103.9545333333,39.3981,13254.53 -103.9538333333,39.3973333333,13150.29 -103.9533333333,39.397,13095.12 -103.9527333333,39.3962333333,12972.59 -103.9523333333,39.395,12865.91 -103.9521666667,39.3948333333,12812.88 -103.9510833333,39.39415,12700.71 -103.9508333333,39.3931666667,12600.74 -103.9505,39.3931666667,12548.31 -103.9496,39.3923333333,12431.57 -103.9488333333,39.392,12334.65 -103.9486666667,39.3916666667,12282.22 -103.9486166667,39.3901666667,12174.63 -103.9476666667,39.3893333333,12076.48 -103.9473333333,39.389,12025.27 -103.9473833333,39.3875833333,11915.55 -103.9466666667,39.3866666667,11824.11 -103.9465,39.3863333333,11773.2 -103.9467666667,39.3851,11668.35 -103.9466666667,39.3843333333,11578.74 -103.9466666667,39.3838333333,11528.45 -103.9471,39.3816666667,11424.51 -103.9481666667,39.3801666667,11339.17 -103.9483333333,39.3796666667,11291.01 -103.9487666667,39.37785,11188.29 -103.9503333333,39.3756666667,11104.47 -103.951,39.3751666667,11056.32 -103.9524,39.3738833333,10956.34 -103.9545,39.3715,10872.22 -103.9551666667,39.371,10824.06 -103.9568333333,39.3693333333,10723.47 -103.9588333333,39.3666666667,10640.87 -103.9596666667,39.3658333333,10591.8 -103.9613166667,39.3637166667,10493.35 -103.9636666667,39.361,10410.75 -103.964,39.3603333333,10362.59 -103.9659333333,39.3576666667,10265.36 -103.9671666667,39.355,10181.23 -103.9678333333,39.3541666667,10133.99 -103.9693166667,39.3519,10037.37 -103.9705,39.349,9959.64 -103.9711666667,39.3481666667,9913.01 -103.9722666667,39.3460166667,9817.3 -103.9738333333,39.3435,9740.19 -103.9741666667,39.3426666667,9694.16 -103.9757333333,39.3400666667,9601.2 -103.977,39.3376666667,9525.3 -103.9775,39.3368333333,9478.98 -103.9795,39.33455,9386.32 -103.9815,39.3311666667,9267.75 -103.9831666667,39.3286666667,9175.09 -103.985,39.3251666667,9055.61 -103.9865666667,39.3230166667,8962.03 -103.9885,39.3203333333,8890.71 -103.9888333333,39.3196666667,8845.91 -103.9899,39.31725,8751.11 -103.9916666667,39.3146666667,8684.36 -103.992,39.3141666667,8640.78 -103.9930833333,39.31165,8552.08 -103.9946666667,39.3093333333,8492.03 -103.9951666667,39.3086666667,8442.05 -103.9966166667,39.3061,8350.91 -103.9976666667,39.304,8285.99 -103.998,39.3033333333,8248.19 -103.9991666667,39.3012166667,8154.92 -104.0006666667,39.2988333333,8089.7 -104.0011666667,39.2983333333,8046.11 -104.0020666667,39.29605,7959.85 -104.0033333333,39.2941666667,7896.45 -104.0035,39.2935,7852.56 -104.00485,39.2911166667,7769.96 -104.006,39.2893333333,7707.17 -104.00765,39.2868,7580.07 -104.0091666667,39.2846666667,7509.66 -104.0096666667,39.284,7467.6 -104.0113833333,39.282,7379.82 -104.0128333333,39.2798333333,7319.77 -104.013,39.2791666667,7277.1 -104.0138833333,39.2773666667,7192.98 -104.0141666667,39.2755,7129.58 -104.0143333333,39.275,7086.3 -104.01445,39.2732166667,7002.78 -104.0143333333,39.2713333333,6941.52 -104.0143333333,39.2706666667,6898.84 -104.01445,39.2687666667,6811.98 -104.0146666667,39.267,6755.59 -104.0148333333,39.2665,6712.31 -104.0152666667,39.26505,6626.96 -104.0155,39.263,6570.88 -104.0156666667,39.2625,6534.91 -104.0165,39.2609666667,6447.74 -104.017,39.2588333333,6393.48 -104.0173333333,39.2583333333,6352.34 -104.01765,39.25665,6272.78 -104.0185,39.2548333333,6218.83 -104.0186666667,39.2543333333,6177.69 -104.0190166667,39.2523666667,6098.74 -104.0196666667,39.2508333333,6045.1 -104.0195,39.2503333333,6003.65 -104.02,39.2486,5922.87 -104.02,39.247,5870.45 -104.0201666667,39.2465,5829.6 -104.0204333333,39.24535,5750.66 -104.021,39.2435,5696.1 -104.0211666667,39.2431666667,5654.34 -104.0213833333,39.2419333333,5571.74 -104.0216666667,39.2401666667,5519.62 -104.0218333333,39.2398333333,5479.69 -104.0217333333,39.2387666667,5400.75 -104.0218333333,39.2373333333,5347.72 -104.0218333333,39.237,5308.09 -104.0212666667,39.23575,5231.59 -104.0211666667,39.2341666667,5179.77 -104.0211666667,39.2338333333,5140.15 -104.0206666667,39.2328,5064.56 -104.02,39.2311666667,5014.87 -104.02,39.2306666667,4975.25 -104.0193833333,39.2295666667,4902.71 -104.019,39.2276666667,4852.11 -104.019,39.2271666667,4811.88 -104.0191166667,39.2260166667,4736.59 -104.0183333333,39.2241666667,4688.74 -104.0183333333,39.2235,4649.11 -104.0186666667,39.2221833333,4574.44 -104.0181666667,39.2206666667,4526.89 -104.0181666667,39.2201666667,4493.06 -104.01825,39.2189833333,4415.64 -104.0181666667,39.2171666667,4363.52 -104.0181666667,39.2165,4323.59 -104.0183833333,39.21475,4243.43 -104.0181666667,39.2126666667,4197.71 -104.0181666667,39.212,4158.08 -104.0182333333,39.21005,4084.62 -104.0183333333,39.2081666667,4035.86 -104.0183333333,39.2075,3997.15 -104.0185333333,39.20565,3925.52 -104.0185,39.2038333333,3877.67 -104.0185,39.2031666667,3838.35 -104.0186166667,39.2016,3764.58 -104.0188333333,39.2,3721.0 -104.019,39.1995,3683.2 -104.0194,39.1979,3611.58 -104.0198333333,39.1965,3569.82 -104.02,39.196,3532.94 -104.0206,39.1947166667,3464.36 -104.021,39.1933333333,3420.16 -104.0211666667,39.193,3382.67 -104.0215333333,39.1921,3311.35 -104.021,39.1913333333,3272.94 -104.0208333333,39.191,3236.98 -104.0204833333,39.1900166667,3170.53 -104.0205,39.1888333333,3132.43 -104.0206666667,39.1886666667,3094.94 -104.0205333333,39.1882666667,3030.32 -104.0198333333,39.1875,2989.78 -104.0198333333,39.1873333333,2953.21 -104.01995,39.18655,2889.5 -104.0203333333,39.1858333333,2847.44 -104.0205,39.1856666667,2810.56 -104.0208666667,39.1853,2745.33 -104.0205,39.1848333333,2708.45 -104.0205,39.1846666667,2671.57 -104.0202666667,39.1836166667,2609.39 -104.0203333333,39.1823333333,2571.9 -104.0205,39.182,2535.33 -104.0209166667,39.18105,2472.23 -104.021,39.1803333333,2440.53 -104.0208333333,39.18,2406.09 -104.0204833333,39.1791333333,2347.26 -104.0203333333,39.178,2317.09 -104.0203333333,39.1776666667,2284.17 -104.02055,39.1772666667,2224.43 -104.02,39.1768333333,2190.9 -104.0198333333,39.1765,2156.16 -104.0199333333,39.1759833333,2096.41 -104.0198333333,39.1756666667,2064.41 -104.0196666667,39.1756666667,2031.19 -104.0191833333,39.1754833333,1977.24 -104.0186666667,39.175,1950.72 -104.0185,39.175,1919.94 -104.0179,39.1750166667,1871.17 -104.0173333333,39.1745,1859.58 -104.0173333333,39.1745,1826.06 -104.0171666667,39.1748333333,1779.12 -104.0171666667,39.1748333333,1782.17</coordinates>
                    </LineString>
                </Placemark>
            </Folder>
            <Folder id="4">
                <Style id="37">
                    <IconStyle id="38">
                        <color>ff0000ff</color>
                        <colorMode>normal</colorMode>
                        <scale>1</scale>
                        <heading>0</heading>
                        <Icon id="39">
                            <href>https://maps.google.com/mapfiles/kml/shapes/placemark_circle.png</href>
                        </Icon>
                    </IconStyle>
                </Style>
                <Style id="42">
                    <IconStyle id="43">
                        <color>ff0000ff</color>
                        <colorMode>normal</colorMode>
                        <scale>1</scale>
                        <heading>0</heading>
                        <Icon id="44">
                            <href>https://maps.google.com/mapfiles/kml/shapes/placemark_circle.png</href>
                        </Icon>
                    </IconStyle>
                </Style>
                <Style id="47">
                    <IconStyle id="48">
                        <color>ff0000ff</color>
                        <colorMode>normal</colorMode>
                        <scale>1</scale>
                        <heading>0</heading>
                        <Icon id="49">
                            <href>https://maps.google.com/mapfiles/kml/shapes/placemark_circle.png</href>
                        </Icon>
                    </IconStyle>
                </Style>
                <Style id="52">
                    <IconStyle id="53">
                        <color>ff0000ff</color>
                        <colorMode>normal</colorMode>
                        <scale>1</scale>
                        <heading>0</heading>
                        <Icon id="54">
                            <href>https://maps.google.com/mapfiles/kml/shapes/placemark_circle.png</href>
                        </Icon>
                    </IconStyle>
                </Style>
                <Style id="57">
                    <IconStyle id="58">
                        <color>ff0000ff</color>
                        <colorMode>normal</colorMode>
                        <scale>1</scale>
                        <heading>0</heading>
                        <Icon id="59">
                            <href>https://maps.google.com/mapfiles/kml/shapes/placemark_circle.png</href>
                        </Icon>
                    </IconStyle>
                </Style>
                <Style id="62">
                    <IconStyle id="63">
                        <color>ff0000ff</color>
                        <colorMode>normal</colorMode>
                        <scale>1</scale>
                        <heading>0</heading>
                        <Icon id="64">
                            <href>https://maps.google.com/mapfiles/kml/shapes/placemark_circle.png</href>
                        </Icon>
                    </IconStyle>
                </Style>
                <Style id="67">
                    <IconStyle id="68">
                        <color>ff0000ff</color>
                        <colorMode>normal</colorMode>
                        <scale>1</scale>
                        <heading>0</heading>
                        <Icon id="69">
                            <href>https://maps.google.com/mapfiles/kml/shapes/placemark_circle.png</href>
                        </Icon>
                    </IconStyle>
                </Style>
                <Style id="72">
                    <IconStyle id="73">
                        <color>ff0000ff</color>
                        <colorMode>normal</colorMode>
                        <scale>1</scale>
                        <heading>0</heading>
                        <Icon id="74">
                            <href>https://maps.google.com/mapfiles/kml/shapes/placemark_circle.png</href>
                        </Icon>
                    </IconStyle>
                </Style>
                <Style id="77">
                    <IconStyle id="78">
                        <color>ff0000ff</color>
                        <colorMode>normal</colorMode>
                        <scale>1</scale>
                        <heading>0</heading>
                        <Icon id="79">
                            <href>https://maps.google.com/mapfiles/kml/shapes/placemark_circle.png</href>
                        </Icon>
                    </IconStyle>
                </Style>
                <Style id="82">
                    <IconStyle id="83">
                        <color>ffff0000</color>
                        <colorMode>normal</colorMode>
                        <scale>1</scale>
                        <heading>0</heading>
                        <Icon id="84">
                            <href>https://maps.google.com/mapfiles/kml/shapes/placemark_circle.png</href>
                        </Icon>
                    </IconStyle>
                </Style>
                <Style id="87">
                    <IconStyle id="88">
                        <color>ffff0000</color>
                        <colorMode>normal</colorMode>
                        <scale>1</scale>
                        <heading>0</heading>
                        <Icon id="89">
                            <href>https://maps.google.com/mapfiles/kml/shapes/placemark_circle.png</href>
                        </Icon>
                    </IconStyle>
                </Style>
                <Style id="92">
                    <IconStyle id="93">
                        <color>ffff0000</color>
                        <colorMode>normal</colorMode>
                        <scale>1</scale>
                        <heading>0</heading>
                        <Icon id="94">
                            <href>https://maps.google.com/mapfiles/kml/shapes/placemark_circle.png</href>
                        </Icon>
                    </IconStyle>
                </Style>
                <Style id="97">
                    <IconStyle id="98">
                        <color>ffff0000</color>
                        <colorMode>normal</colorMode>
                        <scale>1</scale>
                        <heading>0</heading>
                        <Icon id="99">
                            <href>https://maps.google.com/mapfiles/kml/shapes/placemark_circle.png</href>
                        </Icon>
                    </IconStyle>
                </Style>
                <Style id="102">
                    <IconStyle id="103">
                        <color>ffff0000</color>
                        <colorMode>normal</colorMode>
                        <scale>1</scale>
                        <heading>0</heading>
                        <Icon id="104">
                            <href>https://maps.google.com/mapfiles/kml/shapes/placemark_circle.png</href>
                        </Icon>
                    </IconStyle>
                </Style>
                <Style id="107">
                    <IconStyle id="108">
                        <color>ffff0000</color>
                        <colorMode>normal</colorMode>
                        <scale>1</scale>
                        <heading>0</heading>
                        <Icon id="109">
                            <href>https://maps.google.com/mapfiles/kml/shapes/placemark_circle.png</href>
                        </Icon>
                    </IconStyle>
                </Style>
                <Style id="112">
                    <IconStyle id="113">
                        <color>ffff0000</color>
                        <colorMode>normal</colorMode>
                        <scale>1</scale>
                        <heading>0</heading>
                        <Icon id="114">
                            <href>https://maps.google.com/mapfiles/kml/shapes/placemark_circle.png</href>
                        </Icon>
                    </IconStyle>
                </Style>
                <Style id="117">
                    <IconStyle id="118">
                        <color>ffff0000</color>
                        <colorMode>normal</colorMode>
                        <scale>1</scale>
                        <heading>0</heading>
                        <Icon id="119">
                            <href>https://maps.google.com/mapfiles/kml/shapes/placemark_circle.png</href>
                        </Icon>
                    </IconStyle>
                </Style>
                <Style id="122">
                    <IconStyle id="123">
                        <color>ffff0000</color>
                        <colorMode>normal</colorMode>
                        <scale>1</scale>
                        <heading>0</heading>
                        <Icon id="124">
                            <href>https://maps.google.com/mapfiles/kml/shapes/placemark_circle.png</href>
                        </Icon>
                    </IconStyle>
                </Style>
                <name>Waypoints</name>
                <Placemark id="36">
                    <name>10k</name>
                    <description><![CDATA[
        <h1>Waypoint</h1>
        <table style="width: 100%;" cellpadding=0 cellspacing=0 border=0>
        <tr><td style="padding: 10px; border: solid 1px black;border-bottom: 0;"><strong>Local Time</strong></td><td style="border: solid 1px black;border-left: 0; border-bottom: 0; padding: 10px;">06:48:27</td></tr>
        <tr><td style="padding: 10px; border: solid 1px black;border-bottom: 0;"><strong>Altitude</strong></td><td style="border: solid 1px black;border-left: 0; border-bottom: 0; padding: 10px;">10,018ft (3,053.5m)</td></tr>
        <tr><td style="padding: 10px; border: solid 1px black;"><strong>Coordinates</strong></td><td style="border: solid 1px black; border-left: 0; padding: 10px;">39.59925, -104.03666667</td></tr>
        </table>
        ]]></description>
                    <styleUrl>#37</styleUrl>
                    <Point id="35">
                        <coordinates>-104.0366666667,39.59925,3053.49</coordinates>
                        <altitudeMode>absolute</altitudeMode>
                    </Point>
                </Placemark>
                <Placemark id="41">
                    <name>20k</name>
                    <description><![CDATA[
        <h1>Waypoint</h1>
        <table style="width: 100%;" cellpadding=0 cellspacing=0 border=0>
        <tr><td style="padding: 10px; border: solid 1px black;border-bottom: 0;"><strong>Local Time</strong></td><td style="border: solid 1px black;border-left: 0; border-bottom: 0; padding: 10px;">06:56:10</td></tr>
        <tr><td style="padding: 10px; border: solid 1px black;border-bottom: 0;"><strong>Altitude</strong></td><td style="border: solid 1px black;border-left: 0; border-bottom: 0; padding: 10px;">20,042ft (6,108.8m)</td></tr>
        <tr><td style="padding: 10px; border: solid 1px black;"><strong>Coordinates</strong></td><td style="border: solid 1px black; border-left: 0; padding: 10px;">39.55216667, -104.02983333</td></tr>
        </table>
        ]]></description>
                    <styleUrl>#42</styleUrl>
                    <Point id="40">
                        <coordinates>-104.0298333333,39.5521666667,6108.8</coordinates>
                        <altitudeMode>absolute</altitudeMode>
                    </Point>
                </Placemark>
                <Placemark id="46">
                    <name>30k</name>
                    <description><![CDATA[
        <h1>Waypoint</h1>
        <table style="width: 100%;" cellpadding=0 cellspacing=0 border=0>
        <tr><td style="padding: 10px; border: solid 1px black;border-bottom: 0;"><strong>Local Time</strong></td><td style="border: solid 1px black;border-left: 0; border-bottom: 0; padding: 10px;">07:03:10</td></tr>
        <tr><td style="padding: 10px; border: solid 1px black;border-bottom: 0;"><strong>Altitude</strong></td><td style="border: solid 1px black;border-left: 0; border-bottom: 0; padding: 10px;">30,206ft (9,206.8m)</td></tr>
        <tr><td style="padding: 10px; border: solid 1px black;"><strong>Coordinates</strong></td><td style="border: solid 1px black; border-left: 0; padding: 10px;">39.48583333, -104.06533333</td></tr>
        </table>
        ]]></description>
                    <styleUrl>#47</styleUrl>
                    <Point id="45">
                        <coordinates>-104.0653333333,39.4858333333,9206.79</coordinates>
                        <altitudeMode>absolute</altitudeMode>
                    </Point>
                </Placemark>
                <Placemark id="51">
                    <name>40k</name>
                    <description><![CDATA[
        <h1>Waypoint</h1>
        <table style="width: 100%;" cellpadding=0 cellspacing=0 border=0>
        <tr><td style="padding: 10px; border: solid 1px black;border-bottom: 0;"><strong>Local Time</strong></td><td style="border: solid 1px black;border-left: 0; border-bottom: 0; padding: 10px;">07:09:27</td></tr>
        <tr><td style="padding: 10px; border: solid 1px black;border-bottom: 0;"><strong>Altitude</strong></td><td style="border: solid 1px black;border-left: 0; border-bottom: 0; padding: 10px;">39,874ft (12,153.6m)</td></tr>
        <tr><td style="padding: 10px; border: solid 1px black;"><strong>Coordinates</strong></td><td style="border: solid 1px black; border-left: 0; padding: 10px;">39.42765, -104.10585</td></tr>
        </table>
        ]]></description>
                    <styleUrl>#52</styleUrl>
                    <Point id="50">
                        <coordinates>-104.10585,39.42765,12153.6</coordinates>
                        <altitudeMode>absolute</altitudeMode>
                    </Point>
                </Placemark>
                <Placemark id="56">
                    <name>50k</name>
                    <description><![CDATA[
        <h1>Waypoint</h1>
        <table style="width: 100%;" cellpadding=0 cellspacing=0 border=0>
        <tr><td style="padding: 10px; border: solid 1px black;border-bottom: 0;"><strong>Local Time</strong></td><td style="border: solid 1px black;border-left: 0; border-bottom: 0; padding: 10px;">07:16:10</td></tr>
        <tr><td style="padding: 10px; border: solid 1px black;border-bottom: 0;"><strong>Altitude</strong></td><td style="border: solid 1px black;border-left: 0; border-bottom: 0; padding: 10px;">49,981ft (15,234.2m)</td></tr>
        <tr><td style="padding: 10px; border: solid 1px black;"><strong>Coordinates</strong></td><td style="border: solid 1px black; border-left: 0; padding: 10px;">39.4125, -104.08383333</td></tr>
        </table>
        ]]></description>
                    <styleUrl>#57</styleUrl>
                    <Point id="55">
                        <coordinates>-104.0838333333,39.4125,15234.21</coordinates>
                        <altitudeMode>absolute</altitudeMode>
                    </Point>
                </Placemark>
                <Placemark id="61">
                    <name>60k</name>
                    <description><![CDATA[
        <h1>Waypoint</h1>
        <table style="width: 100%;" cellpadding=0 cellspacing=0 border=0>
        <tr><td style="padding: 10px; border: solid 1px black;border-bottom: 0;"><strong>Local Time</strong></td><td style="border: solid 1px black;border-left: 0; border-bottom: 0; padding: 10px;">07:23:57</td></tr>
        <tr><td style="padding: 10px; border: solid 1px black;border-bottom: 0;"><strong>Altitude</strong></td><td style="border: solid 1px black;border-left: 0; border-bottom: 0; padding: 10px;">59,952ft (18,273.4m)</td></tr>
        <tr><td style="padding: 10px; border: solid 1px black;"><strong>Coordinates</strong></td><td style="border: solid 1px black; border-left: 0; padding: 10px;">39.41678333, -104.03956667</td></tr>
        </table>
        ]]></description>
                    <styleUrl>#62</styleUrl>
                    <Point id="60">
                        <coordinates>-104.0395666667,39.4167833333,18273.37</coordinates>
                        <altitudeMode>absolute</altitudeMode>
                    </Point>
                </Placemark>
                <Placemark id="66">
                    <name>70k</name>
                    <description><![CDATA[
        <h1>Waypoint</h1>
        <table style="width: 100%;" cellpadding=0 cellspacing=0 border=0>
        <tr><td style="padding: 10px; border: solid 1px black;border-bottom: 0;"><strong>Local Time</strong></td><td style="border: solid 1px black;border-left: 0; border-bottom: 0; padding: 10px;">07:33:14</td></tr>
        <tr><td style="padding: 10px; border: solid 1px black;border-bottom: 0;"><strong>Altitude</strong></td><td style="border: solid 1px black;border-left: 0; border-bottom: 0; padding: 10px;">69,937ft (21,316.8m)</td></tr>
        <tr><td style="padding: 10px; border: solid 1px black;"><strong>Coordinates</strong></td><td style="border: solid 1px black; border-left: 0; padding: 10px;">39.41133333, -104.00366667</td></tr>
        </table>
        ]]></description>
                    <styleUrl>#67</styleUrl>
                    <Point id="65">
                        <coordinates>-104.0036666667,39.4113333333,21316.8</coordinates>
                        <altitudeMode>absolute</altitudeMode>
                    </Point>
                </Placemark>
                <Placemark id="71">
                    <name>80k</name>
                    <description><![CDATA[
        <h1>Waypoint</h1>
        <table style="width: 100%;" cellpadding=0 cellspacing=0 border=0>
        <tr><td style="padding: 10px; border: solid 1px black;border-bottom: 0;"><strong>Local Time</strong></td><td style="border: solid 1px black;border-left: 0; border-bottom: 0; padding: 10px;">07:42:40</td></tr>
        <tr><td style="padding: 10px; border: solid 1px black;border-bottom: 0;"><strong>Altitude</strong></td><td style="border: solid 1px black;border-left: 0; border-bottom: 0; padding: 10px;">80,083ft (24,409.3m)</td></tr>
        <tr><td style="padding: 10px; border: solid 1px black;"><strong>Coordinates</strong></td><td style="border: solid 1px black; border-left: 0; padding: 10px;">39.4105, -103.98683333</td></tr>
        </table>
        ]]></description>
                    <styleUrl>#72</styleUrl>
                    <Point id="70">
                        <coordinates>-103.9868333333,39.4105,24409.3</coordinates>
                        <altitudeMode>absolute</altitudeMode>
                    </Point>
                </Placemark>
                <Placemark id="76">
                    <name>90k</name>
                    <description><![CDATA[
        <h1>Waypoint</h1>
        <table style="width: 100%;" cellpadding=0 cellspacing=0 border=0>
        <tr><td style="padding: 10px; border: solid 1px black;border-bottom: 0;"><strong>Local Time</strong></td><td style="border: solid 1px black;border-left: 0; border-bottom: 0; padding: 10px;">07:52:14</td></tr>
        <tr><td style="padding: 10px; border: solid 1px black;border-bottom: 0;"><strong>Altitude</strong></td><td style="border: solid 1px black;border-left: 0; border-bottom: 0; padding: 10px;">89,945ft (27,415.2m)</td></tr>
        <tr><td style="padding: 10px; border: solid 1px black;"><strong>Coordinates</strong></td><td style="border: solid 1px black; border-left: 0; padding: 10px;">39.40583333, -104.00233333</td></tr>
        </table>
        ]]></description>
                    <styleUrl>#77</styleUrl>
                    <Point id="75">
                        <coordinates>-104.0023333333,39.4058333333,27415.24</coordinates>
                        <altitudeMode>absolute</altitudeMode>
                    </Point>
                </Placemark>
                <Placemark id="81">
                    <name>10k</name>
                    <description><![CDATA[
        <h1>Waypoint</h1>
        <table style="width: 100%;" cellpadding=0 cellspacing=0 border=0>
        <tr><td style="padding: 10px; border: solid 1px black;border-bottom: 0;"><strong>Local Time</strong></td><td style="border: solid 1px black;border-left: 0; border-bottom: 0; padding: 10px;">08:36:27</td></tr>
        <tr><td style="padding: 10px; border: solid 1px black;border-bottom: 0;"><strong>Altitude</strong></td><td style="border: solid 1px black;border-left: 0; border-bottom: 0; padding: 10px;">9,942ft (3,030.3m)</td></tr>
        <tr><td style="padding: 10px; border: solid 1px black;"><strong>Coordinates</strong></td><td style="border: solid 1px black; border-left: 0; padding: 10px;">39.18826667, -104.02053333</td></tr>
        </table>
        ]]></description>
                    <styleUrl>#82</styleUrl>
                    <Point id="80">
                        <coordinates>-104.0205333333,39.1882666667,3030.32</coordinates>
                        <altitudeMode>absolute</altitudeMode>
                    </Point>
                </Placemark>
                <Placemark id="86">
                    <name>20k</name>
                    <description><![CDATA[
        <h1>Waypoint</h1>
        <table style="width: 100%;" cellpadding=0 cellspacing=0 border=0>
        <tr><td style="padding: 10px; border: solid 1px black;border-bottom: 0;"><strong>Local Time</strong></td><td style="border: solid 1px black;border-left: 0; border-bottom: 0; padding: 10px;">08:26:57</td></tr>
        <tr><td style="padding: 10px; border: solid 1px black;border-bottom: 0;"><strong>Altitude</strong></td><td style="border: solid 1px black;border-left: 0; border-bottom: 0; padding: 10px;">20,009ft (6,098.7m)</td></tr>
        <tr><td style="padding: 10px; border: solid 1px black;"><strong>Coordinates</strong></td><td style="border: solid 1px black; border-left: 0; padding: 10px;">39.25236667, -104.01901667</td></tr>
        </table>
        ]]></description>
                    <styleUrl>#87</styleUrl>
                    <Point id="85">
                        <coordinates>-104.0190166667,39.2523666667,6098.74</coordinates>
                        <altitudeMode>absolute</altitudeMode>
                    </Point>
                </Placemark>
                <Placemark id="91">
                    <name>30k</name>
                    <description><![CDATA[
        <h1>Waypoint</h1>
        <table style="width: 100%;" cellpadding=0 cellspacing=0 border=0>
        <tr><td style="padding: 10px; border: solid 1px black;border-bottom: 0;"><strong>Local Time</strong></td><td style="border: solid 1px black;border-left: 0; border-bottom: 0; padding: 10px;">08:18:57</td></tr>
        <tr><td style="padding: 10px; border: solid 1px black;border-bottom: 0;"><strong>Altitude</strong></td><td style="border: solid 1px black;border-left: 0; border-bottom: 0; padding: 10px;">30,102ft (9,175.1m)</td></tr>
        <tr><td style="padding: 10px; border: solid 1px black;"><strong>Coordinates</strong></td><td style="border: solid 1px black; border-left: 0; padding: 10px;">39.32866667, -103.98316667</td></tr>
        </table>
        ]]></description>
                    <styleUrl>#92</styleUrl>
                    <Point id="90">
                        <coordinates>-103.9831666667,39.3286666667,9175.09</coordinates>
                        <altitudeMode>absolute</altitudeMode>
                    </Point>
                </Placemark>
                <Placemark id="96">
                    <name>40k</name>
                    <description><![CDATA[
        <h1>Waypoint</h1>
        <table style="width: 100%;" cellpadding=0 cellspacing=0 border=0>
        <tr><td style="padding: 10px; border: solid 1px black;border-bottom: 0;"><strong>Local Time</strong></td><td style="border: solid 1px black;border-left: 0; border-bottom: 0; padding: 10px;">08:12:27</td></tr>
        <tr><td style="padding: 10px; border: solid 1px black;border-bottom: 0;"><strong>Altitude</strong></td><td style="border: solid 1px black;border-left: 0; border-bottom: 0; padding: 10px;">39,943ft (12,174.6m)</td></tr>
        <tr><td style="padding: 10px; border: solid 1px black;"><strong>Coordinates</strong></td><td style="border: solid 1px black; border-left: 0; padding: 10px;">39.39016667, -103.94861667</td></tr>
        </table>
        ]]></description>
                    <styleUrl>#97</styleUrl>
                    <Point id="95">
                        <coordinates>-103.9486166667,39.3901666667,12174.63</coordinates>
                        <altitudeMode>absolute</altitudeMode>
                    </Point>
                </Placemark>
                <Placemark id="101">
                    <name>50k</name>
                    <description><![CDATA[
        <h1>Waypoint</h1>
        <table style="width: 100%;" cellpadding=0 cellspacing=0 border=0>
        <tr><td style="padding: 10px; border: solid 1px black;border-bottom: 0;"><strong>Local Time</strong></td><td style="border: solid 1px black;border-left: 0; border-bottom: 0; padding: 10px;">08:07:27</td></tr>
        <tr><td style="padding: 10px; border: solid 1px black;border-bottom: 0;"><strong>Altitude</strong></td><td style="border: solid 1px black;border-left: 0; border-bottom: 0; padding: 10px;">49,836ft (15,190.0m)</td></tr>
        <tr><td style="padding: 10px; border: solid 1px black;"><strong>Coordinates</strong></td><td style="border: solid 1px black; border-left: 0; padding: 10px;">39.40096667, -103.96515</td></tr>
        </table>
        ]]></description>
                    <styleUrl>#102</styleUrl>
                    <Point id="100">
                        <coordinates>-103.96515,39.4009666667,15190.01</coordinates>
                        <altitudeMode>absolute</altitudeMode>
                    </Point>
                </Placemark>
                <Placemark id="106">
                    <name>60k</name>
                    <description><![CDATA[
        <h1>Waypoint</h1>
        <table style="width: 100%;" cellpadding=0 cellspacing=0 border=0>
        <tr><td style="padding: 10px; border: solid 1px black;border-bottom: 0;"><strong>Local Time</strong></td><td style="border: solid 1px black;border-left: 0; border-bottom: 0; padding: 10px;">08:03:40</td></tr>
        <tr><td style="padding: 10px; border: solid 1px black;border-bottom: 0;"><strong>Altitude</strong></td><td style="border: solid 1px black;border-left: 0; border-bottom: 0; padding: 10px;">59,946ft (18,271.5m)</td></tr>
        <tr><td style="padding: 10px; border: solid 1px black;"><strong>Coordinates</strong></td><td style="border: solid 1px black; border-left: 0; padding: 10px;">39.40116667, -103.988</td></tr>
        </table>
        ]]></description>
                    <styleUrl>#107</styleUrl>
                    <Point id="105">
                        <coordinates>-103.988,39.4011666667,18271.54</coordinates>
                        <altitudeMode>absolute</altitudeMode>
                    </Point>
                </Placemark>
                <Placemark id="111">
                    <name>70k</name>
                    <description><![CDATA[
        <h1>Waypoint</h1>
        <table style="width: 100%;" cellpadding=0 cellspacing=0 border=0>
        <tr><td style="padding: 10px; border: solid 1px black;border-bottom: 0;"><strong>Local Time</strong></td><td style="border: solid 1px black;border-left: 0; border-bottom: 0; padding: 10px;">08:00:57</td></tr>
        <tr><td style="padding: 10px; border: solid 1px black;border-bottom: 0;"><strong>Altitude</strong></td><td style="border: solid 1px black;border-left: 0; border-bottom: 0; padding: 10px;">70,055ft (21,352.8m)</td></tr>
        <tr><td style="padding: 10px; border: solid 1px black;"><strong>Coordinates</strong></td><td style="border: solid 1px black; border-left: 0; padding: 10px;">39.40055, -103.99816667</td></tr>
        </table>
        ]]></description>
                    <styleUrl>#112</styleUrl>
                    <Point id="110">
                        <coordinates>-103.9981666667,39.40055,21352.76</coordinates>
                        <altitudeMode>absolute</altitudeMode>
                    </Point>
                </Placemark>
                <Placemark id="116">
                    <name>80k</name>
                    <description><![CDATA[
        <h1>Waypoint</h1>
        <table style="width: 100%;" cellpadding=0 cellspacing=0 border=0>
        <tr><td style="padding: 10px; border: solid 1px black;border-bottom: 0;"><strong>Local Time</strong></td><td style="border: solid 1px black;border-left: 0; border-bottom: 0; padding: 10px;">07:58:44</td></tr>
        <tr><td style="padding: 10px; border: solid 1px black;border-bottom: 0;"><strong>Altitude</strong></td><td style="border: solid 1px black;border-left: 0; border-bottom: 0; padding: 10px;">79,983ft (24,378.8m)</td></tr>
        <tr><td style="padding: 10px; border: solid 1px black;"><strong>Coordinates</strong></td><td style="border: solid 1px black; border-left: 0; padding: 10px;">39.39966667, -104.001</td></tr>
        </table>
        ]]></description>
                    <styleUrl>#117</styleUrl>
                    <Point id="115">
                        <coordinates>-104.001,39.3996666667,24378.82</coordinates>
                        <altitudeMode>absolute</altitudeMode>
                    </Point>
                </Placemark>
                <Placemark id="121">
                    <name>91k</name>
                    <description><![CDATA[
        <h1>Waypoint</h1>
        <table style="width: 100%;" cellpadding=0 cellspacing=0 border=0>
        <tr><td style="padding: 10px; border: solid 1px black;border-bottom: 0;"><strong>Local Time</strong></td><td style="border: solid 1px black;border-left: 0; border-bottom: 0; padding: 10px;">07:56:57</td></tr>
        <tr><td style="padding: 10px; border: solid 1px black;border-bottom: 0;"><strong>Altitude</strong></td><td style="border: solid 1px black;border-left: 0; border-bottom: 0; padding: 10px;">90,743ft (27,658.5m)</td></tr>
        <tr><td style="padding: 10px; border: solid 1px black;"><strong>Coordinates</strong></td><td style="border: solid 1px black; border-left: 0; padding: 10px;">39.39956667, -103.99921667</td></tr>
        </table>
        ]]></description>
                    <styleUrl>#122</styleUrl>
                    <Point id="120">
                        <coordinates>-103.9992166667,39.3995666667,27658.47</coordinates>
                        <altitudeMode>absolute</altitudeMode>
                    </Point>
                </Placemark>
            </Folder>
            <Folder id="5">
                <Style id="16">
                    <IconStyle id="17">
                        <color>ff008cff</color>
                        <colorMode>normal</colorMode>
                        <scale>1</scale>
                        <heading>0</heading>
                        <Icon id="18">
                            <href>https://maps.google.com/mapfiles/kml/shapes/placemark_circle.png</href>
                        </Icon>
                    </IconStyle>
                </Style>
                <Style id="21">
                    <IconStyle id="22">
                        <color>ff008cff</color>
                        <colorMode>normal</colorMode>
                        <scale>1</scale>
                        <heading>0</heading>
                        <Icon id="23">
                            <href>https://maps.google.com/mapfiles/kml/shapes/placemark_circle.png</href>
                        </Icon>
                    </IconStyle>
                </Style>
                <Style id="26">
                    <IconStyle id="27">
                        <color>ff00ffff</color>
                        <colorMode>normal</colorMode>
                        <scale>1</scale>
                        <heading>0</heading>
                        <Icon id="28">
                            <href>https://maps.google.com/mapfiles/kml/shapes/placemark_circle.png</href>
                        </Icon>
                    </IconStyle>
                </Style>
                <Style id="31">
                    <IconStyle id="32">
                        <color>ff006400</color>
                        <colorMode>normal</colorMode>
                        <scale>1</scale>
                        <heading>0</heading>
                        <Icon id="33">
                            <href>https://maps.google.com/mapfiles/kml/shapes/placemark_circle.png</href>
                        </Icon>
                    </IconStyle>
                    <LabelStyle id="34">
                        <color>ff006400</color>
                        <colorMode>normal</colorMode>
                        <scale>1</scale>
                    </LabelStyle>
                </Style>
                <name>Points of Interest</name>
                <Placemark id="15">
                    <name>Launch</name>
                    <description><![CDATA[
    <h1>Launch</h1>
    <table style="width: 100%;" cellpadding=0 cellspacing=0 border=0>
    <tr><td style="padding: 10px; border: solid 1px black;border-bottom: 0;"><strong>Local Time</strong></td><td style="border: solid 1px black;border-bottom: 0; border-left: 0; padding: 10px;">06:44:14</td></tr>
    <tr><td style="padding: 10px; border: solid 1px black;border-bottom: 0;"><strong>Altitude</strong></td><td style="border: solid 1px black;border-left: 0; border-bottom: 0; padding: 10px;">5,229ft (1,593.8m)</td></tr>
    <tr><td style="padding: 10px; border: solid 1px black;"><strong>Coordinates</strong></td><td style="border: solid 1px black; border-left: 0; padding: 10px;">39.608, -104.04216667</td></tr>
    </table>
    ]]></description>
                    <styleUrl>#16</styleUrl>
                    <Point id="14">
                        <coordinates>-104.0421666667,39.608,1593.8</coordinates>
                        <altitudeMode>absolute</altitudeMode>
                    </Point>
                </Placemark>
                <Placemark id="20">
                    <name>Landing</name>
                    <description><![CDATA[
    <h1>Landing</h1>
    <table style="width: 100%;" cellpadding=0 cellspacing=0 border=0>
    <tr><td style="padding: 10px; border: solid 1px black;border-bottom: 0;"><strong>Local Time</strong></td><td style="border: solid 1px black;border-left: 0; border-bottom: 0; padding: 10px;">08:41:44</td></tr>
    <tr><td style="padding: 10px; border: solid 1px black;border-bottom: 0;"><strong>Altitude</strong></td><td style="border: solid 1px black;border-bottom: 0; border-left: 0; padding: 10px;">5,847ft (1,782.2m)</td></tr>
    <tr><td style="padding: 10px; border: solid 1px black;"><strong>Coordinates</strong></td><td style="border: solid 1px black; border-left: 0; padding: 10px;">39.17483333, -104.01716667</td></tr>
    </table>
    ]]></description>
                    <styleUrl>#21</styleUrl>
                    <Point id="19">
                        <coordinates>-104.0171666667,39.1748333333,1782.17</coordinates>
                        <altitudeMode>absolute</altitudeMode>
                    </Point>
                </Placemark>
                <Placemark id="25">
                    <name>Burst 93,949ft</name>
                    <description><![CDATA[
    <h1>Burst: 93,949ft</h1>
    <table style="width: 100%;" cellpadding=0 cellspacing=0 border=0>
    <tr><td style="padding: 10px; border: solid 1px black;border-bottom: 0;"><strong>Local Time</strong></td><td style="border: solid 1px black;border-left: 0; border-bottom: 0; padding: 10px;">07:56:27</td></tr>
    <tr><td style="padding: 10px; border: solid 1px black;border-bottom: 0;"><strong>Altitude</strong></td><td style="border: solid 1px black;border-left: 0; border-bottom: 0; padding: 10px;">93,949ft (28,635.7m)</td></tr>
    <tr><td style="padding: 10px; border: solid 1px black;"><strong>Coordinates</strong></td><td style="border: solid 1px black; border-left: 0; padding: 10px;">39.40045, -103.99936667</td></tr>
    </table>
    ]]></description>
                    <styleUrl>#26</styleUrl>
                    <Point id="24">
                        <coordinates>-103.9993666667,39.40045,28635.66</coordinates>
                        <altitudeMode>absolute</altitudeMode>
                    </Point>
                </Placemark>
                <Placemark id="30">
                    <name>59k, Turbulent-to-Laminar</name>
                    <description><![CDATA[
        <h1>Airflow Transitioning from Turbulent-to-Laminar</h1>
        <table style="width: 100%;" cellpadding=0 cellspacing=0 border=0>
        <tr><td style="padding: 10px; border: solid 1px black;border-bottom: 0;"><strong>Local Time</strong></td><td style="border: solid 1px black;border-left: 0; border-bottom: 0; padding: 10px;">07:22:40</td></tr>
        <tr><td style="padding: 10px; border: solid 1px black;border-bottom: 0;"><strong>Altitude</strong></td><td style="border: solid 1px black;border-left: 0; border-bottom: 0; padding: 10px;">58,653ft (17,877.4m)</td></tr>
        <tr><td style="padding: 10px; border: solid 1px black;"><strong>Coordinates</strong></td><td style="border: solid 1px black; border-left: 0; padding: 10px;">39.41433333, -104.04416667</td></tr>
        </table>
        ]]></description>
                    <styleUrl>#31</styleUrl>
                    <Point id="29">
                        <coordinates>-104.0441666667,39.4143333333,17877.43</coordinates>
                        <altitudeMode>absolute</altitudeMode>
                    </Point>
                </Placemark>
            </Folder>
        </Document>
    </Document>
</kml>
