<?xml version="1.0" encoding="UTF-8"?>
<kml xmlns="http://www.opengis.net/kml/2.2" xmlns:gx="http://www.google.com/kml/ext/2.2">
    <Document id="1">
        <Document id="2">
            <name>EOSS-380</name>
            <description><![CDATA[
    <h1>EOSS-380</h1>
    <table style="width: 100%;" cellpadding=0 cellspacing=0 border=0>
    <tr><td style="border: solid 1px black;border-bottom: 0; padding: 10px;"><strong>Launch Local Date/Time</strong></td><td style=" padding: 10px;border: solid 1px black;border-bottom: 0; border-left: 0;">2025-07-26 07:10:30</td></tr>
    <tr><td style="border: solid 1px black;border-bottom: 0; padding: 10px;"><strong>Flight Duration</strong></td><td style=" padding: 10px;border: solid 1px black;border-bottom: 0; border-left: 0; ">1hrs 38mins 0secs</td></tr>
    <tr><td style="border: solid 1px black;border-bottom: 0; padding: 10px;"><strong>Down Range Distance</strong></td><td style=" padding: 10px;border: solid 1px black;border-bottom: 0; border-left: 0; ">22.0mi (35.4km)</td></tr>
    <tr><td style="border: solid 1px black; padding: 10px;"><strong>Approx. Burst Altitude</strong></td><td style=" padding: 10px;border: solid 1px black; border-left: 0; ">98,123ft (29,907.9m)</td></tr>
    </table>
    ]]></description>
            <Folder id="3">
                <Style id="8">
                    <LineStyle id="9">
                        <color>ff0000ff</color>
                        <colorMode>normal</colorMode>
                        <width>3</width>
                    </LineStyle>
                </Style>
                <Style id="12">
                    <LineStyle id="13">
                        <color>ffff0000</color>
                        <colorMode>normal</colorMode>
                        <width>3</width>
                    </LineStyle>
                </Style>
                <name>Paths</name>
                <Placemark id="7">
                    <name>EOSS-380 Ascent</name>
                    <styleUrl>#8</styleUrl>
                    <LineString id="6">
                        <extrude>0</extrude>
                        <altitudeMode>absolute</altitudeMode>
                        <coordinates>-103.4951666667,39.2785,1742.54 -103.4953333333,39.2785,1744.98 -103.4951666667,39.2785,1763.57 -103.4943333333,39.2793333333,1881.84 -103.494,39.2798333333,1954.38 -103.4938333333,39.2798333333,1955.9 -103.4938333333,39.28,1975.71 -103.4925,39.2808333333,2097.33 -103.4916666667,39.2813333333,2190.9 -103.4916666667,39.2811666667,2171.7 -103.4916666667,39.2813333333,2168.65 -103.4905,39.2823333333,2317.7 -103.49,39.2828333333,2393.9 -103.49,39.283,2389.33 -103.4888333333,39.284,2534.11 -103.4883333333,39.2845,2612.14 -103.4883333333,39.2846666667,2631.03 -103.4883333333,39.2846666667,2606.95 -103.4871666667,39.2856666667,2758.14 -103.4866666667,39.2863333333,2834.03 -103.4866666667,39.2863333333,2858.11 -103.4865,39.2861666667,2837.08 -103.4856666667,39.287,2987.95 -103.4853333333,39.2873333333,3066.9 -103.4855,39.2875,3065.07 -103.4848333333,39.2876666667,3215.64 -103.4845,39.2878333333,3295.19 -103.4845,39.2878333333,3295.8 -103.4845,39.2878333333,3316.22 -103.4838333333,39.2878333333,3445.76 -103.4836666667,39.2878333333,3525.62 -103.4836666667,39.2878333333,3547.57 -103.4836666667,39.2876666667,3525.01 -103.4833333333,39.2876666667,3683.51 -103.4831666667,39.2876666667,3767.02 -103.4831666667,39.2875,3768.55 -103.4826666667,39.2876666667,3926.43 -103.4823333333,39.2878333333,4007.51 -103.4821666667,39.2878333333,4009.64 -103.4813333333,39.2881666667,4167.84 -103.4811666667,39.2883333333,4269.03 -103.4811666667,39.2883333333,4246.47 -103.4811666667,39.2883333333,4247.08 -103.4806666667,39.2885,4406.49 -103.4806666667,39.2888333333,4489.4 -103.4805,39.2888333333,4490.31 -103.4805,39.2888333333,4513.17 -103.4798333333,39.2891666667,4650.94 -103.4795,39.2893333333,4730.5 -103.4796666667,39.2895,4728.67 -103.4791666667,39.2901666667,4888.38 -103.479,39.2903333333,4970.37 -103.4791666667,39.2905,4968.54 -103.4788333333,39.2908333333,5128.87 -103.4786666667,39.2908333333,5216.96 -103.4788333333,39.291,5216.65 -103.4788333333,39.291,5237.99 -103.4783333333,39.2913333333,5383.07 -103.4778333333,39.2918333333,5487.01 -103.4778333333,39.2916666667,5465.98 -103.4781666667,39.2916666667,5435.8 -103.477,39.292,5633.31 -103.4768333333,39.292,5691.84 -103.4766666667,39.292,5716.83 -103.4758333333,39.2921666667,5881.42 -103.4756666667,39.2921666667,5957.32 -103.4755,39.2921666667,5967.07 -103.4756666667,39.2921666667,5986.27 -103.4746666667,39.2923333333,6124.65 -103.4745,39.2925,6195.67 -103.4745,39.2925,6202.98 -103.4736666667,39.2921666667,6357.21 -103.4735,39.2921666667,6434.02 -103.4735,39.2921666667,6439.51 -103.4733333333,39.2923333333,6594.96 -103.4731666667,39.2923333333,6677.25 -103.4731666667,39.2925,6672.68 -103.4726666667,39.2923333333,6834.23 -103.4723333333,39.2923333333,6921.7 -103.4723333333,39.2925,6941.52 -103.4725,39.2923333333,6917.13 -103.4715,39.2925,7073.19 -103.4711666667,39.2928333333,7154.88 -103.4711666667,39.2926666667,7157.01 -103.4711666667,39.2928333333,7178.65 -103.4695,39.2938333333,7317.64 -103.469,39.2948333333,7418.53 -103.469,39.2946666667,7396.58 -103.4688333333,39.2948333333,7394.75 -103.4676666667,39.2963333333,7571.23 -103.467,39.2971666667,7672.43 -103.4668333333,39.297,7650.78 -103.4668333333,39.2971666667,7647.43 -103.4653333333,39.2986666667,7818.12 -103.4646666667,39.2993333333,7895.84 -103.4646666667,39.2991666667,7897.98 -103.463,39.3001666667,8058.3 -103.462,39.3006666667,8141.21 -103.4621666667,39.301,8162.85 -103.462,39.3008333333,8139.38 -103.4596666667,39.3021666667,8305.19 -103.4588333333,39.303,8381.7 -103.4588333333,39.303,8406.08 -103.459,39.3028333333,8383.52 -103.4563333333,39.3043333333,8566.4 -103.4551666667,39.3055,8653.88 -103.4553333333,39.3053333333,8654.8 -103.4553333333,39.3055,8677.96 -103.4526666667,39.3076666667,8829.14 -103.4513333333,39.3088333333,8933.38 -103.4513333333,39.3088333333,8908.08 -103.4515,39.3086666667,8911.44 -103.4486666667,39.3111666667,9077.86 -103.4473333333,39.3125,9183.62 -103.4473333333,39.3125,9157.11 -103.4473333333,39.3123333333,9163.51 -103.444,39.315,9322.31 -103.4425,39.3161666667,9406.13 -103.4423333333,39.3163333333,9427.77 -103.4423333333,39.3163333333,9403.69 -103.4383333333,39.319,9566.76 -103.4366666667,39.3205,9653.02 -103.4365,39.3205,9676.49 -103.4366666667,39.3203333333,9655.15 -103.4318333333,39.323,9823.7 -103.4295,39.3243333333,9916.36 -103.4295,39.3243333333,9940.75 -103.4296666667,39.3241666667,9916.97 -103.4251666667,39.327,10082.48 -103.4231666667,39.3283333333,10173.0 -103.423,39.3286666667,10194.65 -103.4231666667,39.3285,10170.57 -103.4183333333,39.3316666667,10348.57 -103.4163333333,39.333,10443.06 -103.4161666667,39.3333333333,10466.83 -103.4161666667,39.3333333333,10442.75 -103.412,39.3365,10630.81 -103.41,39.3381666667,10747.25 -103.4101666667,39.3381666667,10723.47 -103.4101666667,39.338,10724.39 -103.406,39.3416666667,10906.96 -103.4043333333,39.3438333333,10999.93 -103.4043333333,39.3438333333,11022.18 -103.4045,39.3435,10999.62 -103.4006666667,39.3478333333,11190.12 -103.3988333333,39.35,11279.73 -103.399,39.3496666667,11280.95 -103.399,39.35,11302.29 -103.395,39.3538333333,11454.69 -103.3931666667,39.356,11566.86 -103.3931666667,39.356,11542.47 -103.3931666667,39.3556666667,11545.82 -103.3881666667,39.3598333333,11712.55 -103.3861666667,39.3618333333,11802.77 -103.386,39.362,11824.11 -103.386,39.3621666667,11800.94 -103.3805,39.3658333333,11984.43 -103.3785,39.3675,12078.0 -103.3785,39.3676666667,12103.3 -103.3785,39.3676666667,12078.0 -103.3735,39.3713333333,12261.49 -103.371,39.373,12365.74 -103.3708333333,39.3731666667,12341.96 -103.371,39.3728333333,12341.05 -103.3655,39.3758333333,12538.56 -103.363,39.3775,12653.16 -103.363,39.3773333333,12633.35 -103.3631666667,39.3771666667,12629.08 -103.3583333333,39.3806666667,12814.1 -103.3563333333,39.382,12904.93 -103.3561666667,39.3823333333,12927.79 -103.3563333333,39.3823333333,12907.06 -103.3521666667,39.3858333333,13095.43 -103.3503333333,39.3876666667,13192.05 -103.3503333333,39.3876666667,13213.38 -103.3505,39.3875,13191.74 -103.3465,39.391,13373.4 -103.3446666667,39.3925,13465.15 -103.3446666667,39.3925,13485.27 -103.3448333333,39.3921666667,13464.54 -103.3411666667,39.3951666667,13650.77 -103.3403333333,39.3965,13741.6 -103.3403333333,39.3966666667,13743.13 -103.3403333333,39.3966666667,13764.77 -103.3381666667,39.3996666667,13950.09 -103.3373333333,39.4013333333,14050.98 -103.3373333333,39.4011666667,14050.06 -103.3373333333,39.4013333333,14074.14 -103.3361666667,39.4048333333,14239.65 -103.3361666667,39.4065,14338.4 -103.3361666667,39.4061666667,14337.79 -103.3361666667,39.4065,14359.43 -103.3353333333,39.4095,14528.6 -103.3346666667,39.4113333333,14645.34 -103.3348333333,39.411,14613.33 -103.3346666667,39.4113333333,14625.22 -103.3333333333,39.414,14823.03 -103.333,39.4153333333,14948.31 -103.3331666667,39.4153333333,14930.32 -103.3328333333,39.415,14917.52 -103.3325,39.4181666667,15127.83 -103.3323333333,39.4195,15223.24 -103.3323333333,39.4196666667,15225.06 -103.3323333333,39.4196666667,15247.32 -103.3321666667,39.4216666667,15419.22 -103.3321666667,39.423,15517.37 -103.3321666667,39.423,15542.06 -103.3325,39.4256666667,15706.65 -103.3326666667,39.4266666667,15806.62 -103.3326666667,39.427,15806.93 -103.3326666667,39.427,15829.18 -103.3316666667,39.4291666667,15991.33 -103.3313333333,39.4301666667,16107.46 -103.3313333333,39.43,16082.47 -103.3313333333,39.4298333333,16083.99 -103.3301666667,39.4318333333,16272.66 -103.3298333333,39.4325,16380.87 -103.33,39.4323333333,16379.34 -103.3298333333,39.4325,16404.03 -103.3291666667,39.433,16591.18 -103.3285,39.4336666667,16716.15 -103.3285,39.4336666667,16692.07 -103.3285,39.4335,16689.32 -103.328,39.435,16899.03 -103.3273333333,39.4356666667,16999.31 -103.3271666667,39.4355,16996.26 -103.3273333333,39.4356666667,17020.95 -103.3268333333,39.4373333333,17215.1 -103.3266666667,39.4376666667,17339.16 -103.3265,39.4375,17315.08 -103.3266666667,39.4376666667,17312.64 -103.3266666667,39.4383333333,17525.7 -103.3265,39.4381666667,17649.75 -103.3263333333,39.4381666667,17626.28 -103.3265,39.4383333333,17625.97 -103.3281666667,39.4383333333,17831.1 -103.329,39.4385,17929.86 -103.3291666667,39.4386666667,17950.28 -103.329,39.4385,17934.43 -103.3311666667,39.4396666667,18101.46 -103.3315,39.44,18198.39 -103.3316666667,39.4401666667,18219.42 -103.3316666667,39.4401666667,18195.04 -103.3335,39.4418333333,18401.69 -103.3341666667,39.4423333333,18524.52 -103.334,39.4423333333,18518.43 -103.3341666667,39.4425,18540.37 -103.335,39.4436666667,18730.26 -103.3353333333,39.4441666667,18816.52 -103.3356666667,39.4443333333,18823.84 -103.3355,39.4441666667,18837.86 -103.3366666667,39.4443333333,19041.16 -103.3376666667,39.4448333333,19149.97 -103.3375,39.4448333333,19146.62 -103.3375,39.4448333333,19169.18 -103.3388333333,39.445,19355.41 -103.339,39.445,19433.74 -103.339,39.445,19454.16 -103.339,39.4451666667,19437.1 -103.3388333333,39.4445,19623.94 -103.339,39.4443333333,19738.85 -103.3388333333,39.4443333333,19718.73 -103.339,39.4443333333,19716.9 -103.3401666667,39.4443333333,19938.49 -103.3408333333,39.444,20035.72 -103.3411666667,39.444,20052.49 -103.3411666667,39.444,20027.49 -103.3446666667,39.4445,20279.56 -103.3445,39.4445,20294.5 -103.3443333333,39.4441666667,20264.63 -103.3455,39.4441666667,20428.61 -103.3456666667,39.4438333333,20506.33 -103.3455,39.444,20505.12 -103.3456666667,39.444,20523.71 -103.3468333333,39.4441666667,20681.29 -103.3473333333,39.4445,20755.66 -103.3475,39.4446666667,20755.05 -103.3473333333,39.4445,20775.47 -103.3481666667,39.4445,20971.15 -103.3483333333,39.4445,20991.27 -103.3485,39.4446666667,20964.45 -103.35,39.4436666667,21094.29 -103.351,39.4433333333,21168.97 -103.3511666667,39.4435,21190.92 -103.3511666667,39.4433333333,21171.41 -103.3533333333,39.443,21301.56 -103.3545,39.4428333333,21375.93 -103.3546666667,39.4428333333,21402.14 -103.3545,39.4428333333,21379.28 -103.3573333333,39.4426666667,21553.93 -103.3586666667,39.4426666667,21630.13 -103.3588333333,39.4428333333,21648.72 -103.359,39.4428333333,21628.0 -103.3611666667,39.4423333333,21768.82 -103.3625,39.4426666667,21844.41 -103.3626666667,39.4428333333,21865.74 -103.3628333333,39.4423333333,21766.07 -103.3655,39.4436666667,22008.08 -103.367,39.4445,22078.49 -103.367,39.4443333333,22105.01 -103.3668333333,39.4441666667,22086.72 -103.3693333333,39.445,22223.27 -103.3703333333,39.4453333333,22290.94 -103.3701666667,39.4451666667,22296.73 -103.3705,39.4453333333,22315.32 -103.3721666667,39.4453333333,22439.99 -103.3735,39.4455,22503.08 -103.3733333333,39.4455,22527.16 -103.3733333333,39.4455,22509.18 -103.3751666667,39.4448333333,22637.5 -103.3763333333,39.4446666667,22704.55 -103.3765,39.4448333333,22722.23 -103.3765,39.4448333333,22703.03 -103.3788333333,39.4445,22838.66 -103.3803333333,39.4445,22910.6 -103.3805,39.4443333333,22931.02 -103.3803333333,39.4443333333,22912.12 -103.3846666667,39.4455,23194.67 -103.3846666667,39.4455,23216.31 -103.3845,39.4453333333,23196.8 -103.387,39.4456666667,23362.92 -103.388,39.446,23462.59 -103.3878333333,39.4458333333,23443.08 -103.388,39.446,23447.04 -103.3903333333,39.4456666667,23593.35 -103.3916666667,39.4458333333,23686.31 -103.3915,39.4458333333,23666.5 -103.3918333333,39.4458333333,23668.63 -103.3941666667,39.4461666667,23802.75 -103.3956666667,39.446,23878.64 -103.3955,39.446,23876.51 -103.3956666667,39.4461666667,23897.23 -103.3986666667,39.446,24021.29 -103.4,39.446,24100.84 -103.4001666667,39.4461666667,24096.57 -103.4001666667,39.4461666667,24116.69 -103.4026666667,39.4466666667,24238.92 -103.4043333333,39.4471666667,24309.93 -103.404,39.4471666667,24315.12 -103.4043333333,39.4471666667,24334.01 -103.4068333333,39.4473333333,24453.8 -103.4085,39.4478333333,24546.76 -103.4081666667,39.4476666667,24528.17 -103.4085,39.4478333333,24571.76 -103.4111666667,39.4483333333,24665.64 -103.4123333333,39.4485,24736.65 -103.4126666667,39.4485,24742.44 -103.4126666667,39.4485,24755.86 -103.4158333333,39.449,24868.33 -103.4175,39.4495,24938.74 -103.4175,39.4493333333,24959.77 -103.4216666667,39.4508333333,25149.66 -103.422,39.4508333333,25148.44 -103.422,39.451,25168.25 -103.424,39.4518333333,25291.69 -103.4251666667,39.4521666667,25365.46 -103.4251666667,39.452,25365.46 -103.4253333333,39.452,25383.44 -103.4283333333,39.4523333333,25497.13 -103.43,39.453,25569.37 -103.4296666667,39.4528333333,25566.93 -103.4298333333,39.453,25586.74 -103.4318333333,39.4533333333,25704.39 -103.4336666667,39.4531666667,25781.51 -103.4338333333,39.4531666667,25802.54 -103.4335,39.4531666667,25782.42 -103.4391666667,39.453,26014.68 -103.4388333333,39.4528333333,26015.59 -103.4391666667,39.453,26034.49 -103.4418333333,39.453,26167.38 -103.4435,39.4526666667,26243.89 -103.4438333333,39.4526666667,26262.48 -103.4436666667,39.4526666667,26244.19 -103.4475,39.4521666667,26386.54 -103.4488333333,39.4516666667,26459.99 -103.449,39.4516666667,26478.59 -103.449,39.4518333333,26462.43 -103.4521666667,39.4501666667,26610.87 -103.4545,39.4495,26703.83 -103.4541666667,39.4495,26683.72 -103.4545,39.4495,26684.94 -103.4588333333,39.4488333333,26828.8 -103.461,39.4485,26921.76 -103.4608333333,39.4485,26900.43 -103.4606666667,39.4485,26900.73 -103.465,39.4476666667,27047.95 -103.4671666667,39.4473333333,27122.32 -103.4666666667,39.4473333333,27122.93 -103.467,39.4475,27140.92 -103.471,39.4466666667,27266.8 -103.4731666667,39.4461666667,27338.43 -103.4728333333,39.4463333333,27330.5 -103.4733333333,39.4461666667,27356.1 -103.478,39.4451666667,27479.85 -103.4805,39.445,27575.56 -103.4806666667,39.445,27554.22 -103.4801666667,39.4448333333,27556.36 -103.4851666667,39.4445,27698.09 -103.4878333333,39.4445,27770.63 -103.4871666667,39.4445,27767.58 -103.4878333333,39.4445,27795.02 -103.4945,39.4435,28012.64 -103.4943333333,39.4435,27991.31 -103.4945,39.4435,27988.56 -103.5006666667,39.4423333333,28213.81 -103.501,39.4423333333,28208.63 -103.501,39.4423333333,28234.84 -103.5056666667,39.4416666667,28350.36 -103.5075,39.4411666667,28422.9 -103.5078333333,39.4411666667,28419.86 -103.5078333333,39.4413333333,28445.16 -103.5126666667,39.4403333333,28566.16 -103.5148333333,39.4401666667,28639.01 -103.5151666667,39.4401666667,28661.56 -103.5151666667,39.4401666667,28636.26 -103.5201666667,39.4396666667,28774.64 -103.5225,39.4395,28845.36 -103.5228333333,39.4395,28842.0 -103.5228333333,39.4396666667,28866.08 -103.5278333333,39.4395,28993.8 -103.5296666667,39.4398333333,29067.25 -103.53,39.44,29089.2 -103.53,39.44,29065.73 -103.5343333333,39.4405,29197.1 -103.537,39.4405,29262.32 -103.537,39.4405,29285.79 -103.5366666667,39.4405,29265.98 -103.5415,39.4406666667,29399.48 -103.5435,39.4413333333,29489.7 -103.5431666667,39.4411666667,29468.67 -103.5435,39.4413333333,29468.67 -103.5478333333,39.4418333333,29604.31 -103.5505,39.4421666667,29669.84 -103.55,39.442,29672.89 -103.5503333333,39.4421666667,29693.01 -103.5553333333,39.4421666667,29813.4 -103.5585,39.4421666667,29907.89</coordinates>
                    </LineString>
                </Placemark>
                <Placemark id="11">
                    <name>EOSS-380 Descent</name>
                    <styleUrl>#12</styleUrl>
                    <LineString id="10">
                        <extrude>0</extrude>
                        <altitudeMode>absolute</altitudeMode>
                        <coordinates>-103.5585,39.4421666667,29907.89 -103.5641666667,39.4425,29448.86 -103.5661666667,39.443,28997.15 -103.566,39.4428333333,29027.02 -103.5663333333,39.4428333333,28976.73 -103.5725,39.4418333333,27768.19 -103.5721666667,39.4416666667,27824.58 -103.5725,39.4418333333,27798.06 -103.5763333333,39.4408333333,27023.26 -103.578,39.4405,26711.45 -103.5785,39.4405,26689.81 -103.5783333333,39.4405,26664.82 -103.5825,39.4391666667,25978.1 -103.584,39.4393333333,25665.07 -103.584,39.4393333333,25689.76 -103.5838333333,39.4391666667,25707.14 -103.587,39.4396666667,25044.81 -103.5885,39.44,24734.22 -103.5881666667,39.4398333333,24774.14 -103.5885,39.44,24760.12 -103.5916666667,39.4401666667,24155.4 -103.5928333333,39.4403333333,23897.23 -103.593,39.4403333333,23881.38 -103.5926666667,39.4403333333,23913.39 -103.595,39.4406666667,23335.18 -103.5965,39.441,23067.26 -103.5963333333,39.4408333333,23102.93 -103.5965,39.441,23089.21 -103.6,39.441,22311.36 -103.5998333333,39.4408333333,22321.11 -103.5998333333,39.441,22288.5 -103.6016666667,39.4415,21802.95 -103.603,39.4415,21572.22 -103.6031666667,39.4415,21588.68 -103.6026666667,39.4415,21625.26 -103.6055,39.4411666667,21105.88 -103.6063333333,39.441,20889.47 -103.6061666667,39.441,20912.63 -103.6063333333,39.4411666667,20903.49 -103.6071666667,39.4413333333,20444.46 -103.6076666667,39.4413333333,20286.57 -103.6081666667,39.4416666667,20255.18 -103.608,39.4415,20232.93 -103.6106666667,39.442,19666.0 -103.6106666667,39.4418333333,19634.0 -103.6108333333,39.442,19658.99 -103.6116666667,39.4418333333,19097.24 -103.6118333333,39.4418333333,19079.57 -103.6116666667,39.4418333333,19105.47 -103.6125,39.4425,18724.78 -103.6125,39.4428333333,18547.08 -103.6123333333,39.4428333333,18571.46 -103.613,39.4441666667,18188.64 -103.6138333333,39.4448333333,18036.24 -103.6138333333,39.4446666667,18040.81 -103.614,39.4448333333,18018.86 -103.6161666667,39.4458333333,17530.27 -103.6161666667,39.4456666667,17536.67 -103.6161666667,39.4458333333,17511.67 -103.6163333333,39.4465,17187.67 -103.6163333333,39.4476666667,17052.04 -103.6163333333,39.4475,17058.74 -103.6163333333,39.4475,17036.49 -103.6158333333,39.4486666667,16717.98 -103.6155,39.449,16544.85 -103.6156666667,39.4491666667,16517.42 -103.6156666667,39.4491666667,16538.75 -103.6146666667,39.4505,16230.9 -103.6143333333,39.4513333333,16078.2 -103.6143333333,39.4511666667,16102.89 -103.6143333333,39.4513333333,16099.84 -103.6131666667,39.4533333333,15793.52 -103.6135,39.4548333333,15647.52 -103.6135,39.4545,15668.55 -103.6135,39.4546666667,15666.42 -103.6131666667,39.4585,15225.06 -103.6131666667,39.4588333333,15222.93 -103.6131666667,39.4586666667,15200.38 -103.6128333333,39.4615,14930.63 -103.6128333333,39.4628333333,14821.81 -103.6128333333,39.463,14800.17 -103.6126666667,39.463,14820.9 -103.611,39.4661666667,14538.35 -103.6101666667,39.4681666667,14405.76 -103.6101666667,39.4681666667,14426.79 -103.6101666667,39.4678333333,14427.1 -103.6093333333,39.4721666667,14156.74 -103.609,39.4735,14056.77 -103.609,39.4736666667,14038.17 -103.6073333333,39.4773333333,13796.47 -103.6065,39.479,13688.57 -103.6065,39.4786666667,13691.01 -103.6063333333,39.479,13673.33 -103.6033333333,39.4818333333,13415.77 -103.6018333333,39.4836666667,13303.61 -103.6016666667,39.4836666667,13284.4 -103.6018333333,39.4835,13303.61 -103.5976666667,39.4876666667,13024.41 -103.5956666667,39.4896666667,12922.3 -103.5958333333,39.4893333333,12923.82 -103.5956666667,39.4896666667,12902.49 -103.591,39.4931666667,12664.14 -103.5886666667,39.4946666667,12563.55 -103.5886666667,39.4945,12563.86 -103.5885,39.4948333333,12544.04 -103.5828333333,39.4981666667,12306.6 -103.5805,39.5001666667,12188.34 -103.5805,39.4998333333,12208.76 -103.5805,39.5,12209.37 -103.5751666667,39.5041666667,11962.79 -103.5725,39.5065,11849.1 -103.5726666667,39.5061666667,11869.52 -103.5656666667,39.5128333333,11519.31 -103.5656666667,39.5125,11540.34 -103.5616666667,39.5168333333,11308.69 -103.5595,39.5186666667,11221.52 -103.5593333333,39.5188333333,11224.26 -103.5593333333,39.519,11201.4 -103.5551666667,39.5228333333,11006.33 -103.5531666667,39.525,10929.21 -103.5533333333,39.5246666667,10925.25 -103.5531666667,39.525,10909.4 -103.5488333333,39.529,10712.2 -103.547,39.5306666667,10634.17 -103.5468333333,39.5308333333,10637.52 -103.5466666667,39.5308333333,10621.98 -103.5425,39.5345,10433.3 -103.5403333333,39.5361666667,10355.88 -103.5401666667,39.5365,10343.69 -103.54,39.5363333333,10359.54 -103.5355,39.5398333333,10159.29 -103.5335,39.5415,10071.2 -103.5336666667,39.5411666667,10086.14 -103.5335,39.5415,10088.88 -103.529,39.5446666667,9882.84 -103.5268333333,39.5461666667,9802.67 -103.5266666667,39.5463333333,9785.3 -103.5266666667,39.5463333333,9806.03 -103.5221666667,39.5495,9597.85 -103.5203333333,39.5513333333,9514.03 -103.5203333333,39.5513333333,9532.32 -103.5166666667,39.5545,9337.85 -103.5151666667,39.556,9250.68 -103.5153333333,39.556,9270.49 -103.5123333333,39.5588333333,9075.12 -103.511,39.5603333333,9008.67 -103.5111666667,39.5601666667,9004.1 -103.5111666667,39.5603333333,8985.2 -103.5088333333,39.5625,8817.86 -103.5078333333,39.5635,8745.63 -103.5076666667,39.5635,8730.69 -103.5076666667,39.5636666667,8750.2 -103.5055,39.5653333333,8559.39 -103.5046666667,39.5663333333,8471.61 -103.5046666667,39.5661666667,8488.68 -103.5045,39.5665,8492.64 -103.5026666667,39.5676666667,8302.75 -103.5016666667,39.5683333333,8236.0 -103.5015,39.5686666667,8239.05 -103.5016666667,39.5685,8217.41 -103.4993333333,39.57,8049.16 -103.4983333333,39.5708333333,7967.17 -103.4983333333,39.571,7988.2 -103.4985,39.5708333333,7983.63 -103.4961666667,39.5725,7805.01 -103.4953333333,39.5733333333,7731.25 -103.4953333333,39.5735,7748.32 -103.4953333333,39.5731666667,7744.66 -103.493,39.5748333333,7571.84 -103.4921666667,39.5755,7494.73 -103.4921666667,39.5755,7516.37 -103.4923333333,39.5753333333,7512.71 -103.4901666667,39.5775,7278.93 -103.4901666667,39.5776666667,7283.5 -103.4901666667,39.5775,7262.47 -103.4895,39.5783333333,7052.46 -103.4895,39.5783333333,7055.21 -103.4896666667,39.5783333333,7034.78 -103.4886666667,39.5786666667,6871.72 -103.4886666667,39.5788333333,6812.89 -103.4886666667,39.579,6816.24 -103.4886666667,39.579,6793.69 -103.4886666667,39.5791666667,6634.58 -103.4886666667,39.5795,6576.36 -103.4886666667,39.5795,6581.24 -103.4888333333,39.5795,6562.34 -103.4885,39.5798333333,6411.77 -103.4886666667,39.5801666667,6334.66 -103.4885,39.5801666667,6351.12 -103.4881666667,39.5805,6190.79 -103.488,39.5808333333,6139.89 -103.4873333333,39.5811666667,5973.47 -103.487,39.5813333333,5903.06 -103.4868333333,39.5813333333,5923.79 -103.4868333333,39.5811666667,5918.0 -103.486,39.5815,5745.48 -103.4855,39.5816666667,5689.7 -103.4856666667,39.5815,5685.43 -103.4856666667,39.5816666667,5670.19 -103.4846666667,39.582,5522.37 -103.4843333333,39.5821666667,5459.88 -103.4843333333,39.5821666667,5439.16 -103.4841666667,39.5821666667,5455.31 -103.4835,39.5821666667,5288.58 -103.4833333333,39.5826666667,5238.6 -103.4833333333,39.5826666667,5217.26 -103.4831666667,39.5825,5241.04 -103.4823333333,39.5826666667,5070.65 -103.482,39.583,5020.36 -103.482,39.5831666667,5024.63 -103.482,39.5831666667,5004.51 -103.481,39.5835,4864.3 -103.4806666667,39.5838333333,4812.79 -103.4806666667,39.5838333333,4816.14 -103.4805,39.5838333333,4795.42 -103.4795,39.584,4648.2 -103.479,39.5843333333,4579.01 -103.479,39.5841666667,4594.86 -103.479,39.5843333333,4598.82 -103.478,39.5846666667,4436.36 -103.4775,39.5851666667,4390.03 -103.4775,39.5853333333,4370.53 -103.4775,39.5851666667,4391.86 -103.4763333333,39.5855,4226.66 -103.476,39.5858333333,4177.59 -103.476,39.5858333333,4174.24 -103.4761666667,39.5858333333,4157.78 -103.4748333333,39.5861666667,4015.74 -103.4746666667,39.5865,3969.11 -103.4746666667,39.5863333333,3964.84 -103.4746666667,39.5863333333,3948.99 -103.474,39.5866666667,3807.26 -103.4736666667,39.5871666667,3763.06 -103.4736666667,39.587,3739.59 -103.4736666667,39.587,3757.27 -103.4735,39.5876666667,3606.7 -103.4736666667,39.5876666667,3557.32 -103.4738333333,39.5878333333,3543.0 -103.4731666667,39.588,3407.66 -103.4733333333,39.5881666667,3359.2 -103.4733333333,39.5881666667,3354.63 -103.4733333333,39.5881666667,3339.08 -103.4733333333,39.588,3199.18 -103.4731666667,39.588,3135.48 -103.4731666667,39.5878333333,3151.02 -103.4731666667,39.588,3158.34 -103.4728333333,39.5881666667,3001.67 -103.4726666667,39.5885,2938.58 -103.4725,39.5883333333,2953.51 -103.4726666667,39.5885,2961.13 -103.4718333333,39.5886666667,2800.81 -103.4715,39.589,2731.31 -103.4715,39.5888333333,2747.77 -103.4716666667,39.589,2754.78 -103.4706666667,39.5895,2600.25 -103.47,39.5898333333,2553.0 -103.47,39.59,2538.68 -103.4685,39.5913333333,2359.46 -103.4685,39.5915,2344.22 -103.4671666667,39.5921666667,2212.24 -103.4668333333,39.5926666667,2170.48 -103.4668333333,39.5926666667,2165.3 -103.4668333333,39.5926666667,2150.36 -103.4655,39.5936666667,2021.74 -103.465,39.5941666667,1960.17 -103.465,39.594,1975.41 -103.465,39.5941666667,1979.37 -103.4638333333,39.5948333333,1831.54 -103.463,39.5951666667,1784.6 -103.463,39.5953333333,1791.61 -103.463,39.5953333333,1769.36 -103.462,39.5961666667,1643.79 -103.462,39.5965,1606.6</coordinates>
                    </LineString>
                </Placemark>
            </Folder>
            <Folder id="4">
                <Style id="43">
                    <IconStyle id="44">
                        <color>ff0000ff</color>
                        <colorMode>normal</colorMode>
                        <scale>1</scale>
                        <heading>0</heading>
                        <Icon id="45">
                            <href>https://maps.google.com/mapfiles/kml/shapes/placemark_circle.png</href>
                        </Icon>
                    </IconStyle>
                </Style>
                <Style id="48">
                    <IconStyle id="49">
                        <color>ff0000ff</color>
                        <colorMode>normal</colorMode>
                        <scale>1</scale>
                        <heading>0</heading>
                        <Icon id="50">
                            <href>https://maps.google.com/mapfiles/kml/shapes/placemark_circle.png</href>
                        </Icon>
                    </IconStyle>
                </Style>
                <Style id="53">
                    <IconStyle id="54">
                        <color>ff0000ff</color>
                        <colorMode>normal</colorMode>
                        <scale>1</scale>
                        <heading>0</heading>
                        <Icon id="55">
                            <href>https://maps.google.com/mapfiles/kml/shapes/placemark_circle.png</href>
                        </Icon>
                    </IconStyle>
                </Style>
                <Style id="58">
                    <IconStyle id="59">
                        <color>ff0000ff</color>
                        <colorMode>normal</colorMode>
                        <scale>1</scale>
                        <heading>0</heading>
                        <Icon id="60">
                            <href>https://maps.google.com/mapfiles/kml/shapes/placemark_circle.png</href>
                        </Icon>
                    </IconStyle>
                </Style>
                <Style id="63">
                    <IconStyle id="64">
                        <color>ff0000ff</color>
                        <colorMode>normal</colorMode>
                        <scale>1</scale>
                        <heading>0</heading>
                        <Icon id="65">
                            <href>https://maps.google.com/mapfiles/kml/shapes/placemark_circle.png</href>
                        </Icon>
                    </IconStyle>
                </Style>
                <Style id="68">
                    <IconStyle id="69">
                        <color>ff0000ff</color>
                        <colorMode>normal</colorMode>
                        <scale>1</scale>
                        <heading>0</heading>
                        <Icon id="70">
                            <href>https://maps.google.com/mapfiles/kml/shapes/placemark_circle.png</href>
                        </Icon>
                    </IconStyle>
                </Style>
                <Style id="73">
                    <IconStyle id="74">
                        <color>ff0000ff</color>
                        <colorMode>normal</colorMode>
                        <scale>1</scale>
                        <heading>0</heading>
                        <Icon id="75">
                            <href>https://maps.google.com/mapfiles/kml/shapes/placemark_circle.png</href>
                        </Icon>
                    </IconStyle>
                </Style>
                <Style id="78">
                    <IconStyle id="79">
                        <color>ff0000ff</color>
                        <colorMode>normal</colorMode>
                        <scale>1</scale>
                        <heading>0</heading>
                        <Icon id="80">
                            <href>https://maps.google.com/mapfiles/kml/shapes/placemark_circle.png</href>
                        </Icon>
                    </IconStyle>
                </Style>
                <Style id="83">
                    <IconStyle id="84">
                        <color>ff0000ff</color>
                        <colorMode>normal</colorMode>
                        <scale>1</scale>
                        <heading>0</heading>
                        <Icon id="85">
                            <href>https://maps.google.com/mapfiles/kml/shapes/placemark_circle.png</href>
                        </Icon>
                    </IconStyle>
                </Style>
                <Style id="88">
                    <IconStyle id="89">
                        <color>ffff0000</color>
                        <colorMode>normal</colorMode>
                        <scale>1</scale>
                        <heading>0</heading>
                        <Icon id="90">
                            <href>https://maps.google.com/mapfiles/kml/shapes/placemark_circle.png</href>
                        </Icon>
                    </IconStyle>
                </Style>
                <Style id="93">
                    <IconStyle id="94">
                        <color>ffff0000</color>
                        <colorMode>normal</colorMode>
                        <scale>1</scale>
                        <heading>0</heading>
                        <Icon id="95">
                            <href>https://maps.google.com/mapfiles/kml/shapes/placemark_circle.png</href>
                        </Icon>
                    </IconStyle>
                </Style>
                <Style id="98">
                    <IconStyle id="99">
                        <color>ffff0000</color>
                        <colorMode>normal</colorMode>
                        <scale>1</scale>
                        <heading>0</heading>
                        <Icon id="100">
                            <href>https://maps.google.com/mapfiles/kml/shapes/placemark_circle.png</href>
                        </Icon>
                    </IconStyle>
                </Style>
                <Style id="103">
                    <IconStyle id="104">
                        <color>ffff0000</color>
                        <colorMode>normal</colorMode>
                        <scale>1</scale>
                        <heading>0</heading>
                        <Icon id="105">
                            <href>https://maps.google.com/mapfiles/kml/shapes/placemark_circle.png</href>
                        </Icon>
                    </IconStyle>
                </Style>
                <Style id="108">
                    <IconStyle id="109">
                        <color>ffff0000</color>
                        <colorMode>normal</colorMode>
                        <scale>1</scale>
                        <heading>0</heading>
                        <Icon id="110">
                            <href>https://maps.google.com/mapfiles/kml/shapes/placemark_circle.png</href>
                        </Icon>
                    </IconStyle>
                </Style>
                <Style id="113">
                    <IconStyle id="114">
                        <color>ffff0000</color>
                        <colorMode>normal</colorMode>
                        <scale>1</scale>
                        <heading>0</heading>
                        <Icon id="115">
                            <href>https://maps.google.com/mapfiles/kml/shapes/placemark_circle.png</href>
                        </Icon>
                    </IconStyle>
                </Style>
                <Style id="118">
                    <IconStyle id="119">
                        <color>ffff0000</color>
                        <colorMode>normal</colorMode>
                        <scale>1</scale>
                        <heading>0</heading>
                        <Icon id="120">
                            <href>https://maps.google.com/mapfiles/kml/shapes/placemark_circle.png</href>
                        </Icon>
                    </IconStyle>
                </Style>
                <Style id="123">
                    <IconStyle id="124">
                        <color>ffff0000</color>
                        <colorMode>normal</colorMode>
                        <scale>1</scale>
                        <heading>0</heading>
                        <Icon id="125">
                            <href>https://maps.google.com/mapfiles/kml/shapes/placemark_circle.png</href>
                        </Icon>
                    </IconStyle>
                </Style>
                <Style id="128">
                    <IconStyle id="129">
                        <color>ffff0000</color>
                        <colorMode>normal</colorMode>
                        <scale>1</scale>
                        <heading>0</heading>
                        <Icon id="130">
                            <href>https://maps.google.com/mapfiles/kml/shapes/placemark_circle.png</href>
                        </Icon>
                    </IconStyle>
                </Style>
                <name>Waypoints</name>
                <Placemark id="42">
                    <name>10k</name>
                    <description><![CDATA[
        <h1>Waypoint</h1>
        <table style="width: 100%;" cellpadding=0 cellspacing=0 border=0>
        <tr><td style="padding: 10px; border: solid 1px black;border-bottom: 0;"><strong>Local Time</strong></td><td style="border: solid 1px black;border-left: 0; border-bottom: 0; padding: 10px;">07:13:30</td></tr>
        <tr><td style="padding: 10px; border: solid 1px black;border-bottom: 0;"><strong>Altitude</strong></td><td style="border: solid 1px black;border-left: 0; border-bottom: 0; padding: 10px;">10,056ft (3,065.1m)</td></tr>
        <tr><td style="padding: 10px; border: solid 1px black;"><strong>Coordinates</strong></td><td style="border: solid 1px black; border-left: 0; padding: 10px;">39.2875, -103.4855</td></tr>
        </table>
        ]]></description>
                    <styleUrl>#43</styleUrl>
                    <Point id="41">
                        <coordinates>-103.4855,39.2875,3065.07</coordinates>
                        <altitudeMode>absolute</altitudeMode>
                    </Point>
                </Placemark>
                <Placemark id="47">
                    <name>20k</name>
                    <description><![CDATA[
        <h1>Waypoint</h1>
        <table style="width: 100%;" cellpadding=0 cellspacing=0 border=0>
        <tr><td style="padding: 10px; border: solid 1px black;border-bottom: 0;"><strong>Local Time</strong></td><td style="border: solid 1px black;border-left: 0; border-bottom: 0; padding: 10px;">07:19:50</td></tr>
        <tr><td style="padding: 10px; border: solid 1px black;border-bottom: 0;"><strong>Altitude</strong></td><td style="border: solid 1px black;border-left: 0; border-bottom: 0; padding: 10px;">20,094ft (6,124.6m)</td></tr>
        <tr><td style="padding: 10px; border: solid 1px black;"><strong>Coordinates</strong></td><td style="border: solid 1px black; border-left: 0; padding: 10px;">39.29233333, -103.47466667</td></tr>
        </table>
        ]]></description>
                    <styleUrl>#48</styleUrl>
                    <Point id="46">
                        <coordinates>-103.4746666667,39.2923333333,6124.65</coordinates>
                        <altitudeMode>absolute</altitudeMode>
                    </Point>
                </Placemark>
                <Placemark id="52">
                    <name>30k</name>
                    <description><![CDATA[
        <h1>Waypoint</h1>
        <table style="width: 100%;" cellpadding=0 cellspacing=0 border=0>
        <tr><td style="padding: 10px; border: solid 1px black;border-bottom: 0;"><strong>Local Time</strong></td><td style="border: solid 1px black;border-left: 0; border-bottom: 0; padding: 10px;">07:26:00</td></tr>
        <tr><td style="padding: 10px; border: solid 1px black;border-bottom: 0;"><strong>Altitude</strong></td><td style="border: solid 1px black;border-left: 0; border-bottom: 0; padding: 10px;">30,043ft (9,157.1m)</td></tr>
        <tr><td style="padding: 10px; border: solid 1px black;"><strong>Coordinates</strong></td><td style="border: solid 1px black; border-left: 0; padding: 10px;">39.3125, -103.44733333</td></tr>
        </table>
        ]]></description>
                    <styleUrl>#53</styleUrl>
                    <Point id="51">
                        <coordinates>-103.4473333333,39.3125,9157.11</coordinates>
                        <altitudeMode>absolute</altitudeMode>
                    </Point>
                </Placemark>
                <Placemark id="57">
                    <name>40k</name>
                    <description><![CDATA[
        <h1>Waypoint</h1>
        <table style="width: 100%;" cellpadding=0 cellspacing=0 border=0>
        <tr><td style="padding: 10px; border: solid 1px black;border-bottom: 0;"><strong>Local Time</strong></td><td style="border: solid 1px black;border-left: 0; border-bottom: 0; padding: 10px;">07:31:50</td></tr>
        <tr><td style="padding: 10px; border: solid 1px black;border-bottom: 0;"><strong>Altitude</strong></td><td style="border: solid 1px black;border-left: 0; border-bottom: 0; padding: 10px;">40,228ft (12,261.5m)</td></tr>
        <tr><td style="padding: 10px; border: solid 1px black;"><strong>Coordinates</strong></td><td style="border: solid 1px black; border-left: 0; padding: 10px;">39.37133333, -103.3735</td></tr>
        </table>
        ]]></description>
                    <styleUrl>#58</styleUrl>
                    <Point id="56">
                        <coordinates>-103.3735,39.3713333333,12261.49</coordinates>
                        <altitudeMode>absolute</altitudeMode>
                    </Point>
                </Placemark>
                <Placemark id="62">
                    <name>50k</name>
                    <description><![CDATA[
        <h1>Waypoint</h1>
        <table style="width: 100%;" cellpadding=0 cellspacing=0 border=0>
        <tr><td style="padding: 10px; border: solid 1px black;border-bottom: 0;"><strong>Local Time</strong></td><td style="border: solid 1px black;border-left: 0; border-bottom: 0; padding: 10px;">07:37:00</td></tr>
        <tr><td style="padding: 10px; border: solid 1px black;border-bottom: 0;"><strong>Altitude</strong></td><td style="border: solid 1px black;border-left: 0; border-bottom: 0; padding: 10px;">50,024ft (15,247.3m)</td></tr>
        <tr><td style="padding: 10px; border: solid 1px black;"><strong>Coordinates</strong></td><td style="border: solid 1px black; border-left: 0; padding: 10px;">39.41966667, -103.33233333</td></tr>
        </table>
        ]]></description>
                    <styleUrl>#63</styleUrl>
                    <Point id="61">
                        <coordinates>-103.3323333333,39.4196666667,15247.32</coordinates>
                        <altitudeMode>absolute</altitudeMode>
                    </Point>
                </Placemark>
                <Placemark id="67">
                    <name>60k</name>
                    <description><![CDATA[
        <h1>Waypoint</h1>
        <table style="width: 100%;" cellpadding=0 cellspacing=0 border=0>
        <tr><td style="padding: 10px; border: solid 1px black;border-bottom: 0;"><strong>Local Time</strong></td><td style="border: solid 1px black;border-left: 0; border-bottom: 0; padding: 10px;">07:42:00</td></tr>
        <tr><td style="padding: 10px; border: solid 1px black;border-bottom: 0;"><strong>Altitude</strong></td><td style="border: solid 1px black;border-left: 0; border-bottom: 0; padding: 10px;">59,775ft (18,219.4m)</td></tr>
        <tr><td style="padding: 10px; border: solid 1px black;"><strong>Coordinates</strong></td><td style="border: solid 1px black; border-left: 0; padding: 10px;">39.44016667, -103.33166667</td></tr>
        </table>
        ]]></description>
                    <styleUrl>#68</styleUrl>
                    <Point id="66">
                        <coordinates>-103.3316666667,39.4401666667,18219.42</coordinates>
                        <altitudeMode>absolute</altitudeMode>
                    </Point>
                </Placemark>
                <Placemark id="72">
                    <name>70k</name>
                    <description><![CDATA[
        <h1>Waypoint</h1>
        <table style="width: 100%;" cellpadding=0 cellspacing=0 border=0>
        <tr><td style="padding: 10px; border: solid 1px black;border-bottom: 0;"><strong>Local Time</strong></td><td style="border: solid 1px black;border-left: 0; border-bottom: 0; padding: 10px;">07:47:50</td></tr>
        <tr><td style="padding: 10px; border: solid 1px black;border-bottom: 0;"><strong>Altitude</strong></td><td style="border: solid 1px black;border-left: 0; border-bottom: 0; padding: 10px;">69,887ft (21,301.6m)</td></tr>
        <tr><td style="padding: 10px; border: solid 1px black;"><strong>Coordinates</strong></td><td style="border: solid 1px black; border-left: 0; padding: 10px;">39.443, -103.35333333</td></tr>
        </table>
        ]]></description>
                    <styleUrl>#73</styleUrl>
                    <Point id="71">
                        <coordinates>-103.3533333333,39.443,21301.56</coordinates>
                        <altitudeMode>absolute</altitudeMode>
                    </Point>
                </Placemark>
                <Placemark id="77">
                    <name>80k</name>
                    <description><![CDATA[
        <h1>Waypoint</h1>
        <table style="width: 100%;" cellpadding=0 cellspacing=0 border=0>
        <tr><td style="padding: 10px; border: solid 1px black;border-bottom: 0;"><strong>Local Time</strong></td><td style="border: solid 1px black;border-left: 0; border-bottom: 0; padding: 10px;">07:54:30</td></tr>
        <tr><td style="padding: 10px; border: solid 1px black;border-bottom: 0;"><strong>Altitude</strong></td><td style="border: solid 1px black;border-left: 0; border-bottom: 0; padding: 10px;">79,836ft (24,334.0m)</td></tr>
        <tr><td style="padding: 10px; border: solid 1px black;"><strong>Coordinates</strong></td><td style="border: solid 1px black; border-left: 0; padding: 10px;">39.44716667, -103.40433333</td></tr>
        </table>
        ]]></description>
                    <styleUrl>#78</styleUrl>
                    <Point id="76">
                        <coordinates>-103.4043333333,39.4471666667,24334.01</coordinates>
                        <altitudeMode>absolute</altitudeMode>
                    </Point>
                </Placemark>
                <Placemark id="82">
                    <name>90k</name>
                    <description><![CDATA[
        <h1>Waypoint</h1>
        <table style="width: 100%;" cellpadding=0 cellspacing=0 border=0>
        <tr><td style="padding: 10px; border: solid 1px black;border-bottom: 0;"><strong>Local Time</strong></td><td style="border: solid 1px black;border-left: 0; border-bottom: 0; padding: 10px;">08:01:50</td></tr>
        <tr><td style="padding: 10px; border: solid 1px black;border-bottom: 0;"><strong>Altitude</strong></td><td style="border: solid 1px black;border-left: 0; border-bottom: 0; padding: 10px;">90,157ft (27,479.8m)</td></tr>
        <tr><td style="padding: 10px; border: solid 1px black;"><strong>Coordinates</strong></td><td style="border: solid 1px black; border-left: 0; padding: 10px;">39.44516667, -103.478</td></tr>
        </table>
        ]]></description>
                    <styleUrl>#83</styleUrl>
                    <Point id="81">
                        <coordinates>-103.478,39.4451666667,27479.85</coordinates>
                        <altitudeMode>absolute</altitudeMode>
                    </Point>
                </Placemark>
                <Placemark id="87">
                    <name>10k</name>
                    <description><![CDATA[
        <h1>Waypoint</h1>
        <table style="width: 100%;" cellpadding=0 cellspacing=0 border=0>
        <tr><td style="padding: 10px; border: solid 1px black;border-bottom: 0;"><strong>Local Time</strong></td><td style="border: solid 1px black;border-left: 0; border-bottom: 0; padding: 10px;">08:40:50</td></tr>
        <tr><td style="padding: 10px; border: solid 1px black;border-bottom: 0;"><strong>Altitude</strong></td><td style="border: solid 1px black;border-left: 0; border-bottom: 0; padding: 10px;">9,848ft (3,001.7m)</td></tr>
        <tr><td style="padding: 10px; border: solid 1px black;"><strong>Coordinates</strong></td><td style="border: solid 1px black; border-left: 0; padding: 10px;">39.58816667, -103.47283333</td></tr>
        </table>
        ]]></description>
                    <styleUrl>#88</styleUrl>
                    <Point id="86">
                        <coordinates>-103.4728333333,39.5881666667,3001.67</coordinates>
                        <altitudeMode>absolute</altitudeMode>
                    </Point>
                </Placemark>
                <Placemark id="92">
                    <name>20k</name>
                    <description><![CDATA[
        <h1>Waypoint</h1>
        <table style="width: 100%;" cellpadding=0 cellspacing=0 border=0>
        <tr><td style="padding: 10px; border: solid 1px black;border-bottom: 0;"><strong>Local Time</strong></td><td style="border: solid 1px black;border-left: 0; border-bottom: 0; padding: 10px;">08:33:30</td></tr>
        <tr><td style="padding: 10px; border: solid 1px black;border-bottom: 0;"><strong>Altitude</strong></td><td style="border: solid 1px black;border-left: 0; border-bottom: 0; padding: 10px;">20,144ft (6,139.9m)</td></tr>
        <tr><td style="padding: 10px; border: solid 1px black;"><strong>Coordinates</strong></td><td style="border: solid 1px black; border-left: 0; padding: 10px;">39.58083333, -103.488</td></tr>
        </table>
        ]]></description>
                    <styleUrl>#93</styleUrl>
                    <Point id="91">
                        <coordinates>-103.488,39.5808333333,6139.89</coordinates>
                        <altitudeMode>absolute</altitudeMode>
                    </Point>
                </Placemark>
                <Placemark id="97">
                    <name>30k</name>
                    <description><![CDATA[
        <h1>Waypoint</h1>
        <table style="width: 100%;" cellpadding=0 cellspacing=0 border=0>
        <tr><td style="padding: 10px; border: solid 1px black;border-bottom: 0;"><strong>Local Time</strong></td><td style="border: solid 1px black;border-left: 0; border-bottom: 0; padding: 10px;">08:27:20</td></tr>
        <tr><td style="padding: 10px; border: solid 1px black;border-bottom: 0;"><strong>Altitude</strong></td><td style="border: solid 1px black;border-left: 0; border-bottom: 0; padding: 10px;">29,774ft (9,075.1m)</td></tr>
        <tr><td style="padding: 10px; border: solid 1px black;"><strong>Coordinates</strong></td><td style="border: solid 1px black; border-left: 0; padding: 10px;">39.55883333, -103.51233333</td></tr>
        </table>
        ]]></description>
                    <styleUrl>#98</styleUrl>
                    <Point id="96">
                        <coordinates>-103.5123333333,39.5588333333,9075.12</coordinates>
                        <altitudeMode>absolute</altitudeMode>
                    </Point>
                </Placemark>
                <Placemark id="102">
                    <name>40k</name>
                    <description><![CDATA[
        <h1>Waypoint</h1>
        <table style="width: 100%;" cellpadding=0 cellspacing=0 border=0>
        <tr><td style="padding: 10px; border: solid 1px black;border-bottom: 0;"><strong>Local Time</strong></td><td style="border: solid 1px black;border-left: 0; border-bottom: 0; padding: 10px;">08:22:00</td></tr>
        <tr><td style="padding: 10px; border: solid 1px black;border-bottom: 0;"><strong>Altitude</strong></td><td style="border: solid 1px black;border-left: 0; border-bottom: 0; padding: 10px;">39,988ft (12,188.3m)</td></tr>
        <tr><td style="padding: 10px; border: solid 1px black;"><strong>Coordinates</strong></td><td style="border: solid 1px black; border-left: 0; padding: 10px;">39.50016667, -103.5805</td></tr>
        </table>
        ]]></description>
                    <styleUrl>#103</styleUrl>
                    <Point id="101">
                        <coordinates>-103.5805,39.5001666667,12188.34</coordinates>
                        <altitudeMode>absolute</altitudeMode>
                    </Point>
                </Placemark>
                <Placemark id="107">
                    <name>50k</name>
                    <description><![CDATA[
        <h1>Waypoint</h1>
        <table style="width: 100%;" cellpadding=0 cellspacing=0 border=0>
        <tr><td style="padding: 10px; border: solid 1px black;border-bottom: 0;"><strong>Local Time</strong></td><td style="border: solid 1px black;border-left: 0; border-bottom: 0; padding: 10px;">08:18:00</td></tr>
        <tr><td style="padding: 10px; border: solid 1px black;border-bottom: 0;"><strong>Altitude</strong></td><td style="border: solid 1px black;border-left: 0; border-bottom: 0; padding: 10px;">49,951ft (15,225.1m)</td></tr>
        <tr><td style="padding: 10px; border: solid 1px black;"><strong>Coordinates</strong></td><td style="border: solid 1px black; border-left: 0; padding: 10px;">39.4585, -103.61316667</td></tr>
        </table>
        ]]></description>
                    <styleUrl>#108</styleUrl>
                    <Point id="106">
                        <coordinates>-103.6131666667,39.4585,15225.06</coordinates>
                        <altitudeMode>absolute</altitudeMode>
                    </Point>
                </Placemark>
                <Placemark id="112">
                    <name>60k</name>
                    <description><![CDATA[
        <h1>Waypoint</h1>
        <table style="width: 100%;" cellpadding=0 cellspacing=0 border=0>
        <tr><td style="padding: 10px; border: solid 1px black;border-bottom: 0;"><strong>Local Time</strong></td><td style="border: solid 1px black;border-left: 0; border-bottom: 0; padding: 10px;">08:14:50</td></tr>
        <tr><td style="padding: 10px; border: solid 1px black;border-bottom: 0;"><strong>Altitude</strong></td><td style="border: solid 1px black;border-left: 0; border-bottom: 0; padding: 10px;">59,674ft (18,188.6m)</td></tr>
        <tr><td style="padding: 10px; border: solid 1px black;"><strong>Coordinates</strong></td><td style="border: solid 1px black; border-left: 0; padding: 10px;">39.44416667, -103.613</td></tr>
        </table>
        ]]></description>
                    <styleUrl>#113</styleUrl>
                    <Point id="111">
                        <coordinates>-103.613,39.4441666667,18188.64</coordinates>
                        <altitudeMode>absolute</altitudeMode>
                    </Point>
                </Placemark>
                <Placemark id="117">
                    <name>69k</name>
                    <description><![CDATA[
        <h1>Waypoint</h1>
        <table style="width: 100%;" cellpadding=0 cellspacing=0 border=0>
        <tr><td style="padding: 10px; border: solid 1px black;border-bottom: 0;"><strong>Local Time</strong></td><td style="border: solid 1px black;border-left: 0; border-bottom: 0; padding: 10px;">08:12:20</td></tr>
        <tr><td style="padding: 10px; border: solid 1px black;border-bottom: 0;"><strong>Altitude</strong></td><td style="border: solid 1px black;border-left: 0; border-bottom: 0; padding: 10px;">69,245ft (21,105.9m)</td></tr>
        <tr><td style="padding: 10px; border: solid 1px black;"><strong>Coordinates</strong></td><td style="border: solid 1px black; border-left: 0; padding: 10px;">39.44116667, -103.6055</td></tr>
        </table>
        ]]></description>
                    <styleUrl>#118</styleUrl>
                    <Point id="116">
                        <coordinates>-103.6055,39.4411666667,21105.88</coordinates>
                        <altitudeMode>absolute</altitudeMode>
                    </Point>
                </Placemark>
                <Placemark id="122">
                    <name>79k</name>
                    <description><![CDATA[
        <h1>Waypoint</h1>
        <table style="width: 100%;" cellpadding=0 cellspacing=0 border=0>
        <tr><td style="padding: 10px; border: solid 1px black;border-bottom: 0;"><strong>Local Time</strong></td><td style="border: solid 1px black;border-left: 0; border-bottom: 0; padding: 10px;">08:10:20</td></tr>
        <tr><td style="padding: 10px; border: solid 1px black;border-bottom: 0;"><strong>Altitude</strong></td><td style="border: solid 1px black;border-left: 0; border-bottom: 0; padding: 10px;">79,250ft (24,155.4m)</td></tr>
        <tr><td style="padding: 10px; border: solid 1px black;"><strong>Coordinates</strong></td><td style="border: solid 1px black; border-left: 0; padding: 10px;">39.44016667, -103.59166667</td></tr>
        </table>
        ]]></description>
                    <styleUrl>#123</styleUrl>
                    <Point id="121">
                        <coordinates>-103.5916666667,39.4401666667,24155.4</coordinates>
                        <altitudeMode>absolute</altitudeMode>
                    </Point>
                </Placemark>
                <Placemark id="127">
                    <name>91k</name>
                    <description><![CDATA[
        <h1>Waypoint</h1>
        <table style="width: 100%;" cellpadding=0 cellspacing=0 border=0>
        <tr><td style="padding: 10px; border: solid 1px black;border-bottom: 0;"><strong>Local Time</strong></td><td style="border: solid 1px black;border-left: 0; border-bottom: 0; padding: 10px;">08:08:30</td></tr>
        <tr><td style="padding: 10px; border: solid 1px black;border-bottom: 0;"><strong>Altitude</strong></td><td style="border: solid 1px black;border-left: 0; border-bottom: 0; padding: 10px;">91,103ft (27,768.2m)</td></tr>
        <tr><td style="padding: 10px; border: solid 1px black;"><strong>Coordinates</strong></td><td style="border: solid 1px black; border-left: 0; padding: 10px;">39.44183333, -103.5725</td></tr>
        </table>
        ]]></description>
                    <styleUrl>#128</styleUrl>
                    <Point id="126">
                        <coordinates>-103.5725,39.4418333333,27768.19</coordinates>
                        <altitudeMode>absolute</altitudeMode>
                    </Point>
                </Placemark>
            </Folder>
            <Folder id="5">
                <Style id="16">
                    <IconStyle id="17">
                        <color>ff008cff</color>
                        <colorMode>normal</colorMode>
                        <scale>1</scale>
                        <heading>0</heading>
                        <Icon id="18">
                            <href>https://maps.google.com/mapfiles/kml/shapes/placemark_circle.png</href>
                        </Icon>
                    </IconStyle>
                </Style>
                <Style id="21">
                    <IconStyle id="22">
                        <color>ff008cff</color>
                        <colorMode>normal</colorMode>
                        <scale>1</scale>
                        <heading>0</heading>
                        <Icon id="23">
                            <href>https://maps.google.com/mapfiles/kml/shapes/placemark_circle.png</href>
                        </Icon>
                    </IconStyle>
                </Style>
                <Style id="26">
                    <IconStyle id="27">
                        <color>ff00ffff</color>
                        <colorMode>normal</colorMode>
                        <scale>1</scale>
                        <heading>0</heading>
                        <Icon id="28">
                            <href>https://maps.google.com/mapfiles/kml/shapes/placemark_circle.png</href>
                        </Icon>
                    </IconStyle>
                </Style>
                <Style id="31">
                    <IconStyle id="32">
                        <color>ff006400</color>
                        <colorMode>normal</colorMode>
                        <scale>1</scale>
                        <heading>0</heading>
                        <Icon id="33">
                            <href>https://maps.google.com/mapfiles/kml/shapes/placemark_circle.png</href>
                        </Icon>
                    </IconStyle>
                    <LabelStyle id="34">
                        <color>ff006400</color>
                        <colorMode>normal</colorMode>
                        <scale>1</scale>
                    </LabelStyle>
                </Style>
                <Style id="37">
                    <IconStyle id="38">
                        <color>ff006400</color>
                        <colorMode>normal</colorMode>
                        <scale>1</scale>
                        <heading>0</heading>
                        <Icon id="39">
                            <href>https://maps.google.com/mapfiles/kml/shapes/placemark_circle.png</href>
                        </Icon>
                    </IconStyle>
                    <LabelStyle id="40">
                        <color>ff006400</color>
                        <colorMode>normal</colorMode>
                        <scale>1</scale>
                    </LabelStyle>
                </Style>
                <name>Points of Interest</name>
                <Placemark id="15">
                    <name>Launch</name>
                    <description><![CDATA[
    <h1>Launch</h1>
    <table style="width: 100%;" cellpadding=0 cellspacing=0 border=0>
    <tr><td style="padding: 10px; border: solid 1px black;border-bottom: 0;"><strong>Local Time</strong></td><td style="border: solid 1px black;border-bottom: 0; border-left: 0; padding: 10px;">07:10:30</td></tr>
    <tr><td style="padding: 10px; border: solid 1px black;border-bottom: 0;"><strong>Altitude</strong></td><td style="border: solid 1px black;border-left: 0; border-bottom: 0; padding: 10px;">5,717ft (1,742.5m)</td></tr>
    <tr><td style="padding: 10px; border: solid 1px black;"><strong>Coordinates</strong></td><td style="border: solid 1px black; border-left: 0; padding: 10px;">39.2785, -103.49516667</td></tr>
    </table>
    ]]></description>
                    <styleUrl>#16</styleUrl>
                    <Point id="14">
                        <coordinates>-103.4951666667,39.2785,1742.54</coordinates>
                        <altitudeMode>absolute</altitudeMode>
                    </Point>
                </Placemark>
                <Placemark id="20">
                    <name>Landing</name>
                    <description><![CDATA[
    <h1>Landing</h1>
    <table style="width: 100%;" cellpadding=0 cellspacing=0 border=0>
    <tr><td style="padding: 10px; border: solid 1px black;border-bottom: 0;"><strong>Local Time</strong></td><td style="border: solid 1px black;border-left: 0; border-bottom: 0; padding: 10px;">08:48:30</td></tr>
    <tr><td style="padding: 10px; border: solid 1px black;border-bottom: 0;"><strong>Altitude</strong></td><td style="border: solid 1px black;border-bottom: 0; border-left: 0; padding: 10px;">5,271ft (1,606.6m)</td></tr>
    <tr><td style="padding: 10px; border: solid 1px black;"><strong>Coordinates</strong></td><td style="border: solid 1px black; border-left: 0; padding: 10px;">39.5965, -103.462</td></tr>
    </table>
    ]]></description>
                    <styleUrl>#21</styleUrl>
                    <Point id="19">
                        <coordinates>-103.462,39.5965,1606.6</coordinates>
                        <altitudeMode>absolute</altitudeMode>
                    </Point>
                </Placemark>
                <Placemark id="25">
                    <name>Burst 98,123ft</name>
                    <description><![CDATA[
    <h1>Burst: 98,123ft</h1>
    <table style="width: 100%;" cellpadding=0 cellspacing=0 border=0>
    <tr><td style="padding: 10px; border: solid 1px black;border-bottom: 0;"><strong>Local Time</strong></td><td style="border: solid 1px black;border-left: 0; border-bottom: 0; padding: 10px;">08:07:30</td></tr>
    <tr><td style="padding: 10px; border: solid 1px black;border-bottom: 0;"><strong>Altitude</strong></td><td style="border: solid 1px black;border-left: 0; border-bottom: 0; padding: 10px;">98,123ft (29,907.9m)</td></tr>
    <tr><td style="padding: 10px; border: solid 1px black;"><strong>Coordinates</strong></td><td style="border: solid 1px black; border-left: 0; padding: 10px;">39.44216667, -103.5585</td></tr>
    </table>
    ]]></description>
                    <styleUrl>#26</styleUrl>
                    <Point id="24">
                        <coordinates>-103.5585,39.4421666667,29907.89</coordinates>
                        <altitudeMode>absolute</altitudeMode>
                    </Point>
                </Placemark>
                <Placemark id="30">
                    <name>27k, Laminar-to-Turbulent</name>
                    <description><![CDATA[
        <h1>Airflow Transitioning from Laminar-to-Turbulent</h1>
        <table style="width: 100%;" cellpadding=0 cellspacing=0 border=0>
        <tr><td style="padding: 10px; border: solid 1px black;border-bottom: 0;"><strong>Local Time</strong></td><td style="border: solid 1px black;border-left: 0; border-bottom: 0; padding: 10px;">07:24:30</td></tr>
        <tr><td style="padding: 10px; border: solid 1px black;border-bottom: 0;"><strong>Altitude</strong></td><td style="border: solid 1px black;border-left: 0; border-bottom: 0; padding: 10px;">27,499ft (8,381.7m)</td></tr>
        <tr><td style="padding: 10px; border: solid 1px black;"><strong>Coordinates</strong></td><td style="border: solid 1px black; border-left: 0; padding: 10px;">39.303, -103.45883333</td></tr>
        </table>
        ]]></description>
                    <styleUrl>#31</styleUrl>
                    <Point id="29">
                        <coordinates>-103.4588333333,39.303,8381.7</coordinates>
                        <altitudeMode>absolute</altitudeMode>
                    </Point>
                </Placemark>
                <Placemark id="36">
                    <name>66k, Turbulent-to-Laminar</name>
                    <description><![CDATA[
        <h1>Airflow Transitioning from Turbulent-to-Laminar</h1>
        <table style="width: 100%;" cellpadding=0 cellspacing=0 border=0>
        <tr><td style="padding: 10px; border: solid 1px black;border-bottom: 0;"><strong>Local Time</strong></td><td style="border: solid 1px black;border-left: 0; border-bottom: 0; padding: 10px;">07:45:00</td></tr>
        <tr><td style="padding: 10px; border: solid 1px black;border-bottom: 0;"><strong>Altitude</strong></td><td style="border: solid 1px black;border-left: 0; border-bottom: 0; padding: 10px;">65,789ft (20,052.5m)</td></tr>
        <tr><td style="padding: 10px; border: solid 1px black;"><strong>Coordinates</strong></td><td style="border: solid 1px black; border-left: 0; padding: 10px;">39.444, -103.34116667</td></tr>
        </table>
        ]]></description>
                    <styleUrl>#37</styleUrl>
                    <Point id="35">
                        <coordinates>-103.3411666667,39.444,20052.49</coordinates>
                        <altitudeMode>absolute</altitudeMode>
                    </Point>
                </Placemark>
            </Folder>
        </Document>
    </Document>
</kml>
