<?xml version="1.0" encoding="UTF-8"?>
<kml xmlns="http://www.opengis.net/kml/2.2" xmlns:gx="http://www.google.com/kml/ext/2.2">
    <Document id="1">
        <Document id="2">
            <name>EOSS-329</name>
            <description><![CDATA[
    <h1>EOSS-329</h1>
    <table style="width: 100%;" cellpadding=0 cellspacing=0 border=0>
    <tr><td style="border: solid 1px black;border-bottom: 0; padding: 10px;"><strong>Launch Local Date/Time</strong></td><td style=" padding: 10px;border: solid 1px black;border-bottom: 0; border-left: 0;">2022-10-15 07:59:41</td></tr>
    <tr><td style="border: solid 1px black;border-bottom: 0; padding: 10px;"><strong>Flight Duration</strong></td><td style=" padding: 10px;border: solid 1px black;border-bottom: 0; border-left: 0; ">1hrs 54mins 30secs</td></tr>
    <tr><td style="border: solid 1px black;border-bottom: 0; padding: 10px;"><strong>Down Range Distance</strong></td><td style=" padding: 10px;border: solid 1px black;border-bottom: 0; border-left: 0; ">51.4mi (82.7km)</td></tr>
    <tr><td style="border: solid 1px black; padding: 10px;"><strong>Approx. Burst Altitude</strong></td><td style=" padding: 10px;border: solid 1px black; border-left: 0; ">93,012ft (28,350.1m)</td></tr>
    </table>
    ]]></description>
            <Folder id="3">
                <Style id="8">
                    <LineStyle id="9">
                        <color>ff0000ff</color>
                        <colorMode>normal</colorMode>
                        <width>3</width>
                    </LineStyle>
                </Style>
                <Style id="12">
                    <LineStyle id="13">
                        <color>ffff0000</color>
                        <colorMode>normal</colorMode>
                        <width>3</width>
                    </LineStyle>
                </Style>
                <name>Paths</name>
                <Placemark id="7">
                    <name>EOSS-329 Ascent</name>
                    <styleUrl>#8</styleUrl>
                    <LineString id="6">
                        <extrude>0</extrude>
                        <altitudeMode>absolute</altitudeMode>
                        <coordinates>-104.0421666667,39.6080333333,1588.31 -104.0421666667,39.6081666667,1598.98 -104.0415,39.608,1721.51 -104.0414666667,39.6072666667,1754.12 -104.0416666667,39.607,1789.79 -104.043,39.6061666667,1898.29 -104.0439166667,39.6053333333,1947.37 -104.0441666667,39.6048333333,1974.8 -104.046,39.6038333333,2096.72 -104.0474833333,39.6028,2143.35 -104.048,39.6023333333,2177.49 -104.0496666667,39.6016666667,2284.78 -104.0508,39.6011666667,2326.23 -104.0511666667,39.601,2368.6 -104.052,39.6003333333,2474.98 -104.0523333333,39.6001833333,2526.18 -104.0525,39.6,2557.58 -104.052,39.5998333333,2663.04 -104.05155,39.5996333333,2722.47 -104.0513333333,39.5996666667,2763.62 -104.0505,39.5993333333,2872.74 -104.0498333333,39.599,2917.24 -104.0495,39.5988333333,2954.43 -104.0485,39.5983333333,3064.15 -104.04775,39.5981,3112.31 -104.0471666667,39.5978333333,3158.03 -104.0461666667,39.5973333333,3286.05 -104.04525,39.59705,3337.56 -104.045,39.5966666667,3373.53 -104.0438333333,39.5961666667,3489.35 -104.0428833333,39.5958,3536.59 -104.0425,39.5955,3578.35 -104.0415,39.5953333333,3689.91 -104.0407333333,39.595,3737.46 -104.0405,39.595,3777.39 -104.0393333333,39.5946666667,3902.05 -104.0385166667,39.5943333333,3946.55 -104.038,39.5941666667,3982.82 -104.0366666667,39.5936666667,4104.74 -104.0355833333,39.5932833333,4159.61 -104.0351666667,39.593,4202.58 -104.0341666667,39.5923333333,4315.36 -104.0333166667,39.5918,4370.53 -104.0326666667,39.5915,4404.06 -104.0308333333,39.5906666667,4504.33 -104.02935,39.58985,4553.71 -104.029,39.5895,4587.24 -104.0268333333,39.5885,4698.19 -104.0249,39.58775,4741.47 -104.0243333333,39.5873333333,4777.44 -104.0221666667,39.5861666667,4891.74 -104.02045,39.5852666667,4936.54 -104.02,39.5848333333,4971.9 -104.0178333333,39.5838333333,5098.08 -104.0162,39.5829666667,5154.78 -104.0155,39.5825,5192.57 -104.0135,39.5816666667,5311.75 -104.0118666667,39.5809166667,5374.54 -104.0113333333,39.5805,5413.25 -104.0098333333,39.58,5521.15 -104.0083833333,39.5794666667,5573.57 -104.0078333333,39.5791666667,5606.19 -104.0058333333,39.5786666667,5736.95 -104.0044166667,39.57835,5787.85 -104.0036666667,39.578,5818.33 -104.0011666667,39.5778333333,5941.77 -103.9994666667,39.5778666667,5992.67 -103.999,39.5776666667,6027.72 -103.9965,39.5776666667,6150.25 -103.9945333333,39.5776666667,6207.86 -103.994,39.5775,6247.49 -103.9913333333,39.5775,6365.75 -103.9892833333,39.5773166667,6426.71 -103.9886666667,39.5771666667,6457.8 -103.9863333333,39.5766666667,6580.94 -103.98435,39.5762166667,6637.93 -103.9833333333,39.576,6680.61 -103.9806666667,39.5755,6812.28 -103.97825,39.5749,6854.95 -103.9773333333,39.5746666667,6883.91 -103.9751666667,39.5736666667,6997.29 -103.9735,39.5726333333,7038.75 -103.9726666667,39.5721666667,7073.19 -103.9703333333,39.571,7192.98 -103.9686,39.5698833333,7239.0 -103.9678333333,39.5696666667,7275.27 -103.9655,39.5683333333,7399.63 -103.9635166667,39.5672,7453.88 -103.9625,39.567,7482.23 -103.9603333333,39.566,7587.39 -103.9582833333,39.5655166667,7633.11 -103.9573333333,39.5651666667,7678.83 -103.9546666667,39.5643333333,7815.68 -103.9526666667,39.5633,7862.93 -103.9518333333,39.5628333333,7907.43 -103.9488333333,39.5621666667,8036.66 -103.94675,39.5613666667,8094.88 -103.9461666667,39.561,8129.02 -103.9433333333,39.5601666667,8240.88 -103.9412333333,39.5592333333,8293.0 -103.9405,39.559,8329.57 -103.9375,39.5576666667,8437.17 -103.9352833333,39.557,8476.18 -103.9341666667,39.5566666667,8516.72 -103.9311666667,39.556,8641.38 -103.92915,39.5553,8698.08 -103.9281666667,39.5548333333,8734.65 -103.9251666667,39.5545,8847.73 -103.9228333333,39.5539333333,8897.11 -103.9216666667,39.5536666667,8940.09 -103.9181666667,39.553,9050.43 -103.9152833333,39.5526666667,9103.16 -103.9145,39.5525,9144.91 -103.9106666667,39.5515,9260.43 -103.9074333333,39.5509833333,9305.24 -103.9065,39.5508333333,9336.63 -103.9033333333,39.55,9431.12 -103.9008666667,39.54905,9468.31 -103.8996666667,39.5485,9505.19 -103.8961666667,39.5478333333,9608.82 -103.8933166667,39.5471166667,9651.19 -103.8921666667,39.5468333333,9694.77 -103.8883333333,39.5458333333,9811.82 -103.8856833333,39.5451666667,9878.26 -103.8843333333,39.5448333333,9920.94 -103.8805,39.5443333333,10049.26 -103.8778666667,39.5439,10097.41 -103.8765,39.5436666667,10140.7 -103.873,39.543,10255.91 -103.8698833333,39.5426166667,10295.23 -103.8688333333,39.5425,10327.84 -103.8653333333,39.5418333333,10456.47 -103.8631,39.5412833333,10488.17 -103.8621666667,39.541,10523.83 -103.858,39.5401666667,10627.46 -103.8545,39.5395,10711.89 -103.851,39.5388333333,10847.53 -103.8478833333,39.5381666667,10889.28 -103.8465,39.5378333333,10923.42 -103.8431666667,39.5376666667,11044.43 -103.8402666667,39.5374833333,11102.34 -103.8393333333,39.5375,11133.12 -103.8355,39.5373333333,11251.08 -103.8329333333,39.537,11303.51 -103.8318333333,39.537,11340.69 -103.8283333333,39.5366666667,11463.53 -103.8259,39.5362166667,11528.45 -103.8246666667,39.5361666667,11570.51 -103.8213333333,39.5366666667,11672.62 -103.81865,39.5365666667,11738.46 -103.8173333333,39.5363333333,11767.72 -103.813,39.537,11876.23 -103.8100666667,39.5369333333,11923.47 -103.8085,39.5368333333,11963.1 -103.8041666667,39.5365,12086.23 -103.8008,39.5361333333,12124.64 -103.7993333333,39.5361666667,12159.39 -103.7951666667,39.536,12269.42 -103.7915333333,39.5360333333,12326.42 -103.7903333333,39.5361666667,12362.69 -103.7851666667,39.536,12480.34 -103.7808166667,39.5359,12533.68 -103.7793333333,39.5356666667,12570.26 -103.7735,39.5356666667,12697.36 -103.7692166667,39.5354,12786.66 -103.7678333333,39.535,12825.37 -103.7623333333,39.5336666667,12938.76 -103.7588333333,39.53255,12998.5 -103.7576666667,39.5323333333,13032.33 -103.7518333333,39.5315,13161.26 -103.7484,39.5305333333,13226.8 -103.7468333333,39.5301666667,13262.76 -103.7418333333,39.5295,13384.07 -103.7384666667,39.5286833333,13447.78 -103.737,39.5285,13487.4 -103.7321666667,39.5276666667,13607.49 -103.7281333333,39.52735,13666.62 -103.7266666667,39.527,13714.78 -103.7211666667,39.5265,13830.3 -103.7169166667,39.5257,13880.59 -103.7156666667,39.5251666667,13913.51 -103.711,39.5236666667,14027.2 -103.70705,39.5222166667,14062.86 -103.7056666667,39.5216666667,14099.74 -103.702,39.52,14210.39 -103.6992666667,39.5190166667,14261.9 -103.698,39.5186666667,14294.51 -103.695,39.5178333333,14430.45 -103.6918333333,39.5172,14484.71 -103.6905,39.5168333333,14526.46 -103.687,39.516,14660.27 -103.6835,39.5148166667,14723.97 -103.682,39.5143333333,14769.39 -103.6783333333,39.5133333333,14875.76 -103.6755333333,39.5125666667,14905.94 -103.6745,39.5121666667,14934.9 -103.6708333333,39.5111666667,15026.64 -103.6682333333,39.5103666667,15066.87 -103.6671666667,39.5098333333,15096.74 -103.6636666667,39.5086666667,15197.02 -103.6612833333,39.5079666667,15240.0 -103.6603333333,39.5078333333,15279.32 -103.6561666667,39.5076666667,15410.08 -103.6534166667,39.5073333333,15443.0 -103.6523333333,39.507,15471.04 -103.6486666667,39.5065,15566.14 -103.6457333333,39.50615,15600.88 -103.6445,39.5056666667,15629.84 -103.6408333333,39.5051666667,15752.67 -103.63775,39.5040666667,15812.11 -103.6368333333,39.5035,15841.68 -103.6335,39.5021666667,15930.98 -103.6308166667,39.5010166667,15959.94 -103.63,39.5005,15988.59 -103.6268333333,39.4988333333,16095.57 -103.6251333333,39.4979333333,16133.06 -103.6243333333,39.4973333333,16160.5 -103.622,39.496,16251.63 -103.62095,39.4953,16314.12 -103.6206666667,39.495,16347.03 -103.619,39.4941666667,16438.78 -103.617,39.4928333333,16499.43 -103.6153333333,39.4923333333,16597.27 -103.6141,39.49195,16628.97 -103.6135,39.4916666667,16660.67 -103.6116666667,39.491,16761.87 -103.6102833333,39.4902333333,16798.14 -103.6098333333,39.49,16823.13 -103.608,39.4888333333,16927.98 -103.6064666667,39.48785,16966.08 -103.606,39.4875,16993.82 -103.6036666667,39.4861666667,17093.49 -103.6018333333,39.4852833333,17127.02 -103.6011666667,39.4848333333,17157.19 -103.5985,39.4835,17254.42 -103.59675,39.4824333333,17309.29 -103.596,39.4818333333,17353.48 -103.5938333333,39.4806666667,17450.71 -103.5926833333,39.4795,17489.12 -103.5921666667,39.479,17529.96 -103.5908333333,39.4778333333,17619.88 -103.5899333333,39.4768833333,17654.32 -103.5893333333,39.4766666667,17679.62 -103.5881666667,39.4758333333,17771.36 -103.5869166667,39.4750166667,17806.11 -103.5865,39.475,17834.76 -103.5846666667,39.4745,17928.95 -103.5833666667,39.4742,17974.36 -103.583,39.4738333333,17999.66 -103.5816666667,39.4733333333,18094.76 -103.5807333333,39.4730833333,18131.33 -103.5803333333,39.4726666667,18158.16 -103.5793333333,39.4725,18258.13 -103.5787,39.4720833333,18300.19 -103.5781666667,39.4718333333,18328.84 -103.5773333333,39.4715,18422.42 -103.5766,39.47105,18457.16 -103.5761666667,39.4708333333,18483.68 -103.5755,39.4703333333,18576.95 -103.5745833333,39.4702,18652.24 -103.5743333333,39.4703333333,18684.54 -103.5725,39.4705,18836.03 -103.5715833333,39.4706833333,18879.31 -103.5711666667,39.4703333333,18904.0 -103.57,39.47,19007.02 -103.5690166667,39.4693166667,19043.29 -103.5686666667,39.469,19074.69 -103.5675,39.4683333333,19169.79 -103.56705,39.4679,19209.41 -103.5668333333,39.4675,19237.76 -103.5665,39.4671666667,19334.07 -103.5663166667,39.4668666667,19375.53 -103.566,39.4665,19401.13 -103.5656666667,39.4665,19499.58 -103.5656166667,39.46655,19541.34 -103.5651666667,39.4666666667,19568.77 -103.5651666667,39.4668333333,19667.22 -103.5647833333,39.4669,19703.49 -103.5646666667,39.467,19733.06 -103.5645,39.467,19832.42 -103.5643333333,39.4668666667,19871.44 -103.5643333333,39.467,19901.61 -103.5643333333,39.4668333333,19995.79 -103.56405,39.4663666667,20033.59 -103.5641666667,39.4661666667,20059.5 -103.5645,39.4658333333,20155.2 -103.5646166667,39.4654666667,20192.39 -103.5646666667,39.4653333333,20214.64 -103.5653333333,39.465,20313.7 -103.56575,39.4648333333,20345.4 -103.5655,39.4645,20373.44 -103.5658333333,39.4641666667,20470.98 -103.5661833333,39.4639666667,20505.42 -103.5661666667,39.4638333333,20537.12 -103.5666666667,39.4636666667,20634.35 -103.5670833333,39.4636166667,20673.67 -103.5671666667,39.4631666667,20701.71 -103.5675,39.4631666667,20794.68 -103.56775,39.46295,20830.64 -103.5676666667,39.463,20859.6 -103.5678333333,39.4631666667,20965.36 -103.5676166667,39.4631166667,21012.61 -103.5678333333,39.4631666667,21036.38 -103.5678333333,39.4631666667,21134.22 -103.5677333333,39.4633666667,21171.71 -103.5676666667,39.4631666667,21200.67 -103.5676666667,39.4633333333,21298.51 -103.5677833333,39.4634666667,21342.71 -103.5676666667,39.4633333333,21369.83 -103.5676666667,39.4635,21468.59 -103.5678833333,39.4634666667,21510.65 -103.5675,39.4633333333,21538.39 -103.5676666667,39.4631666667,21636.53 -103.5677166667,39.4629166667,21674.63 -103.5675,39.4628333333,21701.76 -103.5678333333,39.4628333333,21798.69 -103.5678833333,39.46285,21839.83 -103.5678333333,39.463,21868.18 -103.5678333333,39.4633333333,21964.19 -103.5674166667,39.46335,22005.65 -103.5675,39.4633333333,22035.21 -103.5676666667,39.4635,22137.01 -103.56795,39.46345,22179.69 -103.5681666667,39.4631666667,22206.51 -103.5686666667,39.4631666667,22301.0 -103.5690166667,39.4632166667,22344.89 -103.5696666667,39.4631666667,22468.64 -103.5702333333,39.46335,22506.74 -103.5701666667,39.4635,22535.69 -103.5713333333,39.464,22628.35 -103.5718666667,39.46435,22673.77 -103.572,39.4645,22698.46 -103.5726666667,39.4651666667,22792.64 -103.57295,39.4656833333,22835.01 -103.5728333333,39.4655,22864.27 -103.5725,39.4663333333,22959.06 -103.5723333333,39.4668166667,22996.86 -103.572,39.467,23026.12 -103.5715,39.4675,23119.99 -103.5712166667,39.4675833333,23167.85 -103.571,39.4678333333,23195.89 -103.5708333333,39.468,23296.47 -103.5703,39.4682666667,23344.02 -103.5703333333,39.468,23373.28 -103.5703333333,39.468,23481.79 -103.5708666667,39.4681833333,23527.82 -103.5708333333,39.468,23554.33 -103.5715,39.4683333333,23652.48 -103.57175,39.46875,23693.93 -103.5715,39.4688333333,23723.19 -103.5713333333,39.4691666667,23826.83 -103.5710166667,39.4691666667,23871.94 -103.5708333333,39.469,23894.49 -103.5701666667,39.4691666667,23998.73 -103.5695166667,39.4689833333,24035.92 -103.5693333333,39.469,24068.23 -103.569,39.4691666667,24170.94 -103.5691,39.4694833333,24208.13 -103.5688333333,39.4696666667,24240.44 -103.5688333333,39.4705,24342.85 -103.5686666667,39.4711166667,24369.98 -103.5686666667,39.4713333333,24403.51 -103.5681666667,39.4723333333,24501.35 -103.5676666667,39.4730166667,24532.13 -103.5671666667,39.473,24564.14 -103.5665,39.474,24654.97 -103.5660833333,39.4751333333,24691.24 -103.5651666667,39.4771666667,24819.86 -103.5645166667,39.4783333333,24855.22 -103.5643333333,39.4786666667,24882.96 -103.5628333333,39.4798333333,24978.06 -103.56175,39.4804833333,25015.24 -103.5615,39.4806666667,25043.28 -103.5605,39.4813333333,25136.86 -103.55975,39.48215,25171.3 -103.5591666667,39.4821666667,25204.83 -103.558,39.4831666667,25301.75 -103.5571,39.4837333333,25341.07 -103.5565,39.4838333333,25370.64 -103.5551666667,39.4846666667,25475.18 -103.5539333333,39.48515,25512.06 -103.5533333333,39.4853333333,25546.81 -103.5516666667,39.4861666667,25647.4 -103.5501,39.4869333333,25686.11 -103.5495,39.487,25720.24 -103.548,39.4878333333,25821.44 -103.5467833333,39.4882166667,25858.32 -103.5465,39.4881666667,25894.59 -103.5455,39.4886666667,25998.83 -103.5446833333,39.4890333333,26034.19 -103.5443333333,39.4888333333,26066.8 -103.5428333333,39.489,26166.78 -103.5415833333,39.48915,26205.18 -103.541,39.489,26240.23 -103.5396666667,39.4895,26340.51 -103.5389166667,39.48975,26377.39 -103.5385,39.4898333333,26409.09 -103.5373333333,39.4903333333,26503.88 -103.5363166667,39.4907166667,26540.46 -103.5358333333,39.4906666667,26572.46 -103.5341666667,39.4908333333,26666.04 -103.5329333333,39.4910333333,26698.35 -103.5323333333,39.4908333333,26730.35 -103.5303333333,39.491,26823.92 -103.52895,39.4909333333,26857.45 -103.5285,39.491,26886.41 -103.5268333333,39.4913333333,26973.58 -103.5255833333,39.4914333333,27002.23 -103.525,39.4915,27031.49 -103.5228333333,39.4918333333,27122.32 -103.5213333333,39.4918166667,27151.28 -103.5205,39.4916666667,27179.93 -103.5183333333,39.4916666667,27269.54 -103.5166666667,39.4916333333,27297.28 -103.516,39.4915,27328.37 -103.514,39.492,27419.5 -103.5125333333,39.4921333333,27452.42 -103.512,39.492,27483.82 -103.5103333333,39.4918333333,27582.57 -103.5091666667,39.4917333333,27616.4 -103.509,39.4916666667,27649.02 -103.5076666667,39.4918333333,27750.21 -103.5065166667,39.49205,27791.36 -103.506,39.492,27820.92 -103.5043333333,39.4925,27926.39 -103.5032,39.4928,27970.58 -103.503,39.4928333333,27994.05 -103.5016666667,39.4936666667,28106.22 -103.5008166667,39.4944,28146.45 -103.5005,39.4946666667,28175.71 -103.4991666667,39.4961666667,28278.43 -103.49795,39.4972833333,28318.66 -103.4973333333,39.4976666667,28350.06</coordinates>
                    </LineString>
                </Placemark>
                <Placemark id="11">
                    <name>EOSS-329 Descent</name>
                    <styleUrl>#12</styleUrl>
                    <LineString id="10">
                        <extrude>0</extrude>
                        <altitudeMode>absolute</altitudeMode>
                        <coordinates>-103.4973333333,39.4976666667,28350.06 -103.4958333333,39.4991666667,27825.5 -103.4948666667,39.4993666667,27397.56 -103.494,39.4993333333,27252.17 -103.4916666667,39.4996666667,26731.87 -103.4896,39.4999,26334.42 -103.4895,39.5003333333,26210.36 -103.4878333333,39.5006666667,25741.58 -103.4866833333,39.5007666667,25383.13 -103.4863333333,39.501,25271.27 -103.4851666667,39.5013333333,24856.44 -103.4847166667,39.50205,24519.03 -103.485,39.5018333333,24411.74 -103.4851666667,39.5025,24013.67 -103.4848333333,39.5021333333,23708.87 -103.4848333333,39.5023333333,23237.34 -103.4846166667,39.5025333333,22946.87 -103.4848333333,39.5026666667,22856.34 -103.4855,39.5031666667,22520.76 -103.4862333333,39.5029666667,22245.83 -103.4858333333,39.5031666667,22152.86 -103.4861666667,39.5035,21817.89 -103.4861666667,39.5036666667,21461.58 -103.4868333333,39.5036666667,21154.34 -103.4868333333,39.5037333333,20906.54 -103.487,39.5035,20831.56 -103.4871666667,39.5033333333,20538.64 -103.4874,39.5029,20294.5 -103.4873333333,39.5028333333,20222.57 -103.4878333333,39.5025,19952.51 -103.4878333333,39.5023166667,19719.34 -103.4876666667,39.5025,19651.07 -103.4873333333,39.502,19390.16 -103.4872,39.5016,19171.31 -103.487,39.5015,19107.0 -103.4858333333,39.5008333333,18861.02 -103.4849333333,39.5007833333,18651.32 -103.4846666667,39.5003333333,18594.02 -103.4843333333,39.4998333333,18359.63 -103.4834,39.4989833333,18161.2 -103.4828333333,39.4988333333,18104.82 -103.4815,39.4981666667,17875.3 -103.4799833333,39.4975166667,17678.1 -103.4796666667,39.4975,17620.18 -103.4778333333,39.4961666667,17393.11 -103.47605,39.49515,17204.13 -103.4756666667,39.4945,17152.92 -103.4733333333,39.4936666667,16934.99 -103.4717833333,39.4929166667,16747.24 -103.4715,39.4925,16698.77 -103.4693333333,39.4918333333,16496.39 -103.4678833333,39.4915,16326.0 -103.467,39.4906666667,16269.61 -103.4641666667,39.4893333333,16076.07 -103.4619333333,39.4883166667,15909.04 -103.461,39.4881666667,15859.35 -103.4576666667,39.4873333333,15678.0 -103.4547166667,39.4868166667,15517.98 -103.4538333333,39.4863333333,15471.34 -103.45,39.486,15291.51 -103.4471,39.4850166667,15133.93 -103.4463333333,39.4845,15088.21 -103.4423333333,39.4831666667,14918.44 -103.4395666667,39.4825333333,14767.86 -103.438,39.4821666667,14719.4 -103.4338333333,39.481,14554.81 -103.43105,39.4806,14400.89 -103.43,39.4801666667,14361.57 -103.4266666667,39.4795,14211.6 -103.4232666667,39.4785166667,14067.74 -103.4225,39.4778333333,14030.25 -103.4176666667,39.4765,13871.75 -103.4134166667,39.47595,13723.62 -103.4116666667,39.4756666667,13692.23 -103.4071666667,39.4746666667,13553.54 -103.4040666667,39.4738333333,13417.6 -103.4026666667,39.4738333333,13388.95 -103.398,39.4726666667,13248.13 -103.39445,39.4712833333,13112.5 -103.3931666667,39.471,13076.53 -103.3878333333,39.4698333333,12932.97 -103.3841833333,39.4690666667,12791.54 -103.3823333333,39.4688333333,12755.88 -103.3766666667,39.4683333333,12616.59 -103.3720333333,39.4681,12476.68 -103.3706666667,39.4681666667,12446.51 -103.3651666667,39.4683333333,12311.79 -103.3613666667,39.4687333333,12175.54 -103.3555,39.4686666667,12015.22 -103.3523166667,39.4686333333,11879.58 -103.3508333333,39.4685,11853.67 -103.3466666667,39.4688333333,11727.48 -103.34365,39.46885,11602.52 -103.3425,39.469,11573.87 -103.3385,39.4691666667,11454.69 -103.3357333333,39.4690333333,11335.51 -103.3343333333,39.469,11306.25 -103.3303333333,39.4686666667,11189.82 -103.3274,39.4685,11068.51 -103.3261666667,39.468,11041.38 -103.3225,39.4676666667,10924.95 -103.3198833333,39.4669666667,10802.42 -103.3186666667,39.4668333333,10777.73 -103.3146666667,39.4665,10667.39 -103.31195,39.4661,10550.35 -103.3105,39.4661666667,10526.88 -103.3066666667,39.4658333333,10417.76 -103.3039,39.46585,10301.33 -103.3025,39.4656666667,10278.16 -103.2985,39.4656666667,10174.22 -103.29565,39.4653666667,10059.31 -103.2941666667,39.4653333333,10034.32 -103.2903333333,39.4651666667,9929.16 -103.2872166667,39.4648333333,9815.17 -103.2863333333,39.4646666667,9792.61 -103.2823333333,39.4641666667,9685.32 -103.2796666667,39.4639833333,9571.33 -103.2783333333,39.4635,9551.82 -103.2748333333,39.463,9448.19 -103.27185,39.46255,9334.2 -103.271,39.4621666667,9313.16 -103.267,39.4618333333,9211.06 -103.26425,39.4612,9102.24 -103.2628333333,39.461,9075.72 -103.259,39.4601666667,8971.79 -103.256,39.4596833333,8862.97 -103.2551666667,39.4595,8835.54 -103.2513333333,39.4588333333,8731.61 -103.2486166667,39.4583166667,8622.18 -103.2441666667,39.457,8493.25 -103.2419,39.4561,8385.96 -103.2406666667,39.4558333333,8360.36 -103.2352666667,39.45415,8147.91 -103.2346666667,39.4538333333,8127.8 -103.2315,39.453,8029.04 -103.2294666667,39.4522166667,7919.92 -103.2286666667,39.4518333333,7908.04 -103.2234333333,39.45,7705.04 -103.2225,39.4498333333,7678.83 -103.2196666667,39.4488333333,7586.47 -103.21725,39.44825,7485.89 -103.2166666667,39.4478333333,7461.5 -103.2136666667,39.447,7371.89 -103.2116833333,39.4463,7274.97 -103.2106666667,39.4458333333,7251.8 -103.208,39.4448333333,7166.76 -103.206,39.4439666667,7072.88 -103.205,39.4438333333,7050.02 -103.2021666667,39.443,6963.77 -103.19985,39.4423833333,6867.75 -103.1993333333,39.442,6848.55 -103.1961666667,39.4415,6763.51 -103.19415,39.4411166667,6667.8 -103.193,39.4406666667,6646.77 -103.1903333333,39.4401666667,6561.73 -103.1881833333,39.4397,6469.68 -103.1873333333,39.4396666667,6445.3 -103.1845,39.4393333333,6359.65 -103.1822,39.4391666667,6262.73 -103.1815,39.4388333333,6241.08 -103.1786666667,39.4386666667,6156.05 -103.1766666667,39.4384666667,6057.9 -103.1756666667,39.4385,6034.13 -103.173,39.4381666667,5946.95 -103.1708166667,39.4377833333,5851.86 -103.1703333333,39.4376666667,5828.69 -103.1678333333,39.4371666667,5744.26 -103.1660833333,39.4366333333,5646.72 -103.1651666667,39.4361666667,5625.39 -103.1633333333,39.4353333333,5544.31 -103.1613333333,39.4345666667,5448.6 -103.1605,39.4345,5434.58 -103.1586666667,39.434,5357.77 -103.1567333333,39.4333,5263.59 -103.1563333333,39.433,5249.57 -103.154,39.4321666667,5173.07 -103.1524,39.4311333333,5082.54 -103.1515,39.4308333333,5063.03 -103.1491666667,39.4293333333,4978.3 -103.14775,39.42845,4881.68 -103.1468333333,39.4281666667,4867.05 -103.1448333333,39.4273333333,4784.45 -103.14335,39.42675,4687.52 -103.1425,39.4265,4675.33 -103.1403333333,39.426,4592.42 -103.1387833333,39.42525,4493.67 -103.138,39.4248333333,4479.34 -103.136,39.424,4395.83 -103.1341833333,39.4237,4296.46 -103.1335,39.4235,4284.27 -103.131,39.4231666667,4206.85 -103.1293333333,39.4231,4114.5 -103.1286666667,39.423,4100.78 -103.1271666667,39.4225,4024.88 -103.1261666667,39.4224666667,3928.57 -103.1258333333,39.4223333333,3916.68 -103.1246666667,39.4216666667,3842.92 -103.1236,39.4210666667,3752.39 -103.1228333333,39.421,3739.59 -103.1215,39.4206666667,3668.27 -103.1205166667,39.4201333333,3579.57 -103.1196666667,39.42,3566.77 -103.1181666667,39.4196666667,3496.67 -103.1171666667,39.4194333333,3409.49 -103.1163333333,39.4191666667,3397.3 -103.1146666667,39.419,3329.64 -103.11345,39.4189333333,3241.55 -103.1128333333,39.4186666667,3229.36 -103.1111666667,39.4186666667,3165.96 -103.1099666667,39.4188833333,3079.39 -103.1096666667,39.4186666667,3066.59 -103.1081666667,39.4188333333,3001.67 -103.1068333333,39.4191833333,2917.24 -103.1066666667,39.4191666667,2906.57 -103.1053333333,39.4196666667,2845.31 -103.1045333333,39.4197333333,2757.22 -103.104,39.4198333333,2747.16 -103.1031666667,39.4203333333,2682.24 -103.1026666667,39.4207833333,2599.33 -103.1025,39.4206666667,2586.53 -103.1023333333,39.4211666667,2523.13 -103.1025333333,39.4210833333,2440.23 -103.1023333333,39.421,2427.73 -103.1031666667,39.4213333333,2366.16 -103.1034833333,39.4209666667,2283.26 -103.1035,39.421,2271.37 -103.1045,39.421,2207.36 -103.1050333333,39.4208,2128.42 -103.1055,39.4205,2114.7 -103.1066666667,39.4196666667,2054.66 -103.1074333333,39.4191833333,1978.15 -103.1075,39.4186666667,1971.75 -103.1083333333,39.418,1929.69 -103.1085333333,39.4171833333,1869.34 -103.1085,39.4168333333,1864.77 -103.1095,39.4163333333,1826.67 -103.10955,39.41555,1764.18 -103.1096666667,39.4153333333,1762.35 -103.1101666667,39.4146666667,1716.63 -103.1110666667,39.414,1636.17 -103.111,39.4136666667,1626.41 -103.1116666667,39.4128333333,1577.04 -103.1117666667,39.41225,1506.32 -103.1118333333,39.412,1495.65 -103.1118666667,39.4121666667,1494.13</coordinates>
                    </LineString>
                </Placemark>
            </Folder>
            <Folder id="4">
                <Style id="37">
                    <IconStyle id="38">
                        <color>ff0000ff</color>
                        <colorMode>normal</colorMode>
                        <scale>1</scale>
                        <heading>0</heading>
                        <Icon id="39">
                            <href>https://maps.google.com/mapfiles/kml/shapes/placemark_circle.png</href>
                        </Icon>
                    </IconStyle>
                </Style>
                <Style id="42">
                    <IconStyle id="43">
                        <color>ff0000ff</color>
                        <colorMode>normal</colorMode>
                        <scale>1</scale>
                        <heading>0</heading>
                        <Icon id="44">
                            <href>https://maps.google.com/mapfiles/kml/shapes/placemark_circle.png</href>
                        </Icon>
                    </IconStyle>
                </Style>
                <Style id="47">
                    <IconStyle id="48">
                        <color>ff0000ff</color>
                        <colorMode>normal</colorMode>
                        <scale>1</scale>
                        <heading>0</heading>
                        <Icon id="49">
                            <href>https://maps.google.com/mapfiles/kml/shapes/placemark_circle.png</href>
                        </Icon>
                    </IconStyle>
                </Style>
                <Style id="52">
                    <IconStyle id="53">
                        <color>ff0000ff</color>
                        <colorMode>normal</colorMode>
                        <scale>1</scale>
                        <heading>0</heading>
                        <Icon id="54">
                            <href>https://maps.google.com/mapfiles/kml/shapes/placemark_circle.png</href>
                        </Icon>
                    </IconStyle>
                </Style>
                <Style id="57">
                    <IconStyle id="58">
                        <color>ff0000ff</color>
                        <colorMode>normal</colorMode>
                        <scale>1</scale>
                        <heading>0</heading>
                        <Icon id="59">
                            <href>https://maps.google.com/mapfiles/kml/shapes/placemark_circle.png</href>
                        </Icon>
                    </IconStyle>
                </Style>
                <Style id="62">
                    <IconStyle id="63">
                        <color>ff0000ff</color>
                        <colorMode>normal</colorMode>
                        <scale>1</scale>
                        <heading>0</heading>
                        <Icon id="64">
                            <href>https://maps.google.com/mapfiles/kml/shapes/placemark_circle.png</href>
                        </Icon>
                    </IconStyle>
                </Style>
                <Style id="67">
                    <IconStyle id="68">
                        <color>ff0000ff</color>
                        <colorMode>normal</colorMode>
                        <scale>1</scale>
                        <heading>0</heading>
                        <Icon id="69">
                            <href>https://maps.google.com/mapfiles/kml/shapes/placemark_circle.png</href>
                        </Icon>
                    </IconStyle>
                </Style>
                <Style id="72">
                    <IconStyle id="73">
                        <color>ff0000ff</color>
                        <colorMode>normal</colorMode>
                        <scale>1</scale>
                        <heading>0</heading>
                        <Icon id="74">
                            <href>https://maps.google.com/mapfiles/kml/shapes/placemark_circle.png</href>
                        </Icon>
                    </IconStyle>
                </Style>
                <Style id="77">
                    <IconStyle id="78">
                        <color>ff0000ff</color>
                        <colorMode>normal</colorMode>
                        <scale>1</scale>
                        <heading>0</heading>
                        <Icon id="79">
                            <href>https://maps.google.com/mapfiles/kml/shapes/placemark_circle.png</href>
                        </Icon>
                    </IconStyle>
                </Style>
                <Style id="82">
                    <IconStyle id="83">
                        <color>ffff0000</color>
                        <colorMode>normal</colorMode>
                        <scale>1</scale>
                        <heading>0</heading>
                        <Icon id="84">
                            <href>https://maps.google.com/mapfiles/kml/shapes/placemark_circle.png</href>
                        </Icon>
                    </IconStyle>
                </Style>
                <Style id="87">
                    <IconStyle id="88">
                        <color>ffff0000</color>
                        <colorMode>normal</colorMode>
                        <scale>1</scale>
                        <heading>0</heading>
                        <Icon id="89">
                            <href>https://maps.google.com/mapfiles/kml/shapes/placemark_circle.png</href>
                        </Icon>
                    </IconStyle>
                </Style>
                <Style id="92">
                    <IconStyle id="93">
                        <color>ffff0000</color>
                        <colorMode>normal</colorMode>
                        <scale>1</scale>
                        <heading>0</heading>
                        <Icon id="94">
                            <href>https://maps.google.com/mapfiles/kml/shapes/placemark_circle.png</href>
                        </Icon>
                    </IconStyle>
                </Style>
                <Style id="97">
                    <IconStyle id="98">
                        <color>ffff0000</color>
                        <colorMode>normal</colorMode>
                        <scale>1</scale>
                        <heading>0</heading>
                        <Icon id="99">
                            <href>https://maps.google.com/mapfiles/kml/shapes/placemark_circle.png</href>
                        </Icon>
                    </IconStyle>
                </Style>
                <Style id="102">
                    <IconStyle id="103">
                        <color>ffff0000</color>
                        <colorMode>normal</colorMode>
                        <scale>1</scale>
                        <heading>0</heading>
                        <Icon id="104">
                            <href>https://maps.google.com/mapfiles/kml/shapes/placemark_circle.png</href>
                        </Icon>
                    </IconStyle>
                </Style>
                <Style id="107">
                    <IconStyle id="108">
                        <color>ffff0000</color>
                        <colorMode>normal</colorMode>
                        <scale>1</scale>
                        <heading>0</heading>
                        <Icon id="109">
                            <href>https://maps.google.com/mapfiles/kml/shapes/placemark_circle.png</href>
                        </Icon>
                    </IconStyle>
                </Style>
                <Style id="112">
                    <IconStyle id="113">
                        <color>ffff0000</color>
                        <colorMode>normal</colorMode>
                        <scale>1</scale>
                        <heading>0</heading>
                        <Icon id="114">
                            <href>https://maps.google.com/mapfiles/kml/shapes/placemark_circle.png</href>
                        </Icon>
                    </IconStyle>
                </Style>
                <Style id="117">
                    <IconStyle id="118">
                        <color>ffff0000</color>
                        <colorMode>normal</colorMode>
                        <scale>1</scale>
                        <heading>0</heading>
                        <Icon id="119">
                            <href>https://maps.google.com/mapfiles/kml/shapes/placemark_circle.png</href>
                        </Icon>
                    </IconStyle>
                </Style>
                <Style id="122">
                    <IconStyle id="123">
                        <color>ffff0000</color>
                        <colorMode>normal</colorMode>
                        <scale>1</scale>
                        <heading>0</heading>
                        <Icon id="124">
                            <href>https://maps.google.com/mapfiles/kml/shapes/placemark_circle.png</href>
                        </Icon>
                    </IconStyle>
                </Style>
                <name>Waypoints</name>
                <Placemark id="36">
                    <name>10k</name>
                    <description><![CDATA[
        <h1>Waypoint</h1>
        <table style="width: 100%;" cellpadding=0 cellspacing=0 border=0>
        <tr><td style="padding: 10px; border: solid 1px black;border-bottom: 0;"><strong>Local Time</strong></td><td style="border: solid 1px black;border-left: 0; border-bottom: 0; padding: 10px;">08:03:30</td></tr>
        <tr><td style="padding: 10px; border: solid 1px black;border-bottom: 0;"><strong>Altitude</strong></td><td style="border: solid 1px black;border-left: 0; border-bottom: 0; padding: 10px;">10,053ft (3,064.2m)</td></tr>
        <tr><td style="padding: 10px; border: solid 1px black;"><strong>Coordinates</strong></td><td style="border: solid 1px black; border-left: 0; padding: 10px;">39.59833333, -104.0485</td></tr>
        </table>
        ]]></description>
                    <styleUrl>#37</styleUrl>
                    <Point id="35">
                        <coordinates>-104.0485,39.5983333333,3064.15</coordinates>
                        <altitudeMode>absolute</altitudeMode>
                    </Point>
                </Placemark>
                <Placemark id="41">
                    <name>20k</name>
                    <description><![CDATA[
        <h1>Waypoint</h1>
        <table style="width: 100%;" cellpadding=0 cellspacing=0 border=0>
        <tr><td style="padding: 10px; border: solid 1px black;border-bottom: 0;"><strong>Local Time</strong></td><td style="border: solid 1px black;border-left: 0; border-bottom: 0; padding: 10px;">08:11:00</td></tr>
        <tr><td style="padding: 10px; border: solid 1px black;border-bottom: 0;"><strong>Altitude</strong></td><td style="border: solid 1px black;border-left: 0; border-bottom: 0; padding: 10px;">20,178ft (6,150.2m)</td></tr>
        <tr><td style="padding: 10px; border: solid 1px black;"><strong>Coordinates</strong></td><td style="border: solid 1px black; border-left: 0; padding: 10px;">39.57766667, -103.9965</td></tr>
        </table>
        ]]></description>
                    <styleUrl>#42</styleUrl>
                    <Point id="40">
                        <coordinates>-103.9965,39.5776666667,6150.25</coordinates>
                        <altitudeMode>absolute</altitudeMode>
                    </Point>
                </Placemark>
                <Placemark id="46">
                    <name>30k</name>
                    <description><![CDATA[
        <h1>Waypoint</h1>
        <table style="width: 100%;" cellpadding=0 cellspacing=0 border=0>
        <tr><td style="padding: 10px; border: solid 1px black;border-bottom: 0;"><strong>Local Time</strong></td><td style="border: solid 1px black;border-left: 0; border-bottom: 0; padding: 10px;">08:18:15</td></tr>
        <tr><td style="padding: 10px; border: solid 1px black;border-bottom: 0;"><strong>Altitude</strong></td><td style="border: solid 1px black;border-left: 0; border-bottom: 0; padding: 10px;">30,003ft (9,144.9m)</td></tr>
        <tr><td style="padding: 10px; border: solid 1px black;"><strong>Coordinates</strong></td><td style="border: solid 1px black; border-left: 0; padding: 10px;">39.5525, -103.9145</td></tr>
        </table>
        ]]></description>
                    <styleUrl>#47</styleUrl>
                    <Point id="45">
                        <coordinates>-103.9145,39.5525,9144.91</coordinates>
                        <altitudeMode>absolute</altitudeMode>
                    </Point>
                </Placemark>
                <Placemark id="51">
                    <name>40k</name>
                    <description><![CDATA[
        <h1>Waypoint</h1>
        <table style="width: 100%;" cellpadding=0 cellspacing=0 border=0>
        <tr><td style="padding: 10px; border: solid 1px black;border-bottom: 0;"><strong>Local Time</strong></td><td style="border: solid 1px black;border-left: 0; border-bottom: 0; padding: 10px;">08:25:45</td></tr>
        <tr><td style="padding: 10px; border: solid 1px black;border-bottom: 0;"><strong>Altitude</strong></td><td style="border: solid 1px black;border-left: 0; border-bottom: 0; padding: 10px;">39,893ft (12,159.4m)</td></tr>
        <tr><td style="padding: 10px; border: solid 1px black;"><strong>Coordinates</strong></td><td style="border: solid 1px black; border-left: 0; padding: 10px;">39.53616667, -103.79933333</td></tr>
        </table>
        ]]></description>
                    <styleUrl>#52</styleUrl>
                    <Point id="50">
                        <coordinates>-103.7993333333,39.5361666667,12159.39</coordinates>
                        <altitudeMode>absolute</altitudeMode>
                    </Point>
                </Placemark>
                <Placemark id="56">
                    <name>50k</name>
                    <description><![CDATA[
        <h1>Waypoint</h1>
        <table style="width: 100%;" cellpadding=0 cellspacing=0 border=0>
        <tr><td style="padding: 10px; border: solid 1px black;border-bottom: 0;"><strong>Local Time</strong></td><td style="border: solid 1px black;border-left: 0; border-bottom: 0; padding: 10px;">08:33:11</td></tr>
        <tr><td style="padding: 10px; border: solid 1px black;border-bottom: 0;"><strong>Altitude</strong></td><td style="border: solid 1px black;border-left: 0; border-bottom: 0; padding: 10px;">50,000ft (15,240.0m)</td></tr>
        <tr><td style="padding: 10px; border: solid 1px black;"><strong>Coordinates</strong></td><td style="border: solid 1px black; border-left: 0; padding: 10px;">39.50796667, -103.66128333</td></tr>
        </table>
        ]]></description>
                    <styleUrl>#57</styleUrl>
                    <Point id="55">
                        <coordinates>-103.6612833333,39.5079666667,15240.0</coordinates>
                        <altitudeMode>absolute</altitudeMode>
                    </Point>
                </Placemark>
                <Placemark id="61">
                    <name>60k</name>
                    <description><![CDATA[
        <h1>Waypoint</h1>
        <table style="width: 100%;" cellpadding=0 cellspacing=0 border=0>
        <tr><td style="padding: 10px; border: solid 1px black;border-bottom: 0;"><strong>Local Time</strong></td><td style="border: solid 1px black;border-left: 0; border-bottom: 0; padding: 10px;">08:42:11</td></tr>
        <tr><td style="padding: 10px; border: solid 1px black;border-bottom: 0;"><strong>Altitude</strong></td><td style="border: solid 1px black;border-left: 0; border-bottom: 0; padding: 10px;">60,040ft (18,300.2m)</td></tr>
        <tr><td style="padding: 10px; border: solid 1px black;"><strong>Coordinates</strong></td><td style="border: solid 1px black; border-left: 0; padding: 10px;">39.47208333, -103.5787</td></tr>
        </table>
        ]]></description>
                    <styleUrl>#62</styleUrl>
                    <Point id="60">
                        <coordinates>-103.5787,39.4720833333,18300.19</coordinates>
                        <altitudeMode>absolute</altitudeMode>
                    </Point>
                </Placemark>
                <Placemark id="66">
                    <name>70k</name>
                    <description><![CDATA[
        <h1>Waypoint</h1>
        <table style="width: 100%;" cellpadding=0 cellspacing=0 border=0>
        <tr><td style="padding: 10px; border: solid 1px black;border-bottom: 0;"><strong>Local Time</strong></td><td style="border: solid 1px black;border-left: 0; border-bottom: 0; padding: 10px;">08:51:11</td></tr>
        <tr><td style="padding: 10px; border: solid 1px black;border-bottom: 0;"><strong>Altitude</strong></td><td style="border: solid 1px black;border-left: 0; border-bottom: 0; padding: 10px;">70,022ft (21,342.7m)</td></tr>
        <tr><td style="padding: 10px; border: solid 1px black;"><strong>Coordinates</strong></td><td style="border: solid 1px black; border-left: 0; padding: 10px;">39.46346667, -103.56778333</td></tr>
        </table>
        ]]></description>
                    <styleUrl>#67</styleUrl>
                    <Point id="65">
                        <coordinates>-103.5677833333,39.4634666667,21342.71</coordinates>
                        <altitudeMode>absolute</altitudeMode>
                    </Point>
                </Placemark>
                <Placemark id="71">
                    <name>80k</name>
                    <description><![CDATA[
        <h1>Waypoint</h1>
        <table style="width: 100%;" cellpadding=0 cellspacing=0 border=0>
        <tr><td style="padding: 10px; border: solid 1px black;border-bottom: 0;"><strong>Local Time</strong></td><td style="border: solid 1px black;border-left: 0; border-bottom: 0; padding: 10px;">09:00:11</td></tr>
        <tr><td style="padding: 10px; border: solid 1px black;border-bottom: 0;"><strong>Altitude</strong></td><td style="border: solid 1px black;border-left: 0; border-bottom: 0; padding: 10px;">79,954ft (24,370.0m)</td></tr>
        <tr><td style="padding: 10px; border: solid 1px black;"><strong>Coordinates</strong></td><td style="border: solid 1px black; border-left: 0; padding: 10px;">39.47111667, -103.56866667</td></tr>
        </table>
        ]]></description>
                    <styleUrl>#72</styleUrl>
                    <Point id="70">
                        <coordinates>-103.5686666667,39.4711166667,24369.98</coordinates>
                        <altitudeMode>absolute</altitudeMode>
                    </Point>
                </Placemark>
                <Placemark id="76">
                    <name>90k</name>
                    <description><![CDATA[
        <h1>Waypoint</h1>
        <table style="width: 100%;" cellpadding=0 cellspacing=0 border=0>
        <tr><td style="padding: 10px; border: solid 1px black;border-bottom: 0;"><strong>Local Time</strong></td><td style="border: solid 1px black;border-left: 0; border-bottom: 0; padding: 10px;">09:09:30</td></tr>
        <tr><td style="padding: 10px; border: solid 1px black;border-bottom: 0;"><strong>Altitude</strong></td><td style="border: solid 1px black;border-left: 0; border-bottom: 0; padding: 10px;">89,959ft (27,419.5m)</td></tr>
        <tr><td style="padding: 10px; border: solid 1px black;"><strong>Coordinates</strong></td><td style="border: solid 1px black; border-left: 0; padding: 10px;">39.492, -103.514</td></tr>
        </table>
        ]]></description>
                    <styleUrl>#77</styleUrl>
                    <Point id="75">
                        <coordinates>-103.514,39.492,27419.5</coordinates>
                        <altitudeMode>absolute</altitudeMode>
                    </Point>
                </Placemark>
                <Placemark id="81">
                    <name>10k</name>
                    <description><![CDATA[
        <h1>Waypoint</h1>
        <table style="width: 100%;" cellpadding=0 cellspacing=0 border=0>
        <tr><td style="padding: 10px; border: solid 1px black;border-bottom: 0;"><strong>Local Time</strong></td><td style="border: solid 1px black;border-left: 0; border-bottom: 0; padding: 10px;">09:48:15</td></tr>
        <tr><td style="padding: 10px; border: solid 1px black;border-bottom: 0;"><strong>Altitude</strong></td><td style="border: solid 1px black;border-left: 0; border-bottom: 0; padding: 10px;">10,061ft (3,066.6m)</td></tr>
        <tr><td style="padding: 10px; border: solid 1px black;"><strong>Coordinates</strong></td><td style="border: solid 1px black; border-left: 0; padding: 10px;">39.41866667, -103.10966667</td></tr>
        </table>
        ]]></description>
                    <styleUrl>#82</styleUrl>
                    <Point id="80">
                        <coordinates>-103.1096666667,39.4186666667,3066.59</coordinates>
                        <altitudeMode>absolute</altitudeMode>
                    </Point>
                </Placemark>
                <Placemark id="86">
                    <name>20k</name>
                    <description><![CDATA[
        <h1>Waypoint</h1>
        <table style="width: 100%;" cellpadding=0 cellspacing=0 border=0>
        <tr><td style="padding: 10px; border: solid 1px black;border-bottom: 0;"><strong>Local Time</strong></td><td style="border: solid 1px black;border-left: 0; border-bottom: 0; padding: 10px;">09:40:11</td></tr>
        <tr><td style="padding: 10px; border: solid 1px black;border-bottom: 0;"><strong>Altitude</strong></td><td style="border: solid 1px black;border-left: 0; border-bottom: 0; padding: 10px;">19,875ft (6,057.9m)</td></tr>
        <tr><td style="padding: 10px; border: solid 1px black;"><strong>Coordinates</strong></td><td style="border: solid 1px black; border-left: 0; padding: 10px;">39.43846667, -103.17666667</td></tr>
        </table>
        ]]></description>
                    <styleUrl>#87</styleUrl>
                    <Point id="85">
                        <coordinates>-103.1766666667,39.4384666667,6057.9</coordinates>
                        <altitudeMode>absolute</altitudeMode>
                    </Point>
                </Placemark>
                <Placemark id="91">
                    <name>30k</name>
                    <description><![CDATA[
        <h1>Waypoint</h1>
        <table style="width: 100%;" cellpadding=0 cellspacing=0 border=0>
        <tr><td style="padding: 10px; border: solid 1px black;border-bottom: 0;"><strong>Local Time</strong></td><td style="border: solid 1px black;border-left: 0; border-bottom: 0; padding: 10px;">09:33:11</td></tr>
        <tr><td style="padding: 10px; border: solid 1px black;border-bottom: 0;"><strong>Altitude</strong></td><td style="border: solid 1px black;border-left: 0; border-bottom: 0; padding: 10px;">29,863ft (9,102.2m)</td></tr>
        <tr><td style="padding: 10px; border: solid 1px black;"><strong>Coordinates</strong></td><td style="border: solid 1px black; border-left: 0; padding: 10px;">39.4612, -103.26425</td></tr>
        </table>
        ]]></description>
                    <styleUrl>#92</styleUrl>
                    <Point id="90">
                        <coordinates>-103.26425,39.4612,9102.24</coordinates>
                        <altitudeMode>absolute</altitudeMode>
                    </Point>
                </Placemark>
                <Placemark id="96">
                    <name>40k</name>
                    <description><![CDATA[
        <h1>Waypoint</h1>
        <table style="width: 100%;" cellpadding=0 cellspacing=0 border=0>
        <tr><td style="padding: 10px; border: solid 1px black;border-bottom: 0;"><strong>Local Time</strong></td><td style="border: solid 1px black;border-left: 0; border-bottom: 0; padding: 10px;">09:27:11</td></tr>
        <tr><td style="padding: 10px; border: solid 1px black;border-bottom: 0;"><strong>Altitude</strong></td><td style="border: solid 1px black;border-left: 0; border-bottom: 0; padding: 10px;">39,946ft (12,175.5m)</td></tr>
        <tr><td style="padding: 10px; border: solid 1px black;"><strong>Coordinates</strong></td><td style="border: solid 1px black; border-left: 0; padding: 10px;">39.46873333, -103.36136667</td></tr>
        </table>
        ]]></description>
                    <styleUrl>#97</styleUrl>
                    <Point id="95">
                        <coordinates>-103.3613666667,39.4687333333,12175.54</coordinates>
                        <altitudeMode>absolute</altitudeMode>
                    </Point>
                </Placemark>
                <Placemark id="101">
                    <name>50k</name>
                    <description><![CDATA[
        <h1>Waypoint</h1>
        <table style="width: 100%;" cellpadding=0 cellspacing=0 border=0>
        <tr><td style="padding: 10px; border: solid 1px black;border-bottom: 0;"><strong>Local Time</strong></td><td style="border: solid 1px black;border-left: 0; border-bottom: 0; padding: 10px;">09:22:30</td></tr>
        <tr><td style="padding: 10px; border: solid 1px black;border-bottom: 0;"><strong>Altitude</strong></td><td style="border: solid 1px black;border-left: 0; border-bottom: 0; padding: 10px;">50,169ft (15,291.5m)</td></tr>
        <tr><td style="padding: 10px; border: solid 1px black;"><strong>Coordinates</strong></td><td style="border: solid 1px black; border-left: 0; padding: 10px;">39.486, -103.45</td></tr>
        </table>
        ]]></description>
                    <styleUrl>#102</styleUrl>
                    <Point id="100">
                        <coordinates>-103.45,39.486,15291.51</coordinates>
                        <altitudeMode>absolute</altitudeMode>
                    </Point>
                </Placemark>
                <Placemark id="106">
                    <name>60k</name>
                    <description><![CDATA[
        <h1>Waypoint</h1>
        <table style="width: 100%;" cellpadding=0 cellspacing=0 border=0>
        <tr><td style="padding: 10px; border: solid 1px black;border-bottom: 0;"><strong>Local Time</strong></td><td style="border: solid 1px black;border-left: 0; border-bottom: 0; padding: 10px;">09:19:00</td></tr>
        <tr><td style="padding: 10px; border: solid 1px black;border-bottom: 0;"><strong>Altitude</strong></td><td style="border: solid 1px black;border-left: 0; border-bottom: 0; padding: 10px;">60,235ft (18,359.6m)</td></tr>
        <tr><td style="padding: 10px; border: solid 1px black;"><strong>Coordinates</strong></td><td style="border: solid 1px black; border-left: 0; padding: 10px;">39.49983333, -103.48433333</td></tr>
        </table>
        ]]></description>
                    <styleUrl>#107</styleUrl>
                    <Point id="105">
                        <coordinates>-103.4843333333,39.4998333333,18359.63</coordinates>
                        <altitudeMode>absolute</altitudeMode>
                    </Point>
                </Placemark>
                <Placemark id="111">
                    <name>70k</name>
                    <description><![CDATA[
        <h1>Waypoint</h1>
        <table style="width: 100%;" cellpadding=0 cellspacing=0 border=0>
        <tr><td style="padding: 10px; border: solid 1px black;border-bottom: 0;"><strong>Local Time</strong></td><td style="border: solid 1px black;border-left: 0; border-bottom: 0; padding: 10px;">09:16:15</td></tr>
        <tr><td style="padding: 10px; border: solid 1px black;border-bottom: 0;"><strong>Altitude</strong></td><td style="border: solid 1px black;border-left: 0; border-bottom: 0; padding: 10px;">70,412ft (21,461.6m)</td></tr>
        <tr><td style="padding: 10px; border: solid 1px black;"><strong>Coordinates</strong></td><td style="border: solid 1px black; border-left: 0; padding: 10px;">39.50366667, -103.48616667</td></tr>
        </table>
        ]]></description>
                    <styleUrl>#112</styleUrl>
                    <Point id="110">
                        <coordinates>-103.4861666667,39.5036666667,21461.58</coordinates>
                        <altitudeMode>absolute</altitudeMode>
                    </Point>
                </Placemark>
                <Placemark id="116">
                    <name>80k</name>
                    <description><![CDATA[
        <h1>Waypoint</h1>
        <table style="width: 100%;" cellpadding=0 cellspacing=0 border=0>
        <tr><td style="padding: 10px; border: solid 1px black;border-bottom: 0;"><strong>Local Time</strong></td><td style="border: solid 1px black;border-left: 0; border-bottom: 0; padding: 10px;">09:14:15</td></tr>
        <tr><td style="padding: 10px; border: solid 1px black;border-bottom: 0;"><strong>Altitude</strong></td><td style="border: solid 1px black;border-left: 0; border-bottom: 0; padding: 10px;">80,091ft (24,411.7m)</td></tr>
        <tr><td style="padding: 10px; border: solid 1px black;"><strong>Coordinates</strong></td><td style="border: solid 1px black; border-left: 0; padding: 10px;">39.50183333, -103.485</td></tr>
        </table>
        ]]></description>
                    <styleUrl>#117</styleUrl>
                    <Point id="115">
                        <coordinates>-103.485,39.5018333333,24411.74</coordinates>
                        <altitudeMode>absolute</altitudeMode>
                    </Point>
                </Placemark>
                <Placemark id="121">
                    <name>90k</name>
                    <description><![CDATA[
        <h1>Waypoint</h1>
        <table style="width: 100%;" cellpadding=0 cellspacing=0 border=0>
        <tr><td style="padding: 10px; border: solid 1px black;border-bottom: 0;"><strong>Local Time</strong></td><td style="border: solid 1px black;border-left: 0; border-bottom: 0; padding: 10px;">09:12:41</td></tr>
        <tr><td style="padding: 10px; border: solid 1px black;border-bottom: 0;"><strong>Altitude</strong></td><td style="border: solid 1px black;border-left: 0; border-bottom: 0; padding: 10px;">89,887ft (27,397.6m)</td></tr>
        <tr><td style="padding: 10px; border: solid 1px black;"><strong>Coordinates</strong></td><td style="border: solid 1px black; border-left: 0; padding: 10px;">39.49936667, -103.49486667</td></tr>
        </table>
        ]]></description>
                    <styleUrl>#122</styleUrl>
                    <Point id="120">
                        <coordinates>-103.4948666667,39.4993666667,27397.56</coordinates>
                        <altitudeMode>absolute</altitudeMode>
                    </Point>
                </Placemark>
            </Folder>
            <Folder id="5">
                <Style id="16">
                    <IconStyle id="17">
                        <color>ff008cff</color>
                        <colorMode>normal</colorMode>
                        <scale>1</scale>
                        <heading>0</heading>
                        <Icon id="18">
                            <href>https://maps.google.com/mapfiles/kml/shapes/placemark_circle.png</href>
                        </Icon>
                    </IconStyle>
                </Style>
                <Style id="21">
                    <IconStyle id="22">
                        <color>ff008cff</color>
                        <colorMode>normal</colorMode>
                        <scale>1</scale>
                        <heading>0</heading>
                        <Icon id="23">
                            <href>https://maps.google.com/mapfiles/kml/shapes/placemark_circle.png</href>
                        </Icon>
                    </IconStyle>
                </Style>
                <Style id="26">
                    <IconStyle id="27">
                        <color>ff00ffff</color>
                        <colorMode>normal</colorMode>
                        <scale>1</scale>
                        <heading>0</heading>
                        <Icon id="28">
                            <href>https://maps.google.com/mapfiles/kml/shapes/placemark_circle.png</href>
                        </Icon>
                    </IconStyle>
                </Style>
                <Style id="31">
                    <IconStyle id="32">
                        <color>ff006400</color>
                        <colorMode>normal</colorMode>
                        <scale>1</scale>
                        <heading>0</heading>
                        <Icon id="33">
                            <href>https://maps.google.com/mapfiles/kml/shapes/placemark_circle.png</href>
                        </Icon>
                    </IconStyle>
                    <LabelStyle id="34">
                        <color>ff006400</color>
                        <colorMode>normal</colorMode>
                        <scale>1</scale>
                    </LabelStyle>
                </Style>
                <name>Points of Interest</name>
                <Placemark id="15">
                    <name>Launch</name>
                    <description><![CDATA[
    <h1>Launch</h1>
    <table style="width: 100%;" cellpadding=0 cellspacing=0 border=0>
    <tr><td style="padding: 10px; border: solid 1px black;border-bottom: 0;"><strong>Local Time</strong></td><td style="border: solid 1px black;border-bottom: 0; border-left: 0; padding: 10px;">07:59:41</td></tr>
    <tr><td style="padding: 10px; border: solid 1px black;border-bottom: 0;"><strong>Altitude</strong></td><td style="border: solid 1px black;border-left: 0; border-bottom: 0; padding: 10px;">5,211ft (1,588.3m)</td></tr>
    <tr><td style="padding: 10px; border: solid 1px black;"><strong>Coordinates</strong></td><td style="border: solid 1px black; border-left: 0; padding: 10px;">39.60803333, -104.04216667</td></tr>
    </table>
    ]]></description>
                    <styleUrl>#16</styleUrl>
                    <Point id="14">
                        <coordinates>-104.0421666667,39.6080333333,1588.31</coordinates>
                        <altitudeMode>absolute</altitudeMode>
                    </Point>
                </Placemark>
                <Placemark id="20">
                    <name>Landing</name>
                    <description><![CDATA[
    <h1>Landing</h1>
    <table style="width: 100%;" cellpadding=0 cellspacing=0 border=0>
    <tr><td style="padding: 10px; border: solid 1px black;border-bottom: 0;"><strong>Local Time</strong></td><td style="border: solid 1px black;border-left: 0; border-bottom: 0; padding: 10px;">09:54:11</td></tr>
    <tr><td style="padding: 10px; border: solid 1px black;border-bottom: 0;"><strong>Altitude</strong></td><td style="border: solid 1px black;border-bottom: 0; border-left: 0; padding: 10px;">4,902ft (1,494.1m)</td></tr>
    <tr><td style="padding: 10px; border: solid 1px black;"><strong>Coordinates</strong></td><td style="border: solid 1px black; border-left: 0; padding: 10px;">39.41216667, -103.11186667</td></tr>
    </table>
    ]]></description>
                    <styleUrl>#21</styleUrl>
                    <Point id="19">
                        <coordinates>-103.1118666667,39.4121666667,1494.13</coordinates>
                        <altitudeMode>absolute</altitudeMode>
                    </Point>
                </Placemark>
                <Placemark id="25">
                    <name>Burst 93,012ft</name>
                    <description><![CDATA[
    <h1>Burst: 93,012ft</h1>
    <table style="width: 100%;" cellpadding=0 cellspacing=0 border=0>
    <tr><td style="padding: 10px; border: solid 1px black;border-bottom: 0;"><strong>Local Time</strong></td><td style="border: solid 1px black;border-left: 0; border-bottom: 0; padding: 10px;">09:12:15</td></tr>
    <tr><td style="padding: 10px; border: solid 1px black;border-bottom: 0;"><strong>Altitude</strong></td><td style="border: solid 1px black;border-left: 0; border-bottom: 0; padding: 10px;">93,012ft (28,350.1m)</td></tr>
    <tr><td style="padding: 10px; border: solid 1px black;"><strong>Coordinates</strong></td><td style="border: solid 1px black; border-left: 0; padding: 10px;">39.49766667, -103.49733333</td></tr>
    </table>
    ]]></description>
                    <styleUrl>#26</styleUrl>
                    <Point id="24">
                        <coordinates>-103.4973333333,39.4976666667,28350.06</coordinates>
                        <altitudeMode>absolute</altitudeMode>
                    </Point>
                </Placemark>
                <Placemark id="30">
                    <name>49k, Turbulent-to-Laminar</name>
                    <description><![CDATA[
        <h1>Airflow Transitioning from Turbulent-to-Laminar</h1>
        <table style="width: 100%;" cellpadding=0 cellspacing=0 border=0>
        <tr><td style="padding: 10px; border: solid 1px black;border-bottom: 0;"><strong>Local Time</strong></td><td style="border: solid 1px black;border-left: 0; border-bottom: 0; padding: 10px;">08:32:00</td></tr>
        <tr><td style="padding: 10px; border: solid 1px black;border-bottom: 0;"><strong>Altitude</strong></td><td style="border: solid 1px black;border-left: 0; border-bottom: 0; padding: 10px;">48,805ft (14,875.8m)</td></tr>
        <tr><td style="padding: 10px; border: solid 1px black;"><strong>Coordinates</strong></td><td style="border: solid 1px black; border-left: 0; padding: 10px;">39.51333333, -103.67833333</td></tr>
        </table>
        ]]></description>
                    <styleUrl>#31</styleUrl>
                    <Point id="29">
                        <coordinates>-103.6783333333,39.5133333333,14875.76</coordinates>
                        <altitudeMode>absolute</altitudeMode>
                    </Point>
                </Placemark>
            </Folder>
        </Document>
    </Document>
</kml>
