<?xml version="1.0" encoding="UTF-8"?>
<kml xmlns="http://www.opengis.net/kml/2.2" xmlns:gx="http://www.google.com/kml/ext/2.2">
    <Document id="1">
        <Document id="2">
            <name>EOSS-291</name>
            <description><![CDATA[
    <h1>EOSS-291</h1>
    <table style="width: 100%;" cellpadding=0 cellspacing=0 border=0>
    <tr><td style="border: solid 1px black;border-bottom: 0; padding: 10px;"><strong>Launch Local Date/Time</strong></td><td style=" padding: 10px;border: solid 1px black;border-bottom: 0; border-left: 0;">2019-07-13 06:43:15</td></tr>
    <tr><td style="border: solid 1px black;border-bottom: 0; padding: 10px;"><strong>Flight Duration</strong></td><td style=" padding: 10px;border: solid 1px black;border-bottom: 0; border-left: 0; ">2hrs 8mins 15secs</td></tr>
    <tr><td style="border: solid 1px black;border-bottom: 0; padding: 10px;"><strong>Down Range Distance</strong></td><td style=" padding: 10px;border: solid 1px black;border-bottom: 0; border-left: 0; ">8.3mi (13.4km)</td></tr>
    <tr><td style="border: solid 1px black; padding: 10px;"><strong>Approx. Burst Altitude</strong></td><td style=" padding: 10px;border: solid 1px black; border-left: 0; ">102,867ft (31,353.9m)</td></tr>
    </table>
    ]]></description>
            <Folder id="3">
                <Style id="8">
                    <LineStyle id="9">
                        <color>ff0000ff</color>
                        <colorMode>normal</colorMode>
                        <width>3</width>
                    </LineStyle>
                </Style>
                <Style id="12">
                    <LineStyle id="13">
                        <color>ffff0000</color>
                        <colorMode>normal</colorMode>
                        <width>3</width>
                    </LineStyle>
                </Style>
                <name>Paths</name>
                <Placemark id="7">
                    <name>EOSS-291 Ascent</name>
                    <styleUrl>#8</styleUrl>
                    <LineString id="6">
                        <extrude>0</extrude>
                        <altitudeMode>absolute</altitudeMode>
                        <coordinates>-103.49525,39.2781833333,1704.75 -103.4950833333,39.27835,1720.29 -103.4946166667,39.2794333333,1799.84 -103.4944166667,39.28065,1840.38 -103.4942333333,39.2818833333,1955.9 -103.4940666667,39.283,1995.22 -103.4935666667,39.2841,2111.04 -103.4928666667,39.28505,2153.41 -103.4924166667,39.2859333333,2268.02 -103.4922666667,39.2867833333,2309.16 -103.4922333333,39.2877,2426.21 -103.4922333333,39.2887,2472.23 -103.4922,39.2897333333,2591.41 -103.4921166667,39.2907833333,2635.3 -103.4919666667,39.2918166667,2758.44 -103.4915666667,39.2936666667,2926.38 -103.4913833333,39.2945333333,2974.24 -103.4911,39.29535,3096.16 -103.4907833333,39.2961333333,3143.4 -103.4903666667,39.2968333333,3267.76 -103.48995,39.2974,3313.48 -103.4896833333,39.298,3436.62 -103.4894833333,39.2984666667,3485.39 -103.48935,39.2988333333,3610.36 -103.4893833333,39.2993666667,3781.65 -103.4891833333,39.2996333333,3950.82 -103.489,39.2998333333,4001.41 -103.48885,39.2999833333,4126.38 -103.4886333333,39.3000666667,4177.59 -103.4884333333,39.3002,4304.08 -103.4883166667,39.3003166667,4357.42 -103.48805,39.30045,4484.22 -103.4877166667,39.3006,4532.68 -103.4870833333,39.30065,4660.09 -103.4864333333,39.3005,4713.73 -103.4857333333,39.3003,4843.58 -103.4850166667,39.3002,4895.7 -103.4844166667,39.3000666667,5023.41 -103.48325,39.3000166667,5208.42 -103.4826833333,39.3,5262.68 -103.4820666667,39.2999833333,5396.79 -103.4814833333,39.2998833333,5451.65 -103.4808166667,39.2998,5580.58 -103.4802166667,39.2994333333,5635.75 -103.4797,39.29905,5766.21 -103.4793666667,39.2985,5821.68 -103.4791,39.2980666667,5952.13 -103.4787333333,39.2976,6007.61 -103.4780833333,39.2971,6137.76 -103.4775166667,39.2966,6193.84 -103.47715,39.2961,6321.86 -103.4767666667,39.2955333333,6376.72 -103.4763666667,39.2947833333,6504.43 -103.4761166667,39.2939333333,6559.91 -103.4758166667,39.293,6687.01 -103.4751833333,39.2920166667,6742.79 -103.4745666667,39.29065,6871.41 -103.4732666667,39.2884,7050.33 -103.47265,39.2873833333,7105.8 -103.47175,39.2864833333,7236.56 -103.4708166667,39.2856333333,7290.82 -103.4697333333,39.28475,7422.19 -103.46865,39.2837,7478.88 -103.46745,39.2826166667,7611.47 -103.4662166667,39.2816166667,7671.82 -103.465,39.2806333333,7810.2 -103.4635666667,39.27955,7872.07 -103.4621666667,39.2786166667,8009.84 -103.4589666667,39.2773166667,8211.31 -103.45745,39.27685,8273.19 -103.4560333333,39.27635,8414.31 -103.4545833333,39.2757666667,8476.18 -103.4533,39.2751166667,8624.32 -103.45195,39.2746,8694.12 -103.45065,39.2741,8835.54 -103.4493166667,39.2735,8904.12 -103.4479333333,39.2727,9037.63 -103.4466,39.2721333333,9102.24 -103.44535,39.27155,9244.58 -103.4425833333,39.2705333333,9450.93 -103.4409333333,39.27025,9523.17 -103.4393333333,39.27,9675.88 -103.4377833333,39.2697666667,9749.33 -103.4361333333,39.26955,9895.03 -103.4344833333,39.2693333333,9966.35 -103.4327833333,39.2689166667,10114.48 -103.43105,39.2684333333,10185.2 -103.4292666667,39.2680166667,10336.38 -103.4270666667,39.2675333333,10412.27 -103.4245833333,39.2670333333,10564.37 -103.4199833333,39.2657833333,10790.83 -103.4175833333,39.2652166667,10864.29 -103.4150666667,39.2645,11011.51 -103.4126333333,39.26385,11087.41 -103.4104,39.2634833333,11244.38 -103.4082,39.2635166667,11318.44 -103.4060333333,39.2638333333,11468.41 -103.4040333333,39.26415,11541.56 -103.4018833333,39.2644333333,11687.86 -103.3998166667,39.2647,11761.62 -103.3978166667,39.2649333333,11893.6 -103.3958,39.2654833333,11968.58 -103.3936,39.2659833333,12120.37 -103.3912666667,39.2668,12186.51 -103.3892833333,39.2670166667,12318.8 -103.3870166667,39.2676,12380.67 -103.3847,39.2679666667,12531.24 -103.3822666667,39.2681666667,12610.49 -103.38025,39.2685166667,12765.94 -103.37845,39.2687833333,12825.68 -103.3761166667,39.2697833333,12967.41 -103.3736333333,39.2702666667,13036.6 -103.3707666667,39.27035,13180.47 -103.3680666667,39.2703833333,13271.6 -103.3652666667,39.2700666667,13426.44 -103.36245,39.2698666667,13511.78 -103.35965,39.2696333333,13672.72 -103.3571833333,39.2693166667,13762.63 -103.3547166667,39.2684,13914.43 -103.3522833333,39.2673166667,13998.85 -103.3508333333,39.2660333333,14166.49 -103.3496166667,39.2645166667,14236.9 -103.3483166667,39.26305,14382.9 -103.3471,39.2616833333,14476.78 -103.34625,39.2602833333,14653.87 -103.3452,39.25945,14742.87 -103.3440666667,39.25885,14882.47 -103.3431833333,39.25805,14982.75 -103.3425833333,39.2575,15167.15 -103.3420333333,39.2570666667,15261.03 -103.34185,39.2569666667,15402.76 -103.3412666667,39.2567333333,15432.94 -103.34055,39.2565333333,15536.88 -103.33965,39.256,15620.09 -103.3382333333,39.2553166667,15755.42 -103.3367166667,39.2551166667,15824.91 -103.33505,39.25525,15957.8 -103.3336166667,39.2550166667,15997.12 -103.3323,39.2546666667,16152.88 -103.3316,39.2541,16215.06 -103.33175,39.2540666667,16375.08 -103.3312,39.2541333333,16456.15 -103.3308166667,39.2543333333,16563.44 -103.3299333333,39.2538666667,16589.05 -103.3290666667,39.2536833333,16691.46 -103.3282833333,39.2530666667,16746.02 -103.3276666667,39.2521,16855.14 -103.3274,39.2513,16908.17 -103.3273166667,39.25095,17083.43 -103.3271833333,39.2507,17287.65 -103.3266333333,39.2506333333,17331.23 -103.3264333333,39.25105,17435.47 -103.3262333333,39.2514833333,17491.25 -103.3259666667,39.2513833333,17621.4 -103.3269,39.2512166667,17675.35 -103.32775,39.2511,17810.38 -103.3281333333,39.25165,17908.22 -103.3283,39.2520333333,18084.09 -103.3283166667,39.25155,18133.16 -103.3280333333,39.2512333333,18264.53 -103.3281333333,39.2504833333,18308.42 -103.3289333333,39.2496666667,18407.79 -103.3301,39.2492666667,18456.25 -103.33135,39.2496,18571.77 -103.3318833333,39.2499333333,18648.27 -103.3326166667,39.2504333333,18777.81 -103.3331166667,39.25005,18822.32 -103.3331333333,39.2497833333,18926.86 -103.33325,39.2489666667,18967.4 -103.3337833333,39.2479666667,19070.73 -103.3345,39.2470833333,19112.48 -103.3355833333,39.2462333333,19237.45 -103.33655,39.2458666667,19294.45 -103.3374833333,39.2458833333,19425.82 -103.3376833333,39.246,19471.54 -103.33775,39.2460833333,19577.0 -103.3379833333,39.2460166667,19611.44 -103.3383333333,39.2456833333,19716.29 -103.3387666667,39.24535,19752.56 -103.3399,39.2450666667,19851.62 -103.3414333333,39.2451833333,19907.4 -103.3429166667,39.24605,20081.44 -103.3442333333,39.2473166667,20114.67 -103.3452666667,39.2480833333,20206.41 -103.34665,39.2488166667,20232.62 -103.34725,39.24945,20333.51 -103.3483333333,39.2497833333,20366.43 -103.3494,39.2500666667,20465.8 -103.3503,39.2505833333,20502.68 -103.3511,39.25155,20623.07 -103.35155,39.2523333333,20670.62 -103.35165,39.2532666667,20790.1 -103.35125,39.2538666667,20834.6 -103.35125,39.25415,20946.16 -103.3515,39.2545166667,20989.75 -103.3520666667,39.2543,21100.09 -103.3530333333,39.2538166667,21140.62 -103.3543166667,39.2531666667,21255.84 -103.3558333333,39.2524666667,21294.55 -103.3575833333,39.2517166667,21396.96 -103.3593,39.2514166667,21432.62 -103.36045,39.2506833333,21530.16 -103.36175,39.25015,21565.82 -103.3628,39.2497166667,21656.65 -103.3640333333,39.2491666667,21691.7 -103.3657,39.2488833333,21783.45 -103.3674666667,39.2485333333,21813.62 -103.3688833333,39.2478166667,21908.11 -103.3710166667,39.2471666667,21938.9 -103.3732166667,39.2467833333,22043.75 -103.37595,39.2467,22083.68 -103.37825,39.2467833333,22194.32 -103.3819166667,39.2475,22352.2 -103.3836166667,39.24785,22391.83 -103.38545,39.24785,22499.73 -103.3871666667,39.2475833333,22536.91 -103.38895,39.2475833333,22645.42 -103.39065,39.2477666667,22676.82 -103.3922333333,39.2477666667,22781.67 -103.3938833333,39.2476833333,22819.77 -103.3956333333,39.2474333333,22920.35 -103.3975333333,39.2472166667,22954.79 -103.3997833333,39.2469833333,23062.69 -103.4019,39.2465666667,23102.01 -103.4038,39.2461166667,23211.44 -103.4056833333,39.2459166667,23255.02 -103.4075333333,39.2453833333,23369.02 -103.4097666667,39.2449166667,23420.83 -103.4125666667,39.2443833333,23525.07 -103.4155166667,39.244,23565.0 -103.4184833333,39.24395,23675.04 -103.4213666667,39.24415,23718.01 -103.4240166667,39.2445,23819.21 -103.4268833333,39.2450166667,23853.04 -103.4294,39.2455666667,23957.28 -103.43175,39.24625,23991.11 -103.43385,39.24665,24089.56 -103.4359,39.2466833333,24128.88 -103.4379666667,39.2463166667,24233.12 -103.4400833333,39.2462833333,24284.94 -103.4424,39.2463666667,24390.4 -103.44445,39.2463333333,24429.11 -103.44645,39.2461833333,24538.84 -103.4484666667,39.2457666667,24578.16 -103.4505833333,39.2453166667,24695.51 -103.4532833333,39.2450666667,24750.98 -103.4560833333,39.2450833333,24876.25 -103.45885,39.2454,24919.23 -103.4615,39.2457166667,25033.53 -103.4641333333,39.2457166667,25076.2 -103.4667166667,39.2456333333,25184.1 -103.46945,39.24535,25221.29 -103.47235,39.2454833333,25330.1 -103.4753166667,39.2458833333,25368.2 -103.4781,39.2465833333,25472.44 -103.4808666667,39.2473833333,25509.32 -103.48345,39.2484166667,25616.61 -103.4860833333,39.24925,25656.24 -103.4886,39.2501166667,25759.56 -103.4907,39.2508166667,25798.27 -103.4924666667,39.2512333333,25898.86 -103.4943333333,39.2511833333,25936.35 -103.4963833333,39.2513,26039.67 -103.4986666667,39.2517333333,26080.21 -103.50115,39.2524666667,26190.55 -103.5037,39.25315,26232.31 -103.5061,39.2536,26341.43 -103.5085,39.2535666667,26387.45 -103.51095,39.2537666667,26502.67 -103.5135833333,39.2538166667,26548.39 -103.5162833333,39.25395,26662.69 -103.51875,39.2542833333,26712.37 -103.52115,39.2544333333,26825.75 -103.5237166667,39.2544333333,26867.51 -103.5263333333,39.2540833333,26975.41 -103.5290166667,39.2536166667,27014.42 -103.5318,39.25275,27116.23 -103.5347833333,39.2521833333,27148.54 -103.5377,39.2518833333,27248.51 -103.5409833333,39.25155,27279.3 -103.5437666667,39.2512833333,27372.26 -103.5465166667,39.2508833333,27411.58 -103.54935,39.2506,27513.38 -103.5521666667,39.2503666667,27546.3 -103.5551,39.25005,27647.8 -103.5576166667,39.2502,27682.55 -103.5598166667,39.2503666667,27787.09 -103.5623,39.2504333333,27827.63 -103.56535,39.25035,27935.53 -103.5682666667,39.2504,27982.47 -103.5713666667,39.2501833333,28097.07 -103.5742166667,39.2500833333,28143.4 -103.5773166667,39.2499333333,28261.36 -103.5803166667,39.24975,28313.48 -103.5836833333,39.24955,28431.14 -103.5872,39.2492,28478.68 -103.5905833333,39.249,28586.89 -103.5939166667,39.2488666667,28628.65 -103.5973833333,39.2487,28734.72 -103.6004333333,39.2488833333,28772.51 -103.6032166667,39.2492666667,28869.44 -103.6056,39.2497166667,28905.71 -103.6077833333,39.2504,29006.6 -103.6102333333,39.2506666667,29040.74 -103.6128166667,39.2507166667,29144.06 -103.6153833333,39.2512333333,29183.69 -103.6175833333,39.2516,29297.38 -103.62005,39.2519666667,29344.62 -103.6222166667,39.2522,29466.54 -103.62465,39.25215,29520.8 -103.6274,39.2516833333,29643.02 -103.6299833333,39.2513166667,29695.75 -103.6324,39.2512666667,29816.15 -103.6350833333,39.2513666667,29867.66 -103.6379333333,39.2511,29985.01 -103.6412666667,39.2511,30028.9 -103.6444833333,39.2510333333,30129.79 -103.6473666667,39.2512833333,30165.75 -103.6497166667,39.2514833333,30259.02 -103.65285,39.25145,30286.76 -103.6560666667,39.2515666667,30369.36 -103.6589166667,39.25165,30392.83 -103.6617333333,39.2514,30480.0 -103.6651666667,39.25125,30503.78 -103.6689,39.2508833333,30592.47 -103.6725666667,39.2508833333,30619.9 -103.6758666667,39.2510166667,30713.17 -103.6792333333,39.251,30752.8 -103.6827,39.2511333333,30861.0 -103.6862666667,39.2509333333,30906.72 -103.6898833333,39.251,31020.11 -103.6936666667,39.2512,31069.79 -103.69725,39.2515833333,31188.66 -103.7005833333,39.2523666667,31238.04 -103.7038666667,39.2528666667,31353.86</coordinates>
                    </LineString>
                </Placemark>
                <Placemark id="11">
                    <name>EOSS-291 Descent</name>
                    <styleUrl>#12</styleUrl>
                    <LineString id="10">
                        <extrude>0</extrude>
                        <altitudeMode>absolute</altitudeMode>
                        <coordinates>-103.7038666667,39.2528666667,31353.86 -103.707,39.2534166667,31199.94 -103.7090833333,39.2546666667,30507.74 -103.7105666667,39.2551833333,29844.8 -103.7134833333,39.2563833333,29184.6 -103.7143166667,39.2568166667,28596.64 -103.7183333333,39.2562833333,27997.4 -103.7217333333,39.2563666667,27438.4 -103.7239666667,39.2566,26869.34 -103.7263333333,39.2568,26342.34 -103.7286,39.25725,25814.12 -103.7311,39.25815,25328.27 -103.7338,39.2583333333,24846.08 -103.7361666667,39.25735,24426.06 -103.7381166667,39.2577,23995.08 -103.7411833333,39.2579833333,23593.96 -103.7442666667,39.25795,23209.91 -103.7476333333,39.2578833333,22853.9 -103.7492333333,39.25775,22479.61 -103.7510666667,39.25765,22110.8 -103.75345,39.2571666667,21743.21 -103.7543166667,39.2571833333,21409.76 -103.7556833333,39.2577,21112.28 -103.7576,39.2577333333,20802.6 -103.7585833333,39.25865,20508.77 -103.7592166667,39.2587666667,20202.45 -103.7606,39.2593166667,19909.23 -103.7605833333,39.2590833333,19641.31 -103.7613333333,39.2603,19383.76 -103.76255,39.2600833333,19121.32 -103.7628833333,39.25885,18872.3 -103.7636,39.2577666667,18623.28 -103.7648666667,39.2579,18379.14 -103.7649666667,39.25725,18127.37 -103.7653666667,39.2575166667,17899.38 -103.7652,39.2577833333,17640.3 -103.7648833333,39.2579166667,17410.48 -103.7647333333,39.2581833333,17157.19 -103.7635333333,39.2580333333,16938.96 -103.7621166667,39.2576333333,16717.98 -103.7617666667,39.2581666667,16511.93 -103.7611333333,39.2579666667,16294.0 -103.7604333333,39.2577166667,16109.9 -103.7596,39.2571,15903.85 -103.7586666667,39.2568,15722.5 -103.7578,39.2559666667,15521.94 -103.7568666667,39.2559,15356.74 -103.7564833333,39.25535,15161.97 -103.7559333333,39.2542833333,14994.94 -103.7555666667,39.2530166667,14799.87 -103.7551166667,39.2518,14644.73 -103.7542833333,39.2504833333,14453.92 -103.7540333333,39.2491833333,14301.83 -103.7531666667,39.2478833333,14109.8 -103.75085,39.24685,13949.17 -103.7487166667,39.2465166667,13763.85 -103.7468333333,39.2454,13616.94 -103.7441666667,39.2443,13438.63 -103.7416333333,39.2442166667,13295.38 -103.73985,39.2442,13119.51 -103.7369166667,39.2448333333,12986.61 -103.73465,39.2454,12812.57 -103.7323666667,39.24525,12683.03 -103.7298,39.2455166667,12516.61 -103.7278666667,39.2452,12390.43 -103.7256833333,39.2448,12225.53 -103.7234,39.24465,12099.95 -103.72065,39.2448166667,11937.49 -103.7186333333,39.24505,11810.7 -103.7166833333,39.2453833333,11651.59 -103.71385,39.2463166667,11539.42 -103.7108,39.2462833333,11381.54 -103.7084666667,39.2457,11269.98 -103.7068166667,39.2456166667,11115.45 -103.70405,39.2449666667,11009.07 -103.7011666667,39.2434666667,10858.5 -103.6989,39.2417,10752.13 -103.6968333333,39.2409,10603.38 -103.6935833333,39.2398,10496.09 -103.6916,39.2385333333,10347.35 -103.6901166667,39.2380166667,10243.11 -103.6875833333,39.2371333333,10094.37 -103.6860166667,39.2359166667,9994.09 -103.6843,39.2358166667,9847.17 -103.6825,39.2354333333,9743.85 -103.6819166667,39.2353666667,9600.29 -103.6803,39.2354833333,9498.48 -103.6792333333,39.2348333333,9354.31 -103.6791,39.2346666667,9254.95 -103.6777,39.2347166667,9110.17 -103.6772,39.2344666667,9011.41 -103.6758166667,39.23485,8871.2 -103.6738166667,39.2348333333,8777.02 -103.67305,39.2344666667,8637.12 -103.6719333333,39.23495,8545.37 -103.6698333333,39.2344,8314.94 -103.669,39.2346166667,8178.09 -103.6672166667,39.2342833333,8089.09 -103.6656333333,39.2334833333,7950.1 -103.6643,39.2323333333,7862.01 -103.6627666667,39.2310833333,7642.25 -103.6619,39.2297666667,7509.05 -103.66155,39.2293,7425.54 -103.6605166667,39.2288333333,7293.86 -103.6591,39.22785,7212.18 -103.6582166667,39.2265833333,7078.98 -103.6582333333,39.2252833333,6998.21 -103.6587166667,39.2245166667,6868.97 -103.6588666667,39.2243,6788.51 -103.6584333333,39.22345,6658.97 -103.6584833333,39.22205,6576.37 -103.6580333333,39.2212833333,6442.86 -103.6573,39.2208166667,6356.6 -103.6564333333,39.2203666667,6227.67 -103.6558166667,39.2201833333,6145.07 -103.65575,39.2198166667,6015.84 -103.6554833333,39.2188333333,5935.07 -103.65425,39.2184833333,5807.66 -103.65285,39.2184,5726.89 -103.6513333333,39.2182333333,5601.61 -103.65055,39.2183166667,5522.37 -103.6500833333,39.2184,5396.79 -103.6499166667,39.2182333333,5319.98 -103.6494666667,39.2176166667,5196.54 -103.6482,39.2174666667,5120.64 -103.6472,39.2177166667,4998.72 -103.6465,39.2180333333,4922.22 -103.64595,39.2182833333,4800.6 -103.6458333333,39.2184,4728.06 -103.6458833333,39.2182166667,4606.44 -103.6457833333,39.2177833333,4532.07 -103.6454166667,39.2171333333,4413.5 -103.6449166667,39.2165333333,4342.79 -103.6440666667,39.2162166667,4223.61 -103.6437833333,39.2166,4153.51 -103.6437666667,39.2170166667,4037.38 -103.6438333333,39.2174833333,3970.63 -103.6439,39.2178166667,3857.55 -103.6440333333,39.2178333333,3791.41 -103.6434833333,39.2176666667,3676.5 -103.64285,39.2174666667,3613.4 -103.6417166667,39.2177166667,3499.41 -103.64075,39.2184833333,3433.88 -103.6404666667,39.2192833333,3321.41 -103.6404833333,39.2197666667,3259.23 -103.6400333333,39.2202,3149.5 -103.6394,39.2208833333,3094.63 -103.6391166667,39.2212,2984.3 -103.63935,39.2221,2925.78 -103.6388833333,39.2229,2816.35 -103.6393,39.2235166667,2756.92 -103.6395833333,39.2249,2648.41 -103.6392666667,39.2257666667,2587.75 -103.6398333333,39.2265666667,2482.29 -103.6403166667,39.2280333333,2424.99 -103.6402166667,39.22915,2319.22 -103.6409333333,39.2303333333,2261.62 -103.6410333333,39.2319333333,2156.16 -103.6410333333,39.2328666667,2099.77 -103.6417,39.2340666667,1995.22 -103.6416166667,39.2356333333,1940.97 -103.6415833333,39.23655,1832.15 -103.6421166667,39.2371833333,1775.16 -103.6424,39.238,1667.26 -103.6419666667,39.2384,1615.14 -103.64215,39.2383333333,1616.35</coordinates>
                    </LineString>
                </Placemark>
            </Folder>
            <Folder id="4">
                <Style id="43">
                    <IconStyle id="44">
                        <color>ff0000ff</color>
                        <colorMode>normal</colorMode>
                        <scale>1</scale>
                        <heading>0</heading>
                        <Icon id="45">
                            <href>https://maps.google.com/mapfiles/kml/shapes/placemark_circle.png</href>
                        </Icon>
                    </IconStyle>
                </Style>
                <Style id="48">
                    <IconStyle id="49">
                        <color>ff0000ff</color>
                        <colorMode>normal</colorMode>
                        <scale>1</scale>
                        <heading>0</heading>
                        <Icon id="50">
                            <href>https://maps.google.com/mapfiles/kml/shapes/placemark_circle.png</href>
                        </Icon>
                    </IconStyle>
                </Style>
                <Style id="53">
                    <IconStyle id="54">
                        <color>ff0000ff</color>
                        <colorMode>normal</colorMode>
                        <scale>1</scale>
                        <heading>0</heading>
                        <Icon id="55">
                            <href>https://maps.google.com/mapfiles/kml/shapes/placemark_circle.png</href>
                        </Icon>
                    </IconStyle>
                </Style>
                <Style id="58">
                    <IconStyle id="59">
                        <color>ff0000ff</color>
                        <colorMode>normal</colorMode>
                        <scale>1</scale>
                        <heading>0</heading>
                        <Icon id="60">
                            <href>https://maps.google.com/mapfiles/kml/shapes/placemark_circle.png</href>
                        </Icon>
                    </IconStyle>
                </Style>
                <Style id="63">
                    <IconStyle id="64">
                        <color>ff0000ff</color>
                        <colorMode>normal</colorMode>
                        <scale>1</scale>
                        <heading>0</heading>
                        <Icon id="65">
                            <href>https://maps.google.com/mapfiles/kml/shapes/placemark_circle.png</href>
                        </Icon>
                    </IconStyle>
                </Style>
                <Style id="68">
                    <IconStyle id="69">
                        <color>ff0000ff</color>
                        <colorMode>normal</colorMode>
                        <scale>1</scale>
                        <heading>0</heading>
                        <Icon id="70">
                            <href>https://maps.google.com/mapfiles/kml/shapes/placemark_circle.png</href>
                        </Icon>
                    </IconStyle>
                </Style>
                <Style id="73">
                    <IconStyle id="74">
                        <color>ff0000ff</color>
                        <colorMode>normal</colorMode>
                        <scale>1</scale>
                        <heading>0</heading>
                        <Icon id="75">
                            <href>https://maps.google.com/mapfiles/kml/shapes/placemark_circle.png</href>
                        </Icon>
                    </IconStyle>
                </Style>
                <Style id="78">
                    <IconStyle id="79">
                        <color>ff0000ff</color>
                        <colorMode>normal</colorMode>
                        <scale>1</scale>
                        <heading>0</heading>
                        <Icon id="80">
                            <href>https://maps.google.com/mapfiles/kml/shapes/placemark_circle.png</href>
                        </Icon>
                    </IconStyle>
                </Style>
                <Style id="83">
                    <IconStyle id="84">
                        <color>ff0000ff</color>
                        <colorMode>normal</colorMode>
                        <scale>1</scale>
                        <heading>0</heading>
                        <Icon id="85">
                            <href>https://maps.google.com/mapfiles/kml/shapes/placemark_circle.png</href>
                        </Icon>
                    </IconStyle>
                </Style>
                <Style id="88">
                    <IconStyle id="89">
                        <color>ff0000ff</color>
                        <colorMode>normal</colorMode>
                        <scale>1</scale>
                        <heading>0</heading>
                        <Icon id="90">
                            <href>https://maps.google.com/mapfiles/kml/shapes/placemark_circle.png</href>
                        </Icon>
                    </IconStyle>
                </Style>
                <Style id="93">
                    <IconStyle id="94">
                        <color>ffff0000</color>
                        <colorMode>normal</colorMode>
                        <scale>1</scale>
                        <heading>0</heading>
                        <Icon id="95">
                            <href>https://maps.google.com/mapfiles/kml/shapes/placemark_circle.png</href>
                        </Icon>
                    </IconStyle>
                </Style>
                <Style id="98">
                    <IconStyle id="99">
                        <color>ffff0000</color>
                        <colorMode>normal</colorMode>
                        <scale>1</scale>
                        <heading>0</heading>
                        <Icon id="100">
                            <href>https://maps.google.com/mapfiles/kml/shapes/placemark_circle.png</href>
                        </Icon>
                    </IconStyle>
                </Style>
                <Style id="103">
                    <IconStyle id="104">
                        <color>ffff0000</color>
                        <colorMode>normal</colorMode>
                        <scale>1</scale>
                        <heading>0</heading>
                        <Icon id="105">
                            <href>https://maps.google.com/mapfiles/kml/shapes/placemark_circle.png</href>
                        </Icon>
                    </IconStyle>
                </Style>
                <Style id="108">
                    <IconStyle id="109">
                        <color>ffff0000</color>
                        <colorMode>normal</colorMode>
                        <scale>1</scale>
                        <heading>0</heading>
                        <Icon id="110">
                            <href>https://maps.google.com/mapfiles/kml/shapes/placemark_circle.png</href>
                        </Icon>
                    </IconStyle>
                </Style>
                <Style id="113">
                    <IconStyle id="114">
                        <color>ffff0000</color>
                        <colorMode>normal</colorMode>
                        <scale>1</scale>
                        <heading>0</heading>
                        <Icon id="115">
                            <href>https://maps.google.com/mapfiles/kml/shapes/placemark_circle.png</href>
                        </Icon>
                    </IconStyle>
                </Style>
                <Style id="118">
                    <IconStyle id="119">
                        <color>ffff0000</color>
                        <colorMode>normal</colorMode>
                        <scale>1</scale>
                        <heading>0</heading>
                        <Icon id="120">
                            <href>https://maps.google.com/mapfiles/kml/shapes/placemark_circle.png</href>
                        </Icon>
                    </IconStyle>
                </Style>
                <Style id="123">
                    <IconStyle id="124">
                        <color>ffff0000</color>
                        <colorMode>normal</colorMode>
                        <scale>1</scale>
                        <heading>0</heading>
                        <Icon id="125">
                            <href>https://maps.google.com/mapfiles/kml/shapes/placemark_circle.png</href>
                        </Icon>
                    </IconStyle>
                </Style>
                <Style id="128">
                    <IconStyle id="129">
                        <color>ffff0000</color>
                        <colorMode>normal</colorMode>
                        <scale>1</scale>
                        <heading>0</heading>
                        <Icon id="130">
                            <href>https://maps.google.com/mapfiles/kml/shapes/placemark_circle.png</href>
                        </Icon>
                    </IconStyle>
                </Style>
                <Style id="133">
                    <IconStyle id="134">
                        <color>ffff0000</color>
                        <colorMode>normal</colorMode>
                        <scale>1</scale>
                        <heading>0</heading>
                        <Icon id="135">
                            <href>https://maps.google.com/mapfiles/kml/shapes/placemark_circle.png</href>
                        </Icon>
                    </IconStyle>
                </Style>
                <Style id="138">
                    <IconStyle id="139">
                        <color>ffff0000</color>
                        <colorMode>normal</colorMode>
                        <scale>1</scale>
                        <heading>0</heading>
                        <Icon id="140">
                            <href>https://maps.google.com/mapfiles/kml/shapes/placemark_circle.png</href>
                        </Icon>
                    </IconStyle>
                </Style>
                <name>Waypoints</name>
                <Placemark id="42">
                    <name>10k</name>
                    <description><![CDATA[
        <h1>Waypoint</h1>
        <table style="width: 100%;" cellpadding=0 cellspacing=0 border=0>
        <tr><td style="padding: 10px; border: solid 1px black;border-bottom: 0;"><strong>Local Time</strong></td><td style="border: solid 1px black;border-left: 0; border-bottom: 0; padding: 10px;">06:47:45</td></tr>
        <tr><td style="padding: 10px; border: solid 1px black;border-bottom: 0;"><strong>Altitude</strong></td><td style="border: solid 1px black;border-left: 0; border-bottom: 0; padding: 10px;">10,158ft (3,096.2m)</td></tr>
        <tr><td style="padding: 10px; border: solid 1px black;"><strong>Coordinates</strong></td><td style="border: solid 1px black; border-left: 0; padding: 10px;">39.29535, -103.4911</td></tr>
        </table>
        ]]></description>
                    <styleUrl>#43</styleUrl>
                    <Point id="41">
                        <coordinates>-103.4911,39.29535,3096.16</coordinates>
                        <altitudeMode>absolute</altitudeMode>
                    </Point>
                </Placemark>
                <Placemark id="47">
                    <name>20k</name>
                    <description><![CDATA[
        <h1>Waypoint</h1>
        <table style="width: 100%;" cellpadding=0 cellspacing=0 border=0>
        <tr><td style="padding: 10px; border: solid 1px black;border-bottom: 0;"><strong>Local Time</strong></td><td style="border: solid 1px black;border-left: 0; border-bottom: 0; padding: 10px;">06:56:15</td></tr>
        <tr><td style="padding: 10px; border: solid 1px black;border-bottom: 0;"><strong>Altitude</strong></td><td style="border: solid 1px black;border-left: 0; border-bottom: 0; padding: 10px;">20,137ft (6,137.8m)</td></tr>
        <tr><td style="padding: 10px; border: solid 1px black;"><strong>Coordinates</strong></td><td style="border: solid 1px black; border-left: 0; padding: 10px;">39.2971, -103.47808333</td></tr>
        </table>
        ]]></description>
                    <styleUrl>#48</styleUrl>
                    <Point id="46">
                        <coordinates>-103.4780833333,39.2971,6137.76</coordinates>
                        <altitudeMode>absolute</altitudeMode>
                    </Point>
                </Placemark>
                <Placemark id="52">
                    <name>30k</name>
                    <description><![CDATA[
        <h1>Waypoint</h1>
        <table style="width: 100%;" cellpadding=0 cellspacing=0 border=0>
        <tr><td style="padding: 10px; border: solid 1px black;border-bottom: 0;"><strong>Local Time</strong></td><td style="border: solid 1px black;border-left: 0; border-bottom: 0; padding: 10px;">07:04:00</td></tr>
        <tr><td style="padding: 10px; border: solid 1px black;border-bottom: 0;"><strong>Altitude</strong></td><td style="border: solid 1px black;border-left: 0; border-bottom: 0; padding: 10px;">29,863ft (9,102.2m)</td></tr>
        <tr><td style="padding: 10px; border: solid 1px black;"><strong>Coordinates</strong></td><td style="border: solid 1px black; border-left: 0; padding: 10px;">39.27213333, -103.4466</td></tr>
        </table>
        ]]></description>
                    <styleUrl>#53</styleUrl>
                    <Point id="51">
                        <coordinates>-103.4466,39.2721333333,9102.24</coordinates>
                        <altitudeMode>absolute</altitudeMode>
                    </Point>
                </Placemark>
                <Placemark id="57">
                    <name>40k</name>
                    <description><![CDATA[
        <h1>Waypoint</h1>
        <table style="width: 100%;" cellpadding=0 cellspacing=0 border=0>
        <tr><td style="padding: 10px; border: solid 1px black;border-bottom: 0;"><strong>Local Time</strong></td><td style="border: solid 1px black;border-left: 0; border-bottom: 0; padding: 10px;">07:11:00</td></tr>
        <tr><td style="padding: 10px; border: solid 1px black;border-bottom: 0;"><strong>Altitude</strong></td><td style="border: solid 1px black;border-left: 0; border-bottom: 0; padding: 10px;">39,982ft (12,186.5m)</td></tr>
        <tr><td style="padding: 10px; border: solid 1px black;"><strong>Coordinates</strong></td><td style="border: solid 1px black; border-left: 0; padding: 10px;">39.2668, -103.39126667</td></tr>
        </table>
        ]]></description>
                    <styleUrl>#58</styleUrl>
                    <Point id="56">
                        <coordinates>-103.3912666667,39.2668,12186.51</coordinates>
                        <altitudeMode>absolute</altitudeMode>
                    </Point>
                </Placemark>
                <Placemark id="62">
                    <name>50k</name>
                    <description><![CDATA[
        <h1>Waypoint</h1>
        <table style="width: 100%;" cellpadding=0 cellspacing=0 border=0>
        <tr><td style="padding: 10px; border: solid 1px black;border-bottom: 0;"><strong>Local Time</strong></td><td style="border: solid 1px black;border-left: 0; border-bottom: 0; padding: 10px;">07:17:30</td></tr>
        <tr><td style="padding: 10px; border: solid 1px black;border-bottom: 0;"><strong>Altitude</strong></td><td style="border: solid 1px black;border-left: 0; border-bottom: 0; padding: 10px;">50,069ft (15,261.0m)</td></tr>
        <tr><td style="padding: 10px; border: solid 1px black;"><strong>Coordinates</strong></td><td style="border: solid 1px black; border-left: 0; padding: 10px;">39.25706667, -103.34203333</td></tr>
        </table>
        ]]></description>
                    <styleUrl>#63</styleUrl>
                    <Point id="61">
                        <coordinates>-103.3420333333,39.2570666667,15261.03</coordinates>
                        <altitudeMode>absolute</altitudeMode>
                    </Point>
                </Placemark>
                <Placemark id="67">
                    <name>60k</name>
                    <description><![CDATA[
        <h1>Waypoint</h1>
        <table style="width: 100%;" cellpadding=0 cellspacing=0 border=0>
        <tr><td style="padding: 10px; border: solid 1px black;border-bottom: 0;"><strong>Local Time</strong></td><td style="border: solid 1px black;border-left: 0; border-bottom: 0; padding: 10px;">07:25:30</td></tr>
        <tr><td style="padding: 10px; border: solid 1px black;border-bottom: 0;"><strong>Altitude</strong></td><td style="border: solid 1px black;border-left: 0; border-bottom: 0; padding: 10px;">60,067ft (18,308.4m)</td></tr>
        <tr><td style="padding: 10px; border: solid 1px black;"><strong>Coordinates</strong></td><td style="border: solid 1px black; border-left: 0; padding: 10px;">39.25048333, -103.32813333</td></tr>
        </table>
        ]]></description>
                    <styleUrl>#68</styleUrl>
                    <Point id="66">
                        <coordinates>-103.3281333333,39.2504833333,18308.42</coordinates>
                        <altitudeMode>absolute</altitudeMode>
                    </Point>
                </Placemark>
                <Placemark id="72">
                    <name>70k</name>
                    <description><![CDATA[
        <h1>Waypoint</h1>
        <table style="width: 100%;" cellpadding=0 cellspacing=0 border=0>
        <tr><td style="padding: 10px; border: solid 1px black;border-bottom: 0;"><strong>Local Time</strong></td><td style="border: solid 1px black;border-left: 0; border-bottom: 0; padding: 10px;">07:35:00</td></tr>
        <tr><td style="padding: 10px; border: solid 1px black;border-bottom: 0;"><strong>Altitude</strong></td><td style="border: solid 1px black;border-left: 0; border-bottom: 0; padding: 10px;">69,864ft (21,294.5m)</td></tr>
        <tr><td style="padding: 10px; border: solid 1px black;"><strong>Coordinates</strong></td><td style="border: solid 1px black; border-left: 0; padding: 10px;">39.25246667, -103.35583333</td></tr>
        </table>
        ]]></description>
                    <styleUrl>#73</styleUrl>
                    <Point id="71">
                        <coordinates>-103.3558333333,39.2524666667,21294.55</coordinates>
                        <altitudeMode>absolute</altitudeMode>
                    </Point>
                </Placemark>
                <Placemark id="77">
                    <name>80k</name>
                    <description><![CDATA[
        <h1>Waypoint</h1>
        <table style="width: 100%;" cellpadding=0 cellspacing=0 border=0>
        <tr><td style="padding: 10px; border: solid 1px black;border-bottom: 0;"><strong>Local Time</strong></td><td style="border: solid 1px black;border-left: 0; border-bottom: 0; padding: 10px;">07:45:45</td></tr>
        <tr><td style="padding: 10px; border: solid 1px black;border-bottom: 0;"><strong>Altitude</strong></td><td style="border: solid 1px black;border-left: 0; border-bottom: 0; padding: 10px;">80,021ft (24,390.4m)</td></tr>
        <tr><td style="padding: 10px; border: solid 1px black;"><strong>Coordinates</strong></td><td style="border: solid 1px black; border-left: 0; padding: 10px;">39.24636667, -103.4424</td></tr>
        </table>
        ]]></description>
                    <styleUrl>#78</styleUrl>
                    <Point id="76">
                        <coordinates>-103.4424,39.2463666667,24390.4</coordinates>
                        <altitudeMode>absolute</altitudeMode>
                    </Point>
                </Placemark>
                <Placemark id="82">
                    <name>90k</name>
                    <description><![CDATA[
        <h1>Waypoint</h1>
        <table style="width: 100%;" cellpadding=0 cellspacing=0 border=0>
        <tr><td style="padding: 10px; border: solid 1px black;border-bottom: 0;"><strong>Local Time</strong></td><td style="border: solid 1px black;border-left: 0; border-bottom: 0; padding: 10px;">07:56:00</td></tr>
        <tr><td style="padding: 10px; border: solid 1px black;border-bottom: 0;"><strong>Altitude</strong></td><td style="border: solid 1px black;border-left: 0; border-bottom: 0; padding: 10px;">89,933ft (27,411.6m)</td></tr>
        <tr><td style="padding: 10px; border: solid 1px black;"><strong>Coordinates</strong></td><td style="border: solid 1px black; border-left: 0; padding: 10px;">39.25088333, -103.54651667</td></tr>
        </table>
        ]]></description>
                    <styleUrl>#83</styleUrl>
                    <Point id="81">
                        <coordinates>-103.5465166667,39.2508833333,27411.58</coordinates>
                        <altitudeMode>absolute</altitudeMode>
                    </Point>
                </Placemark>
                <Placemark id="87">
                    <name>100k</name>
                    <description><![CDATA[
        <h1>Waypoint</h1>
        <table style="width: 100%;" cellpadding=0 cellspacing=0 border=0>
        <tr><td style="padding: 10px; border: solid 1px black;border-bottom: 0;"><strong>Local Time</strong></td><td style="border: solid 1px black;border-left: 0; border-bottom: 0; padding: 10px;">08:06:15</td></tr>
        <tr><td style="padding: 10px; border: solid 1px black;border-bottom: 0;"><strong>Altitude</strong></td><td style="border: solid 1px black;border-left: 0; border-bottom: 0; padding: 10px;">100,000ft (30,480.0m)</td></tr>
        <tr><td style="padding: 10px; border: solid 1px black;"><strong>Coordinates</strong></td><td style="border: solid 1px black; border-left: 0; padding: 10px;">39.2514, -103.66173333</td></tr>
        </table>
        ]]></description>
                    <styleUrl>#88</styleUrl>
                    <Point id="86">
                        <coordinates>-103.6617333333,39.2514,30480.0</coordinates>
                        <altitudeMode>absolute</altitudeMode>
                    </Point>
                </Placemark>
                <Placemark id="92">
                    <name>10k</name>
                    <description><![CDATA[
        <h1>Waypoint</h1>
        <table style="width: 100%;" cellpadding=0 cellspacing=0 border=0>
        <tr><td style="padding: 10px; border: solid 1px black;border-bottom: 0;"><strong>Local Time</strong></td><td style="border: solid 1px black;border-left: 0; border-bottom: 0; padding: 10px;">08:46:15</td></tr>
        <tr><td style="padding: 10px; border: solid 1px black;border-bottom: 0;"><strong>Altitude</strong></td><td style="border: solid 1px black;border-left: 0; border-bottom: 0; padding: 10px;">10,153ft (3,094.6m)</td></tr>
        <tr><td style="padding: 10px; border: solid 1px black;"><strong>Coordinates</strong></td><td style="border: solid 1px black; border-left: 0; padding: 10px;">39.22088333, -103.6394</td></tr>
        </table>
        ]]></description>
                    <styleUrl>#93</styleUrl>
                    <Point id="91">
                        <coordinates>-103.6394,39.2208833333,3094.63</coordinates>
                        <altitudeMode>absolute</altitudeMode>
                    </Point>
                </Placemark>
                <Placemark id="97">
                    <name>20k</name>
                    <description><![CDATA[
        <h1>Waypoint</h1>
        <table style="width: 100%;" cellpadding=0 cellspacing=0 border=0>
        <tr><td style="padding: 10px; border: solid 1px black;border-bottom: 0;"><strong>Local Time</strong></td><td style="border: solid 1px black;border-left: 0; border-bottom: 0; padding: 10px;">08:38:15</td></tr>
        <tr><td style="padding: 10px; border: solid 1px black;border-bottom: 0;"><strong>Altitude</strong></td><td style="border: solid 1px black;border-left: 0; border-bottom: 0; padding: 10px;">20,161ft (6,145.1m)</td></tr>
        <tr><td style="padding: 10px; border: solid 1px black;"><strong>Coordinates</strong></td><td style="border: solid 1px black; border-left: 0; padding: 10px;">39.22018333, -103.65581667</td></tr>
        </table>
        ]]></description>
                    <styleUrl>#98</styleUrl>
                    <Point id="96">
                        <coordinates>-103.6558166667,39.2201833333,6145.07</coordinates>
                        <altitudeMode>absolute</altitudeMode>
                    </Point>
                </Placemark>
                <Placemark id="102">
                    <name>30k</name>
                    <description><![CDATA[
        <h1>Waypoint</h1>
        <table style="width: 100%;" cellpadding=0 cellspacing=0 border=0>
        <tr><td style="padding: 10px; border: solid 1px black;border-bottom: 0;"><strong>Local Time</strong></td><td style="border: solid 1px black;border-left: 0; border-bottom: 0; padding: 10px;">08:31:30</td></tr>
        <tr><td style="padding: 10px; border: solid 1px black;border-bottom: 0;"><strong>Altitude</strong></td><td style="border: solid 1px black;border-left: 0; border-bottom: 0; padding: 10px;">29,889ft (9,110.2m)</td></tr>
        <tr><td style="padding: 10px; border: solid 1px black;"><strong>Coordinates</strong></td><td style="border: solid 1px black; border-left: 0; padding: 10px;">39.23471667, -103.6777</td></tr>
        </table>
        ]]></description>
                    <styleUrl>#103</styleUrl>
                    <Point id="101">
                        <coordinates>-103.6777,39.2347166667,9110.17</coordinates>
                        <altitudeMode>absolute</altitudeMode>
                    </Point>
                </Placemark>
                <Placemark id="107">
                    <name>40k</name>
                    <description><![CDATA[
        <h1>Waypoint</h1>
        <table style="width: 100%;" cellpadding=0 cellspacing=0 border=0>
        <tr><td style="padding: 10px; border: solid 1px black;border-bottom: 0;"><strong>Local Time</strong></td><td style="border: solid 1px black;border-left: 0; border-bottom: 0; padding: 10px;">08:25:30</td></tr>
        <tr><td style="padding: 10px; border: solid 1px black;border-bottom: 0;"><strong>Altitude</strong></td><td style="border: solid 1px black;border-left: 0; border-bottom: 0; padding: 10px;">40,110ft (12,225.5m)</td></tr>
        <tr><td style="padding: 10px; border: solid 1px black;"><strong>Coordinates</strong></td><td style="border: solid 1px black; border-left: 0; padding: 10px;">39.2448, -103.72568333</td></tr>
        </table>
        ]]></description>
                    <styleUrl>#108</styleUrl>
                    <Point id="106">
                        <coordinates>-103.7256833333,39.2448,12225.53</coordinates>
                        <altitudeMode>absolute</altitudeMode>
                    </Point>
                </Placemark>
                <Placemark id="112">
                    <name>50k</name>
                    <description><![CDATA[
        <h1>Waypoint</h1>
        <table style="width: 100%;" cellpadding=0 cellspacing=0 border=0>
        <tr><td style="padding: 10px; border: solid 1px black;border-bottom: 0;"><strong>Local Time</strong></td><td style="border: solid 1px black;border-left: 0; border-bottom: 0; padding: 10px;">08:21:00</td></tr>
        <tr><td style="padding: 10px; border: solid 1px black;border-bottom: 0;"><strong>Altitude</strong></td><td style="border: solid 1px black;border-left: 0; border-bottom: 0; padding: 10px;">49,744ft (15,162.0m)</td></tr>
        <tr><td style="padding: 10px; border: solid 1px black;"><strong>Coordinates</strong></td><td style="border: solid 1px black; border-left: 0; padding: 10px;">39.25535, -103.75648333</td></tr>
        </table>
        ]]></description>
                    <styleUrl>#113</styleUrl>
                    <Point id="111">
                        <coordinates>-103.7564833333,39.25535,15161.97</coordinates>
                        <altitudeMode>absolute</altitudeMode>
                    </Point>
                </Placemark>
                <Placemark id="117">
                    <name>60k</name>
                    <description><![CDATA[
        <h1>Waypoint</h1>
        <table style="width: 100%;" cellpadding=0 cellspacing=0 border=0>
        <tr><td style="padding: 10px; border: solid 1px black;border-bottom: 0;"><strong>Local Time</strong></td><td style="border: solid 1px black;border-left: 0; border-bottom: 0; padding: 10px;">08:17:15</td></tr>
        <tr><td style="padding: 10px; border: solid 1px black;border-bottom: 0;"><strong>Altitude</strong></td><td style="border: solid 1px black;border-left: 0; border-bottom: 0; padding: 10px;">60,299ft (18,379.1m)</td></tr>
        <tr><td style="padding: 10px; border: solid 1px black;"><strong>Coordinates</strong></td><td style="border: solid 1px black; border-left: 0; padding: 10px;">39.2579, -103.76486667</td></tr>
        </table>
        ]]></description>
                    <styleUrl>#118</styleUrl>
                    <Point id="116">
                        <coordinates>-103.7648666667,39.2579,18379.14</coordinates>
                        <altitudeMode>absolute</altitudeMode>
                    </Point>
                </Placemark>
                <Placemark id="122">
                    <name>70k</name>
                    <description><![CDATA[
        <h1>Waypoint</h1>
        <table style="width: 100%;" cellpadding=0 cellspacing=0 border=0>
        <tr><td style="padding: 10px; border: solid 1px black;border-bottom: 0;"><strong>Local Time</strong></td><td style="border: solid 1px black;border-left: 0; border-bottom: 0; padding: 10px;">08:14:30</td></tr>
        <tr><td style="padding: 10px; border: solid 1px black;border-bottom: 0;"><strong>Altitude</strong></td><td style="border: solid 1px black;border-left: 0; border-bottom: 0; padding: 10px;">70,242ft (21,409.8m)</td></tr>
        <tr><td style="padding: 10px; border: solid 1px black;"><strong>Coordinates</strong></td><td style="border: solid 1px black; border-left: 0; padding: 10px;">39.25718333, -103.75431667</td></tr>
        </table>
        ]]></description>
                    <styleUrl>#123</styleUrl>
                    <Point id="121">
                        <coordinates>-103.7543166667,39.2571833333,21409.76</coordinates>
                        <altitudeMode>absolute</altitudeMode>
                    </Point>
                </Placemark>
                <Placemark id="127">
                    <name>80k</name>
                    <description><![CDATA[
        <h1>Waypoint</h1>
        <table style="width: 100%;" cellpadding=0 cellspacing=0 border=0>
        <tr><td style="padding: 10px; border: solid 1px black;border-bottom: 0;"><strong>Local Time</strong></td><td style="border: solid 1px black;border-left: 0; border-bottom: 0; padding: 10px;">08:12:30</td></tr>
        <tr><td style="padding: 10px; border: solid 1px black;border-bottom: 0;"><strong>Altitude</strong></td><td style="border: solid 1px black;border-left: 0; border-bottom: 0; padding: 10px;">80,138ft (24,426.1m)</td></tr>
        <tr><td style="padding: 10px; border: solid 1px black;"><strong>Coordinates</strong></td><td style="border: solid 1px black; border-left: 0; padding: 10px;">39.25735, -103.73616667</td></tr>
        </table>
        ]]></description>
                    <styleUrl>#128</styleUrl>
                    <Point id="126">
                        <coordinates>-103.7361666667,39.25735,24426.06</coordinates>
                        <altitudeMode>absolute</altitudeMode>
                    </Point>
                </Placemark>
                <Placemark id="132">
                    <name>90k</name>
                    <description><![CDATA[
        <h1>Waypoint</h1>
        <table style="width: 100%;" cellpadding=0 cellspacing=0 border=0>
        <tr><td style="padding: 10px; border: solid 1px black;border-bottom: 0;"><strong>Local Time</strong></td><td style="border: solid 1px black;border-left: 0; border-bottom: 0; padding: 10px;">08:11:00</td></tr>
        <tr><td style="padding: 10px; border: solid 1px black;border-bottom: 0;"><strong>Altitude</strong></td><td style="border: solid 1px black;border-left: 0; border-bottom: 0; padding: 10px;">90,021ft (27,438.4m)</td></tr>
        <tr><td style="padding: 10px; border: solid 1px black;"><strong>Coordinates</strong></td><td style="border: solid 1px black; border-left: 0; padding: 10px;">39.25636667, -103.72173333</td></tr>
        </table>
        ]]></description>
                    <styleUrl>#133</styleUrl>
                    <Point id="131">
                        <coordinates>-103.7217333333,39.2563666667,27438.4</coordinates>
                        <altitudeMode>absolute</altitudeMode>
                    </Point>
                </Placemark>
                <Placemark id="137">
                    <name>100k</name>
                    <description><![CDATA[
        <h1>Waypoint</h1>
        <table style="width: 100%;" cellpadding=0 cellspacing=0 border=0>
        <tr><td style="padding: 10px; border: solid 1px black;border-bottom: 0;"><strong>Local Time</strong></td><td style="border: solid 1px black;border-left: 0; border-bottom: 0; padding: 10px;">08:09:45</td></tr>
        <tr><td style="padding: 10px; border: solid 1px black;border-bottom: 0;"><strong>Altitude</strong></td><td style="border: solid 1px black;border-left: 0; border-bottom: 0; padding: 10px;">100,091ft (30,507.7m)</td></tr>
        <tr><td style="padding: 10px; border: solid 1px black;"><strong>Coordinates</strong></td><td style="border: solid 1px black; border-left: 0; padding: 10px;">39.25466667, -103.70908333</td></tr>
        </table>
        ]]></description>
                    <styleUrl>#138</styleUrl>
                    <Point id="136">
                        <coordinates>-103.7090833333,39.2546666667,30507.74</coordinates>
                        <altitudeMode>absolute</altitudeMode>
                    </Point>
                </Placemark>
            </Folder>
            <Folder id="5">
                <Style id="16">
                    <IconStyle id="17">
                        <color>ff008cff</color>
                        <colorMode>normal</colorMode>
                        <scale>1</scale>
                        <heading>0</heading>
                        <Icon id="18">
                            <href>https://maps.google.com/mapfiles/kml/shapes/placemark_circle.png</href>
                        </Icon>
                    </IconStyle>
                </Style>
                <Style id="21">
                    <IconStyle id="22">
                        <color>ff008cff</color>
                        <colorMode>normal</colorMode>
                        <scale>1</scale>
                        <heading>0</heading>
                        <Icon id="23">
                            <href>https://maps.google.com/mapfiles/kml/shapes/placemark_circle.png</href>
                        </Icon>
                    </IconStyle>
                </Style>
                <Style id="26">
                    <IconStyle id="27">
                        <color>ff00ffff</color>
                        <colorMode>normal</colorMode>
                        <scale>1</scale>
                        <heading>0</heading>
                        <Icon id="28">
                            <href>https://maps.google.com/mapfiles/kml/shapes/placemark_circle.png</href>
                        </Icon>
                    </IconStyle>
                </Style>
                <Style id="31">
                    <IconStyle id="32">
                        <color>ff006400</color>
                        <colorMode>normal</colorMode>
                        <scale>1</scale>
                        <heading>0</heading>
                        <Icon id="33">
                            <href>https://maps.google.com/mapfiles/kml/shapes/placemark_circle.png</href>
                        </Icon>
                    </IconStyle>
                    <LabelStyle id="34">
                        <color>ff006400</color>
                        <colorMode>normal</colorMode>
                        <scale>1</scale>
                    </LabelStyle>
                </Style>
                <Style id="37">
                    <IconStyle id="38">
                        <color>ff006400</color>
                        <colorMode>normal</colorMode>
                        <scale>1</scale>
                        <heading>0</heading>
                        <Icon id="39">
                            <href>https://maps.google.com/mapfiles/kml/shapes/placemark_circle.png</href>
                        </Icon>
                    </IconStyle>
                    <LabelStyle id="40">
                        <color>ff006400</color>
                        <colorMode>normal</colorMode>
                        <scale>1</scale>
                    </LabelStyle>
                </Style>
                <name>Points of Interest</name>
                <Placemark id="15">
                    <name>Launch</name>
                    <description><![CDATA[
    <h1>Launch</h1>
    <table style="width: 100%;" cellpadding=0 cellspacing=0 border=0>
    <tr><td style="padding: 10px; border: solid 1px black;border-bottom: 0;"><strong>Local Time</strong></td><td style="border: solid 1px black;border-bottom: 0; border-left: 0; padding: 10px;">06:43:15</td></tr>
    <tr><td style="padding: 10px; border: solid 1px black;border-bottom: 0;"><strong>Altitude</strong></td><td style="border: solid 1px black;border-left: 0; border-bottom: 0; padding: 10px;">5,593ft (1,704.8m)</td></tr>
    <tr><td style="padding: 10px; border: solid 1px black;"><strong>Coordinates</strong></td><td style="border: solid 1px black; border-left: 0; padding: 10px;">39.27818333, -103.49525</td></tr>
    </table>
    ]]></description>
                    <styleUrl>#16</styleUrl>
                    <Point id="14">
                        <coordinates>-103.49525,39.2781833333,1704.75</coordinates>
                        <altitudeMode>absolute</altitudeMode>
                    </Point>
                </Placemark>
                <Placemark id="20">
                    <name>Landing</name>
                    <description><![CDATA[
    <h1>Landing</h1>
    <table style="width: 100%;" cellpadding=0 cellspacing=0 border=0>
    <tr><td style="padding: 10px; border: solid 1px black;border-bottom: 0;"><strong>Local Time</strong></td><td style="border: solid 1px black;border-left: 0; border-bottom: 0; padding: 10px;">08:51:30</td></tr>
    <tr><td style="padding: 10px; border: solid 1px black;border-bottom: 0;"><strong>Altitude</strong></td><td style="border: solid 1px black;border-bottom: 0; border-left: 0; padding: 10px;">5,303ft (1,616.4m)</td></tr>
    <tr><td style="padding: 10px; border: solid 1px black;"><strong>Coordinates</strong></td><td style="border: solid 1px black; border-left: 0; padding: 10px;">39.23833333, -103.64215</td></tr>
    </table>
    ]]></description>
                    <styleUrl>#21</styleUrl>
                    <Point id="19">
                        <coordinates>-103.64215,39.2383333333,1616.35</coordinates>
                        <altitudeMode>absolute</altitudeMode>
                    </Point>
                </Placemark>
                <Placemark id="25">
                    <name>Burst 102,867ft</name>
                    <description><![CDATA[
    <h1>Burst: 102,867ft</h1>
    <table style="width: 100%;" cellpadding=0 cellspacing=0 border=0>
    <tr><td style="padding: 10px; border: solid 1px black;border-bottom: 0;"><strong>Local Time</strong></td><td style="border: solid 1px black;border-left: 0; border-bottom: 0; padding: 10px;">08:09:15</td></tr>
    <tr><td style="padding: 10px; border: solid 1px black;border-bottom: 0;"><strong>Altitude</strong></td><td style="border: solid 1px black;border-left: 0; border-bottom: 0; padding: 10px;">102,867ft (31,353.9m)</td></tr>
    <tr><td style="padding: 10px; border: solid 1px black;"><strong>Coordinates</strong></td><td style="border: solid 1px black; border-left: 0; padding: 10px;">39.25286667, -103.70386667</td></tr>
    </table>
    ]]></description>
                    <styleUrl>#26</styleUrl>
                    <Point id="24">
                        <coordinates>-103.7038666667,39.2528666667,31353.86</coordinates>
                        <altitudeMode>absolute</altitudeMode>
                    </Point>
                </Placemark>
                <Placemark id="30">
                    <name>13k, Laminar-to-Turbulent</name>
                    <description><![CDATA[
        <h1>Airflow Transitioning from Laminar-to-Turbulent</h1>
        <table style="width: 100%;" cellpadding=0 cellspacing=0 border=0>
        <tr><td style="padding: 10px; border: solid 1px black;border-bottom: 0;"><strong>Local Time</strong></td><td style="border: solid 1px black;border-left: 0; border-bottom: 0; padding: 10px;">06:50:30</td></tr>
        <tr><td style="padding: 10px; border: solid 1px black;border-bottom: 0;"><strong>Altitude</strong></td><td style="border: solid 1px black;border-left: 0; border-bottom: 0; padding: 10px;">13,128ft (4,001.4m)</td></tr>
        <tr><td style="padding: 10px; border: solid 1px black;"><strong>Coordinates</strong></td><td style="border: solid 1px black; border-left: 0; padding: 10px;">39.29983333, -103.489</td></tr>
        </table>
        ]]></description>
                    <styleUrl>#31</styleUrl>
                    <Point id="29">
                        <coordinates>-103.489,39.2998333333,4001.41</coordinates>
                        <altitudeMode>absolute</altitudeMode>
                    </Point>
                </Placemark>
                <Placemark id="36">
                    <name>60k, Turbulent-to-Laminar</name>
                    <description><![CDATA[
        <h1>Airflow Transitioning from Turbulent-to-Laminar</h1>
        <table style="width: 100%;" cellpadding=0 cellspacing=0 border=0>
        <tr><td style="padding: 10px; border: solid 1px black;border-bottom: 0;"><strong>Local Time</strong></td><td style="border: solid 1px black;border-left: 0; border-bottom: 0; padding: 10px;">07:25:15</td></tr>
        <tr><td style="padding: 10px; border: solid 1px black;border-bottom: 0;"><strong>Altitude</strong></td><td style="border: solid 1px black;border-left: 0; border-bottom: 0; padding: 10px;">59,923ft (18,264.5m)</td></tr>
        <tr><td style="padding: 10px; border: solid 1px black;"><strong>Coordinates</strong></td><td style="border: solid 1px black; border-left: 0; padding: 10px;">39.25123333, -103.32803333</td></tr>
        </table>
        ]]></description>
                    <styleUrl>#37</styleUrl>
                    <Point id="35">
                        <coordinates>-103.3280333333,39.2512333333,18264.53</coordinates>
                        <altitudeMode>absolute</altitudeMode>
                    </Point>
                </Placemark>
            </Folder>
        </Document>
    </Document>
</kml>
